"pid","location","city","state","zip"
15001,"260 COLLEGE ST","New Haven","CT",""
15002,"COLLEGE ST","New Haven","CT",""
15003,"238 COLLEGE ST #2","New Haven","CT",""
15004,"238 COLLEGE ST #1","New Haven","CT",""
15005,NA,"New Haven","CT",""
15006,NA,"New Haven","CT",""
15007,"234 COLLEGE ST","New Haven","CT",""
15008,"CROWN ST","New Haven","CT",""
15009,"220 COLLEGE ST","New Haven","CT",""
15010,"255 CROWN ST","New Haven","CT",""
15011,"261 CROWN ST","New Haven","CT",""
15012,"265 CROWN ST","New Haven","CT",""
15013,"271 CROWN ST","New Haven","CT",""
15014,"277 CROWN ST","New Haven","CT",""
15015,"279 CROWN ST","New Haven","CT",""
15016,"281 CROWN ST","New Haven","CT",""
15017,"1073 CHAPEL ST","New Haven","CT",""
15018,"197 YORK ST","New Haven","CT",""
15019,"201 YORK ST","New Haven","CT",""
15020,"64 HIGH ST","New Haven","CT",""
15021,"60 HIGH ST","New Haven","CT",""
15022,"HIGH ST","New Haven","CT",""
15023,"1021 CHAPEL ST","New Haven","CT",""
15024,"61 HIGH ST","New Haven","CT",""
15025,"214 ELM ST","New Haven","CT",""
15026,"200 ELM ST","New Haven","CT",""
15027,"330 COLLEGE ST","New Haven","CT",""
15028,NA,"New Haven","CT",""
15029,"60 YORK ST","New Haven","CT",""
15030,"390 GEORGE ST","New Haven","CT",""
15031,"82 YORK ST","New Haven","CT",""
15032,"335 NORTH FRONTAGE RD","New Haven","CT",""
15033,"300 GEORGE ST","New Haven","CT",""
15034,"340 GEORGE ST","New Haven","CT",""
15035,"111 PARK ST","New Haven","CT",""
15036,"100 YORK ST","New Haven","CT",""
15037,"379 GEORGE ST","New Haven","CT",""
15038,"123 YORK ST","New Haven","CT",""
15039,"129 YORK ST","New Haven","CT",""
15040,"HIGH ST","New Haven","CT",""
15041,"280 CROWN ST","New Haven","CT",""
15042,"274 CROWN ST","New Haven","CT",""
15043,"270 CROWN ST","New Haven","CT",""
15044,"260 CROWN ST","New Haven","CT",""
15045,"254 CROWN ST","New Haven","CT",""
15046,"250 CROWN ST","New Haven","CT",""
15047,NA,"New Haven","CT",""
15048,"200 COLLEGE ST","New Haven","CT",""
15049,NA,"New Haven","CT",""
15050,"297 GEORGE ST","New Haven","CT",""
15051,NA,"New Haven","CT",""
15052,"301 GEORGE ST","New Haven","CT",""
15053,NA,"New Haven","CT",""
15054,"323 GEORGE ST","New Haven","CT",""
15055,"9 HIGH ST","New Haven","CT",""
15056,"15 HIGH ST","New Haven","CT",""
15057,"184 LIBERTY ST","New Haven","CT",""
15058,"184 LIBERTY ST","New Haven","CT",""
15059,"290 CONGRESS AV","New Haven","CT",""
15060,"270 CONGRESS AV","New Haven","CT",""
15061,"216 CONGRESS AV","New Haven","CT",""
15062,"93 WASHINGTON AV","New Haven","CT",""
15063,"101 WASHINGTON AV","New Haven","CT",""
15064,"789 HOWARD AV","New Haven","CT",""
15065,"375 CONGRESS AV","New Haven","CT",""
15066,NA,"New Haven","CT",""
15067,NA,"New Haven","CT",""
15068,"333 CEDAR ST","New Haven","CT",""
15069,"35 COLLEGE ST","New Haven","CT",""
15070,"144 COLUMBUS AV","New Haven","CT",""
15071,"150 COLUMBUS AV","New Haven","CT",""
15072,"PORTSEA ST","New Haven","CT",""
15073,"154 COLUMBUS AV","New Haven","CT",""
15074,"158 COLUMBUS AV","New Haven","CT",""
15075,"162 COLUMBUS AV","New Haven","CT",""
15076,"147 PORTSEA ST","New Haven","CT",""
15077,"145 PORTSEA ST","New Haven","CT",""
15078,"143 PORTSEA ST","New Haven","CT",""
15079,"141 PORTSEA ST","New Haven","CT",""
15080,"137 PORTSEA ST","New Haven","CT",""
15081,"133 PORTSEA ST","New Haven","CT",""
15082,"131 PORTSEA ST","New Haven","CT",""
15083,"127 PORTSEA ST","New Haven","CT",""
15084,"125 PORTSEA ST","New Haven","CT",""
15085,"115 PORTSEA ST","New Haven","CT",""
15086,"100 CHURCH ST SOUTH","New Haven","CT",""
15087,"46 PRINCE ST #101","New Haven","CT",""
15088,"46 PRINCE ST #102A","New Haven","CT",""
15089,"46 PRINCE ST #102B","New Haven","CT",""
15090,"46 PRINCE ST #103","New Haven","CT",""
15091,"46 PRINCE ST #104","New Haven","CT",""
15092,"46 PRINCE ST #105","New Haven","CT",""
15093,"46 PRINCE ST #106","New Haven","CT",""
15094,"46 PRINCE ST #107","New Haven","CT",""
15095,"46 PRINCE ST #108","New Haven","CT",""
15096,"46 PRINCE ST #109","New Haven","CT",""
15097,"46 PRINCE ST #201","New Haven","CT",""
15098,"46 PRINCE ST #202","New Haven","CT",""
15099,"46 PRINCE ST #203","New Haven","CT",""
15100,"46 PRINCE ST #204","New Haven","CT",""
15101,"46 PRINCE ST #205","New Haven","CT",""
15102,"46 PRINCE ST #206","New Haven","CT",""
15103,"46 PRINCE ST #207","New Haven","CT",""
15104,"46 PRINCE ST #208","New Haven","CT",""
15105,"46 PRINCE ST #209","New Haven","CT",""
15106,"46 PRINCE ST #301","New Haven","CT",""
15107,"46 PRINCE ST #302","New Haven","CT",""
15108,"46 PRINCE ST #303","New Haven","CT",""
15109,"46 PRINCE ST #305","New Haven","CT",""
15110,"46 PRINCE ST #306","New Haven","CT",""
15111,"46 PRINCE ST #307","New Haven","CT",""
15112,"46 PRINCE ST #308","New Haven","CT",""
15113,"46 PRINCE ST #309","New Haven","CT",""
15114,"46 PRINCE ST #310","New Haven","CT",""
15115,"46 PRINCE ST #401","New Haven","CT",""
15116,"46 PRINCE ST UNIT 402B","New Haven","CT",""
15117,"46 PRINCE ST #403","New Haven","CT",""
15118,"46 PRINCE ST #404","New Haven","CT",""
15119,"46 PRINCE ST #407","New Haven","CT",""
15120,"46 PRINCE ST #408","New Haven","CT",""
15121,"46 PRINCE ST #409","New Haven","CT",""
15122,"46 PRINCE ST #410","New Haven","CT",""
15123,"46 PRINCE ST #501","New Haven","CT",""
15124,"46 PRINCE ST #601","New Haven","CT",""
15125,"COLUMBUS AV","New Haven","CT",""
15126,"COLUMBUS AV","New Haven","CT",""
15127,"COLUMBUS AV","New Haven","CT",""
15128,"COLUMBUS AV","New Haven","CT",""
15129,"CEDAR ST","New Haven","CT",""
15130,"10 AMISTAD ST","New Haven","CT",""
15131,"CEDAR ST","New Haven","CT",""
15132,"PRINCE ST","New Haven","CT",""
15133,"CHURCH ST SOUTH","New Haven","CT",""
15134,"PRINCE ST","New Haven","CT",""
15135,"246 LAFAYETTE ST","New Haven","CT",""
15136,"234 LAFAYETTE ST","New Haven","CT",""
15137,"222 LAFAYETTE ST","New Haven","CT",""
15138,"206 LAFAYETTE ST","New Haven","CT",""
15139,"196 LAFAYETTE ST","New Haven","CT",""
15140,"188 LAFAYETTE ST","New Haven","CT",""
15141,"39 PRINCE ST","New Haven","CT",""
15142,"49 PRINCE ST","New Haven","CT",""
15143,"19 GOLD ST","New Haven","CT",""
15144,"70 WASHINGTON AV","New Haven","CT",""
15145,"22 GOLD ST","New Haven","CT",""
15146,"32 GOLD ST","New Haven","CT",""
15147,"10 GOLD ST","New Haven","CT",""
15148,"104 WASHINGTON AV","New Haven","CT",""
15149,"64 SPRING ST","New Haven","CT",""
15150,"104 CEDAR ST","New Haven","CT",""
15151,"90 CEDAR ST","New Haven","CT",""
15152,"88 CEDAR ST","New Haven","CT",""
15153,"86 CEDAR ST","New Haven","CT",""
15154,"84 CEDAR ST","New Haven","CT",""
15155,"82 CEDAR ST","New Haven","CT",""
15156,"11 ROSETTE ST","New Haven","CT",""
15157,"17 ROSETTE ST","New Haven","CT",""
15158,"19 ROSETTE ST","New Haven","CT",""
15159,"21 ROSETTE ST","New Haven","CT",""
15160,"23 ROSETTE ST","New Haven","CT",""
15161,"29 ROSETTE ST","New Haven","CT",""
15162,"33 ROSETTE ST","New Haven","CT",""
15163,"35 ROSETTE ST","New Haven","CT",""
15164,"37 ROSETTE ST","New Haven","CT",""
15165,"451 HOWARD AV","New Haven","CT",""
15166,"455 HOWARD AV","New Haven","CT",""
15167,"461 HOWARD AV","New Haven","CT",""
15168,"465 HOWARD AV","New Haven","CT",""
15169,"469 HOWARD AV","New Haven","CT",""
15170,"473 HOWARD AV","New Haven","CT",""
15171,"92 SPRING ST","New Haven","CT",""
15172,"86 SPRING ST","New Haven","CT",""
15173,"84 SPRING ST","New Haven","CT",""
15174,"82 SPRING ST","New Haven","CT",""
15175,"80 SPRING ST","New Haven","CT",""
15176,"76 SPRING ST","New Haven","CT",""
15177,"72 SPRING ST","New Haven","CT",""
15178,"70 SPRING ST","New Haven","CT",""
15179,"68 SPRING ST","New Haven","CT",""
15180,"66 SPRING ST","New Haven","CT",""
15181,"515 HOWARD AV","New Haven","CT",""
15182,"28 EDGAR ST","New Haven","CT",""
15183,"26 EDGAR ST","New Haven","CT",""
15184,"24 EDGAR ST","New Haven","CT",""
15185,"22 EDGAR ST","New Haven","CT",""
15186,"10 EDGAR ST","New Haven","CT",""
15187,"8 EDGAR ST","New Haven","CT",""
15188,"85 SPRING ST","New Haven","CT",""
15189,"87 SPRING ST","New Haven","CT",""
15190,"89 SPRING ST","New Haven","CT",""
15191,"91 SPRING ST","New Haven","CT",""
15192,"485 HOWARD AV","New Haven","CT",""
15193,"493 HOWARD AV","New Haven","CT",""
15194,"505 HOWARD AV","New Haven","CT",""
15195,"118 PUTNAM ST","New Haven","CT",""
15196,"132 CEDAR ST","New Haven","CT",""
15197,"130 CEDAR ST","New Haven","CT",""
15198,"128 CEDAR ST","New Haven","CT",""
15199,"126 CEDAR ST","New Haven","CT",""
15200,"124 CEDAR ST","New Haven","CT",""
15201,"122 CEDAR ST","New Haven","CT",""
15202,"120 CEDAR ST","New Haven","CT",""
15203,"118 CEDAR ST","New Haven","CT",""
15204,"63 SPRING ST","New Haven","CT",""
15205,"65 SPRING ST","New Haven","CT",""
15206,"69 SPRING ST","New Haven","CT",""
15207,"73 SPRING ST","New Haven","CT",""
15208,"75 SPRING ST","New Haven","CT",""
15209,"79 SPRING ST","New Haven","CT",""
15210,"81 SPRING ST","New Haven","CT",""
15211,"83 SPRING ST","New Haven","CT",""
15212,"5 EDGAR ST","New Haven","CT",""
15213,"7 EDGAR ST","New Haven","CT",""
15214,"9 EDGAR ST","New Haven","CT",""
15215,"11 EDGAR ST","New Haven","CT",""
15216,"13 EDGAR ST","New Haven","CT",""
15217,"15 EDGAR ST","New Haven","CT",""
15218,"17 EDGAR ST","New Haven","CT",""
15219,"19 EDGAR ST","New Haven","CT",""
15220,"21 EDGAR ST","New Haven","CT",""
15221,"140 PUTNAM ST","New Haven","CT",""
15222,"138 PUTNAM ST","New Haven","CT",""
15223,"134 PUTNAM ST","New Haven","CT",""
15224,"128 PUTNAM ST","New Haven","CT",""
15225,NA,"New Haven","CT",""
15226,"122 PUTNAM ST","New Haven","CT",""
15227,"10 LIBERTY ST","New Haven","CT",""
15228,"47 SPRING ST","New Haven","CT",""
15229,"113 CEDAR ST","New Haven","CT",""
15230,"117 CEDAR ST","New Haven","CT",""
15231,"119 CEDAR ST","New Haven","CT",""
15232,"121 CEDAR ST","New Haven","CT",""
15233,"123 CEDAR ST","New Haven","CT",""
15234,"125 CEDAR ST","New Haven","CT",""
15235,"127 CEDAR ST","New Haven","CT",""
15236,"129 CEDAR ST","New Haven","CT",""
15237,"131 CEDAR ST","New Haven","CT",""
15238,"112 PUTNAM ST","New Haven","CT",""
15239,"52 LIBERTY ST","New Haven","CT",""
15240,"50 LIBERTY ST","New Haven","CT",""
15241,"48 LIBERTY ST","New Haven","CT",""
15242,"46 LIBERTY ST","New Haven","CT",""
15243,"44 LIBERTY ST","New Haven","CT",""
15244,"42 LIBERTY ST","New Haven","CT",""
15245,"85 PUTNAM ST","New Haven","CT",""
15246,"87 PUTNAM ST","New Haven","CT",""
15247,"89 PUTNAM ST","New Haven","CT",""
15248,NA,"New Haven","CT",""
15249,"95 PUTNAM ST","New Haven","CT",""
15250,"101 PUTNAM ST","New Haven","CT",""
15251,"151 CEDAR ST","New Haven","CT",""
15252,"155 CEDAR ST","New Haven","CT",""
15253,"138 CARLISLE ST","New Haven","CT",""
15254,"136 CARLISLE ST","New Haven","CT",""
15255,"132 CARLISLE ST","New Haven","CT",""
15256,"130 CARLISLE ST","New Haven","CT",""
15257,"128 CARLISLE ST","New Haven","CT",""
15258,"122 CARLISLE ST","New Haven","CT",""
15259,"120 CARLISLE ST","New Haven","CT",""
15260,"146 CARLISLE ST","New Haven","CT",""
15261,"158 CEDAR ST","New Haven","CT",""
15262,"154 CEDAR ST","New Haven","CT",""
15263,"113 PUTNAM ST","New Haven","CT",""
15264,NA,"New Haven","CT",""
15265,"123 PUTNAM ST","New Haven","CT",""
15266,"129 PUTNAM ST","New Haven","CT",""
15267,NA,"New Haven","CT",""
15268,NA,"New Haven","CT",""
15269,"160 CARLISLE ST","New Haven","CT",""
15270,"17 SALEM ST","New Haven","CT",""
15271,"152 CARLISLE ST","New Haven","CT",""
15272,"166 CARLISLE ST","New Haven","CT",""
15273,"10 SALEM ST","New Haven","CT",""
15274,"8 SALEM ST","New Haven","CT",""
15275,"137 PUTNAM ST","New Haven","CT",""
15276,"143 PUTNAM ST","New Haven","CT",""
15277,"147 PUTNAM ST","New Haven","CT",""
15278,"151 PUTNAM ST","New Haven","CT",""
15279,"155 PUTNAM ST","New Haven","CT",""
15280,"159 PUTNAM ST","New Haven","CT",""
15281,"PUTNAM ST","New Haven","CT",""
15282,"529 HOWARD AV","New Haven","CT",""
15283,"533 HOWARD AV","New Haven","CT",""
15284,"535 HOWARD AV","New Haven","CT",""
15285,"537 HOWARD AV","New Haven","CT",""
15286,"539 HOWARD AV","New Haven","CT",""
15287,"541 HOWARD AV","New Haven","CT",""
15288,"545 HOWARD AV","New Haven","CT",""
15289,"551 HOWARD AV","New Haven","CT",""
15290,"180 CARLISLE ST","New Haven","CT",""
15291,"178 CARLISLE ST","New Haven","CT",""
15292,"174 CARLISLE ST","New Haven","CT",""
15293,"172 CARLISLE ST","New Haven","CT",""
15294,"36 SALEM ST","New Haven","CT",""
15295,"34 SALEM ST","New Haven","CT",""
15296,"32 SALEM ST","New Haven","CT",""
15297,"30 SALEM ST","New Haven","CT",""
15298,"28 SALEM ST","New Haven","CT",""
15299,"26 SALEM ST","New Haven","CT",""
15300,"24 SALEM ST","New Haven","CT",""
15301,"179 CARLISLE ST","New Haven","CT",""
15302,"559 HOWARD AV","New Haven","CT",""
15303,"565 HOWARD AV","New Haven","CT",""
15304,"577 HOWARD AV","New Haven","CT",""
15305,"230 PORTSEA ST","New Haven","CT",""
15306,"228 PORTSEA ST","New Haven","CT",""
15307,"CARLISLE ST","New Haven","CT",""
15308,"70 LIBERTY ST","New Haven","CT",""
15309,"68 LIBERTY ST","New Haven","CT",""
15310,"66 LIBERTY ST","New Haven","CT",""
15311,"64 LIBERTY ST","New Haven","CT",""
15312,"62 LIBERTY ST","New Haven","CT",""
15313,"60 LIBERTY ST","New Haven","CT",""
15314,"58 LIBERTY ST","New Haven","CT",""
15315,"125 CARLISLE ST","New Haven","CT",""
15316,"131 CARLISLE ST","New Haven","CT",""
15317,"133 CARLISLE ST","New Haven","CT",""
15318,"135 CARLISLE ST","New Haven","CT",""
15319,"167 CEDAR ST","New Haven","CT",""
15320,"169 CEDAR ST","New Haven","CT",""
15321,"173 CEDAR ST","New Haven","CT",""
15322,"175 CEDAR ST","New Haven","CT",""
15323,"177 CEDAR ST","New Haven","CT",""
15324,"179 CEDAR ST","New Haven","CT",""
15325,"184 PORTSEA ST","New Haven","CT",""
15326,"180 PORTSEA ST","New Haven","CT",""
15327,"174 PORTSEA ST","New Haven","CT",""
15328,"172 PORTSEA ST","New Haven","CT",""
15329,"168 PORTSEA ST","New Haven","CT",""
15330,"162 PORTSEA ST","New Haven","CT",""
15331,"200 COLUMBUS AV","New Haven","CT",""
15332,"161 PORTSEA ST","New Haven","CT",""
15333,"228 COLUMBUS AV","New Haven","CT",""
15334,"194 CEDAR ST","New Haven","CT",""
15335,"192 CEDAR ST","New Haven","CT",""
15336,"190 CEDAR ST","New Haven","CT",""
15337,"193 PORTSEA ST","New Haven","CT",""
15338,"197 PORTSEA ST","New Haven","CT",""
15339,"201 PORTSEA ST","New Haven","CT",""
15340,"205 PORTSEA ST","New Haven","CT",""
15341,"207 PORTSEA ST","New Haven","CT",""
15342,"211 PORTSEA ST","New Haven","CT",""
15343,"47 SALEM ST","New Haven","CT",""
15344,"51 SALEM ST","New Haven","CT",""
15345,"238 COLUMBUS AV","New Haven","CT",""
15346,"232 COLUMBUS AV","New Haven","CT",""
15347,"246 COLUMBUS AV","New Haven","CT",""
15348,"52 SALEM ST","New Haven","CT",""
15349,"48 SALEM ST","New Haven","CT",""
15350,"215 PORTSEA ST","New Haven","CT",""
15351,"219 PORTSEA ST","New Haven","CT",""
15352,"223 PORTSEA ST","New Haven","CT",""
15353,"227 PORTSEA ST","New Haven","CT",""
15354,"583 HOWARD AV","New Haven","CT",""
15355,"589 HOWARD AV","New Haven","CT",""
15356,"593 HOWARD AV","New Haven","CT",""
15357,"599 HOWARD AV","New Haven","CT",""
15358,NA,"New Haven","CT",""
15359,"609 HOWARD AV","New Haven","CT",""
15360,NA,"New Haven","CT",""
15361,"258 COLUMBUS AV","New Haven","CT",""
15362,"250 COLUMBUS AV","New Haven","CT",""
15363,"248 COLUMBUS AV","New Haven","CT",""
15364,"264 HALLOCK AV","New Haven","CT",""
15365,"262 HALLOCK AV","New Haven","CT",""
15366,"258 HALLOCK AV","New Haven","CT",""
15367,"252 HALLOCK AV","New Haven","CT",""
15368,"250 HALLOCK AV","New Haven","CT",""
15369,"246 HALLOCK AV","New Haven","CT",""
15370,"242 HALLOCK AV","New Haven","CT",""
15371,"240 HALLOCK AV","New Haven","CT",""
15372,"33 SECOND ST","New Haven","CT",""
15373,"39 SECOND ST","New Haven","CT",""
15374,"45 SECOND ST","New Haven","CT",""
15375,"51 SECOND ST","New Haven","CT",""
15376,"57 SECOND ST","New Haven","CT",""
15377,"297 HOWARD AV","New Haven","CT",""
15378,"301 HOWARD AV","New Haven","CT",""
15379,"305 HOWARD AV","New Haven","CT",""
15380,"309 HOWARD AV","New Haven","CT",""
15381,"313 HOWARD AV","New Haven","CT",""
15382,"317 HOWARD AV","New Haven","CT",""
15383,"323 HOWARD AV","New Haven","CT",""
15384,"FIRST ST","New Haven","CT",""
15385,"322 HOWARD AV","New Haven","CT",""
15386,"318 HOWARD AV","New Haven","CT",""
15387,"314 HOWARD AV","New Haven","CT",""
15388,"310 HOWARD AV","New Haven","CT",""
15389,"306 HOWARD AV","New Haven","CT",""
15390,"302 HOWARD AV","New Haven","CT",""
15391,"300 HOWARD AV","New Haven","CT",""
15392,"294 HOWARD AV","New Haven","CT",""
15393,"288 HOWARD AV","New Haven","CT",""
15394,"75 SECOND ST","New Haven","CT",""
15395,"375 GREENWICH AV","New Haven","CT",""
15396,"383 GREENWICH AV","New Haven","CT",""
15397,"391 GREENWICH AV","New Haven","CT",""
15398,"393 GREENWICH AV","New Haven","CT",""
15399,"397 GREENWICH AV","New Haven","CT",""
15400,"401 GREENWICH AV","New Haven","CT",""
15401,"405 GREENWICH AV","New Haven","CT",""
15402,"409 GREENWICH AV","New Haven","CT",""
15403,"415 GREENWICH AV","New Haven","CT",""
15404,"417 GREENWICH AV","New Haven","CT",""
15405,"421 GREENWICH AV","New Haven","CT",""
15406,"425 GREENWICH AV","New Haven","CT",""
15407,"431 GREENWICH AV","New Haven","CT",""
15408,"82 FIRST ST","New Haven","CT",""
15409,"80 FIRST ST","New Haven","CT",""
15410,"78 FIRST ST","New Haven","CT",""
15411,"20 LAMBERTON ST","New Haven","CT",""
15412,"300 HALLOCK AV","New Haven","CT",""
15413,"HALLOCK AV","New Haven","CT",""
15414,"296 HALLOCK AV","New Haven","CT",""
15415,"290 HALLOCK AV","New Haven","CT",""
15416,"288 HALLOCK AV","New Haven","CT",""
15417,"284 HALLOCK AV","New Haven","CT",""
15418,"282 HALLOCK AV","New Haven","CT",""
15419,"280 HALLOCK AV","New Haven","CT",""
15420,"278 HALLOCK AV","New Haven","CT",""
15421,"276 HALLOCK AV","New Haven","CT",""
15422,"41 FIRST ST","New Haven","CT",""
15423,"FIRST ST","New Haven","CT",""
15424,"333 HOWARD AV","New Haven","CT",""
15425,"337 HOWARD AV","New Haven","CT",""
15426,"341 HOWARD AV","New Haven","CT",""
15427,"345 HOWARD AV","New Haven","CT",""
15428,"349 HOWARD AV","New Haven","CT",""
15429,"353 HOWARD AV","New Haven","CT",""
15430,"357 HOWARD AV","New Haven","CT",""
15431,"361 HOWARD AV","New Haven","CT",""
15432,"365 HOWARD AV","New Haven","CT",""
15433,"367 HOWARD AV","New Haven","CT",""
15434,"32 LAMBERTON ST","New Haven","CT",""
15435,"30 LAMBERTON ST","New Haven","CT",""
15436,"26 LAMBERTON ST","New Haven","CT",""
15437,"22 LAMBERTON ST","New Haven","CT",""
15438,"368 HOWARD AV","New Haven","CT",""
15439,"364 HOWARD AV","New Haven","CT",""
15440,"360 HOWARD AV","New Haven","CT",""
15441,"356 HOWARD AV","New Haven","CT",""
15442,"352 HOWARD AV","New Haven","CT",""
15443,"348 HOWARD AV","New Haven","CT",""
15444,"344 HOWARD AV","New Haven","CT",""
15445,"340 HOWARD AV","New Haven","CT",""
15446,"332 HOWARD AV","New Haven","CT",""
15447,"77 FIRST ST","New Haven","CT",""
15448,"79 FIRST ST","New Haven","CT",""
15449,NA,"New Haven","CT",""
15450,"445 GREENWICH AV","New Haven","CT",""
15451,"451 GREENWICH AV","New Haven","CT",""
15452,"455 GREENWICH AV","New Haven","CT",""
15453,"459 GREENWICH AV","New Haven","CT",""
15454,"467 GREENWICH AV","New Haven","CT",""
15455,"54 KIMBERLY AV","New Haven","CT",""
15456,"48 KIMBERLY AV","New Haven","CT",""
15457,"42 KIMBERLY AV","New Haven","CT",""
15458,"34 KIMBERLY AV","New Haven","CT",""
15459,"58 LAMBERTON ST","New Haven","CT",""
15460,"KIMBERLY AV","New Haven","CT",""
15461,"28 CEDAR ST","New Haven","CT",""
15462,"26 CEDAR ST","New Haven","CT",""
15463,"24 CEDAR ST","New Haven","CT",""
15464,"4 CEDAR ST","New Haven","CT",""
15465,"8 CEDAR ST","New Haven","CT",""
15466,"14 CEDAR ST","New Haven","CT",""
15467,"11 LAMBERTON ST","New Haven","CT",""
15468,"15 LAMBERTON ST","New Haven","CT",""
15469,"17 LAMBERTON ST","New Haven","CT",""
15470,"19 LAMBERTON ST","New Haven","CT",""
15471,"23 LAMBERTON ST","New Haven","CT",""
15472,"29 LAMBERTON ST","New Haven","CT",""
15473,"375 HOWARD AV","New Haven","CT",""
15474,"387 HOWARD AV","New Haven","CT",""
15475,"391 HOWARD AV","New Haven","CT",""
15476,"395 HOWARD AV","New Haven","CT",""
15477,"399 HOWARD AV","New Haven","CT",""
15478,"40 CASSIUS ST","New Haven","CT",""
15479,"38 CASSIUS ST","New Haven","CT",""
15480,"34 CASSIUS ST","New Haven","CT",""
15481,"28 CASSIUS ST","New Haven","CT",""
15482,"24 CASSIUS ST","New Haven","CT",""
15483,"20 CASSIUS ST","New Haven","CT",""
15484,"18 CASSIUS ST","New Haven","CT",""
15485,"16 CASSIUS ST","New Haven","CT",""
15486,"10 CASSIUS ST","New Haven","CT",""
15487,"76 CEDAR ST","New Haven","CT",""
15488,"54 CEDAR ST","New Haven","CT",""
15489,"52 CEDAR ST","New Haven","CT",""
15490,"48 CEDAR ST","New Haven","CT",""
15491,"42 CEDAR ST","New Haven","CT",""
15492,"38 CEDAR ST","New Haven","CT",""
15493,"3 CASSIUS ST #A","New Haven","CT",""
15494,"3 CASSIUS ST #B","New Haven","CT",""
15495,"3 CASSIUS ST #C","New Haven","CT",""
15496,"11 CASSIUS ST","New Haven","CT",""
15497,"15 CASSIUS ST","New Haven","CT",""
15498,"19 CASSIUS ST","New Haven","CT",""
15499,"25 CASSIUS ST","New Haven","CT",""
15500,"29 CASSIUS ST","New Haven","CT",""
15501,"33 CASSIUS ST","New Haven","CT",""
15502,"37 CASSIUS ST","New Haven","CT",""
15503,"41 CASSIUS ST","New Haven","CT",""
15504,"407 HOWARD AV","New Haven","CT",""
15505,"423 HOWARD AV","New Haven","CT",""
15506,"425 HOWARD AV","New Haven","CT",""
15507,"429 HOWARD AV","New Haven","CT",""
15508,"433 HOWARD AV","New Haven","CT",""
15509,"439 HOWARD AV","New Haven","CT",""
15510,"443 HOWARD AV","New Haven","CT",""
15511,"36 ROSETTE ST","New Haven","CT",""
15512,"34 ROSETTE ST","New Haven","CT",""
15513,"32 ROSETTE ST","New Haven","CT",""
15514,"26 ROSETTE ST","New Haven","CT",""
15515,"24 ROSETTE ST","New Haven","CT",""
15516,"22 ROSETTE ST","New Haven","CT",""
15517,"18 ROSETTE ST","New Haven","CT",""
15518,"16 ROSETTE ST","New Haven","CT",""
15519,"14 ROSETTE ST","New Haven","CT",""
15520,"14 KIMBERLY AV","New Haven","CT",""
15521,NA,"New Haven","CT",""
15522,"446 HOWARD AV","New Haven","CT",""
15523,"440 HOWARD AV","New Haven","CT",""
15524,"436 HOWARD AV","New Haven","CT",""
15525,"430 HOWARD AV","New Haven","CT",""
15526,"HOWARD AV","New Haven","CT",""
15527,"HOWARD AV","New Haven","CT",""
15528,"424 HOWARD AV","New Haven","CT",""
15529,"410 HOWARD AV","New Haven","CT",""
15530,"3 KIMBERLY AV","New Haven","CT",""
15531,"9 KIMBERLY AV","New Haven","CT",""
15532,"17 KIMBERLY AV","New Haven","CT",""
15533,"21 KIMBERLY AV","New Haven","CT",""
15534,"27 KIMBERLY AV","New Haven","CT",""
15535,"31 KIMBERLY AV","New Haven","CT",""
15536,"61 LAMBERTON ST","New Haven","CT",""
15537,"63 LAMBERTON ST","New Haven","CT",""
15538,"65 LAMBERTON ST","New Haven","CT",""
15539,"67 LAMBERTON ST","New Haven","CT",""
15540,"15 DEWITT ST","New Haven","CT",""
15541,"23 DEWITT ST","New Haven","CT",""
15542,"27 DEWITT ST","New Haven","CT",""
15543,"31 DEWITT ST","New Haven","CT",""
15544,"35 DEWITT ST","New Haven","CT",""
15545,"39 DEWITT ST","New Haven","CT",""
15546,"43 DEWITT ST","New Haven","CT",""
15547,"51 DEWITT ST","New Haven","CT",""
15548,"55 DEWITT ST","New Haven","CT",""
15549,"57 DEWITT ST","New Haven","CT",""
15550,"90 ROSETTE ST","New Haven","CT",""
15551,"88 ROSETTE ST","New Haven","CT",""
15552,"84 ROSETTE ST","New Haven","CT",""
15553,"80 ROSETTE ST","New Haven","CT",""
15554,"72 ROSETTE ST","New Haven","CT",""
15555,"70 ROSETTE ST","New Haven","CT",""
15556,"66 ROSETTE ST","New Haven","CT",""
15557,"126 HALLOCK AV","New Haven","CT",""
15558,"124 HALLOCK AV","New Haven","CT",""
15559,"118 HALLOCK AV","New Haven","CT",""
15560,"112 HALLOCK AV","New Haven","CT",""
15561,"110 HALLOCK AV","New Haven","CT",""
15562,"102 HALLOCK AV","New Haven","CT",""
15563,"33 FIFTH ST","New Haven","CT",""
15564,"39 FIFTH ST","New Haven","CT",""
15565,"43 FIFTH ST","New Haven","CT",""
15566,"47 FIFTH ST","New Haven","CT",""
15567,"151 HOWARD AV","New Haven","CT",""
15568,"157 HOWARD AV","New Haven","CT",""
15569,"163 HOWARD AV","New Haven","CT",""
15570,"167 HOWARD AV","New Haven","CT",""
15571,"173 HOWARD AV","New Haven","CT",""
15572,"177 HOWARD AV","New Haven","CT",""
15573,"181 HOWARD AV","New Haven","CT",""
15574,"185 HOWARD AV","New Haven","CT",""
15575,"42 FOURTH ST","New Haven","CT",""
15576,"188 HOWARD AV","New Haven","CT",""
15577,"184 HOWARD AV","New Haven","CT",""
15578,"180 HOWARD AV","New Haven","CT",""
15579,"174 HOWARD AV","New Haven","CT",""
15580,"170 HOWARD AV","New Haven","CT",""
15581,"164 HOWARD AV","New Haven","CT",""
15582,"158 HOWARD AV","New Haven","CT",""
15583,"154 HOWARD AV","New Haven","CT",""
15584,"79 FIFTH ST","New Haven","CT",""
15585,"205 GREENWICH AV","New Haven","CT",""
15586,"217 GREENWICH AV","New Haven","CT",""
15587,"221 GREENWICH AV","New Haven","CT",""
15588,"225 GREENWICH AV","New Haven","CT",""
15589,"229 GREENWICH AV","New Haven","CT",""
15590,"233 GREENWICH AV","New Haven","CT",""
15591,"239 GREENWICH AV","New Haven","CT",""
15592,"86 FOURTH ST","New Haven","CT",""
15593,"82 FOURTH ST","New Haven","CT",""
15594,"76 FOURTH ST","New Haven","CT",""
15595,"72 FOURTH ST","New Haven","CT",""
15596,"174 HALLOCK AV","New Haven","CT",""
15597,"170 HALLOCK AV","New Haven","CT",""
15598,"164 HALLOCK AV","New Haven","CT",""
15599,"158 HALLOCK AV","New Haven","CT",""
15600,"154 HALLOCK AV","New Haven","CT",""
15601,"150 HALLOCK AV","New Haven","CT",""
15602,"HALLOCK AV","New Haven","CT",""
15603,"138 HALLOCK AV","New Haven","CT",""
15604,"43 FOURTH ST","New Haven","CT",""
15605,"197 HOWARD AV","New Haven","CT",""
15606,"201 HOWARD AV","New Haven","CT",""
15607,"207 HOWARD AV","New Haven","CT",""
15608,"213 HOWARD AV","New Haven","CT",""
15609,"217 HOWARD AV","New Haven","CT",""
15610,"221 HOWARD AV","New Haven","CT",""
15611,"227 HOWARD AV","New Haven","CT",""
15612,"235 HOWARD AV","New Haven","CT",""
15613,"48 THIRD ST","New Haven","CT",""
15614,"42 THIRD ST","New Haven","CT",""
15615,"234 HOWARD AV","New Haven","CT",""
15616,"230 HOWARD AV","New Haven","CT",""
15617,"226 HOWARD AV","New Haven","CT",""
15618,"222 HOWARD AV","New Haven","CT",""
15619,"220 HOWARD AV","New Haven","CT",""
15620,"216 HOWARD AV","New Haven","CT",""
15621,"214 HOWARD AV","New Haven","CT",""
15622,"210 HOWARD AV","New Haven","CT",""
15623,"208 HOWARD AV","New Haven","CT",""
15624,"204 HOWARD AV","New Haven","CT",""
15625,"198 HOWARD AV","New Haven","CT",""
15626,"75 FOURTH ST","New Haven","CT",""
15627,"77 FOURTH ST","New Haven","CT",""
15628,"85 FOURTH ST","New Haven","CT",""
15629,"269 GREENWICH AV","New Haven","CT",""
15630,"275 GREENWICH AV","New Haven","CT",""
15631,"281 GREENWICH AV","New Haven","CT",""
15632,"289 GREENWICH AV","New Haven","CT",""
15633,"293 GREENWICH AV","New Haven","CT",""
15634,"297 GREENWICH AV","New Haven","CT",""
15635,"299 GREENWICH AV","New Haven","CT",""
15636,"303 GREENWICH AV","New Haven","CT",""
15637,"307 GREENWICH AV","New Haven","CT",""
15638,"311 GREENWICH AV","New Haven","CT",""
15639,"78 THIRD ST","New Haven","CT",""
15640,"76 THIRD ST","New Haven","CT",""
15641,"72 THIRD ST","New Haven","CT",""
15642,"222 HALLOCK AV","New Haven","CT",""
15643,"218 HALLOCK AV","New Haven","CT",""
15644,"214 HALLOCK AV","New Haven","CT",""
15645,"212 HALLOCK AV","New Haven","CT",""
15646,"206 HALLOCK AV","New Haven","CT",""
15647,"204 HALLOCK AV","New Haven","CT",""
15648,"202 HALLOCK AV","New Haven","CT",""
15649,"198 HALLOCK AV","New Haven","CT",""
15650,"196 HALLOCK AV","New Haven","CT",""
15651,"HALLOCK AV","New Haven","CT",""
15652,"194 HALLOCK AV","New Haven","CT",""
15653,"192 HALLOCK AV","New Haven","CT",""
15654,"188 HALLOCK AV","New Haven","CT",""
15655,"45 THIRD ST","New Haven","CT",""
15656,"47 THIRD ST","New Haven","CT",""
15657,"241 HOWARD AV","New Haven","CT",""
15658,"245 HOWARD AV","New Haven","CT",""
15659,"249 HOWARD AV","New Haven","CT",""
15660,"253 HOWARD AV","New Haven","CT",""
15661,"259 HOWARD AV","New Haven","CT",""
15662,"261 HOWARD AV","New Haven","CT",""
15663,"267 HOWARD AV","New Haven","CT",""
15664,"271 HOWARD AV","New Haven","CT",""
15665,"277 HOWARD AV","New Haven","CT",""
15666,"279 HOWARD AV","New Haven","CT",""
15667,"48 SECOND ST","New Haven","CT",""
15668,"44 SECOND ST","New Haven","CT",""
15669,"40 SECOND ST","New Haven","CT",""
15670,"278 HOWARD AV","New Haven","CT",""
15671,"274 HOWARD AV","New Haven","CT",""
15672,"270 HOWARD AV","New Haven","CT",""
15673,"264 HOWARD AV","New Haven","CT",""
15674,"260 HOWARD AV","New Haven","CT",""
15675,"254 HOWARD AV","New Haven","CT",""
15676,"248 HOWARD AV","New Haven","CT",""
15677,"242 HOWARD AV","New Haven","CT",""
15678,"75 THIRD ST","New Haven","CT",""
15679,"77 THIRD ST","New Haven","CT",""
15680,"321 GREENWICH AV","New Haven","CT",""
15681,"325 GREENWICH AV","New Haven","CT",""
15682,NA,"New Haven","CT",""
15683,"333 GREENWICH AV","New Haven","CT",""
15684,"337 GREENWICH AV","New Haven","CT",""
15685,"343 GREENWICH AV","New Haven","CT",""
15686,"351 GREENWICH AV","New Haven","CT",""
15687,"353 GREENWICH AV","New Haven","CT",""
15688,"355 GREENWICH AV","New Haven","CT",""
15689,"86 SECOND ST","New Haven","CT",""
15690,"84 SECOND ST","New Haven","CT",""
15691,"80 SECOND ST","New Haven","CT",""
15692,"78 SECOND ST","New Haven","CT",""
15693,NA,"New Haven","CT",""
15694,"68 SECOND ST","New Haven","CT",""
15695,"100 SECOND ST","New Haven","CT",""
15696,"370 GREENWICH AV","New Haven","CT",""
15697,"368 GREENWICH AV","New Haven","CT",""
15698,"362 GREENWICH AV","New Haven","CT",""
15699,"356 GREENWICH AV","New Haven","CT",""
15700,"352 GREENWICH AV","New Haven","CT",""
15701,"348 GREENWICH AV","New Haven","CT",""
15702,"342 GREENWICH AV","New Haven","CT",""
15703,"338 GREENWICH AV","New Haven","CT",""
15704,"330 GREENWICH AV","New Haven","CT",""
15705,"324 GREENWICH AV","New Haven","CT",""
15706,"320 GREENWICH AV","New Haven","CT",""
15707,NA,"New Haven","CT",""
15708,"314 GREENWICH AV","New Haven","CT",""
15709,"312 GREENWICH AV","New Haven","CT",""
15710,"306 GREENWICH AV","New Haven","CT",""
15711,"302 GREENWICH AV","New Haven","CT",""
15712,"298 GREENWICH AV","New Haven","CT",""
15713,"296 GREENWICH AV","New Haven","CT",""
15714,"294 GREENWICH AV","New Haven","CT",""
15715,"290 GREENWICH AV","New Haven","CT",""
15716,"286 GREENWICH AV","New Haven","CT",""
15717,NA,"New Haven","CT",""
15718,"276 GREENWICH AV","New Haven","CT",""
15719,"272 GREENWICH AV","New Haven","CT",""
15720,"270 GREENWICH AV","New Haven","CT",""
15721,"260 GREENWICH AV","New Haven","CT",""
15722,"GREENWICH AV","New Haven","CT",""
15723,"252 GREENWICH AV","New Haven","CT",""
15724,"250 GREENWICH AV","New Haven","CT",""
15725,"242 GREENWICH AV","New Haven","CT",""
15726,"238 GREENWICH AV","New Haven","CT",""
15727,"234 GREENWICH AV","New Haven","CT",""
15728,"228 GREENWICH AV","New Haven","CT",""
15729,"224 GREENWICH AV","New Haven","CT",""
15730,"220 GREENWICH AV","New Haven","CT",""
15731,"216 GREENWICH AV","New Haven","CT",""
15732,"212 GREENWICH AV","New Haven","CT",""
15733,"210 GREENWICH AV","New Haven","CT",""
15734,"206 GREENWICH AV","New Haven","CT",""
15735,"202 GREENWICH AV","New Haven","CT",""
15736,"196 GREENWICH AV","New Haven","CT",""
15737,"228 KIMBERLY AV","New Haven","CT",""
15738,"224 KIMBERLY AV","New Haven","CT",""
15739,"220 KIMBERLY AV","New Haven","CT",""
15740,"216 KIMBERLY AV","New Haven","CT",""
15741,"212 KIMBERLY AV","New Haven","CT",""
15742,"208 KIMBERLY AV","New Haven","CT",""
15743,"204 KIMBERLY AV","New Haven","CT",""
15744,"200 KIMBERLY AV","New Haven","CT",""
15745,"196 KIMBERLY AV","New Haven","CT",""
15746,"192 KIMBERLY AV","New Haven","CT",""
15747,"190 KIMBERLY AV","New Haven","CT",""
15748,"182 KIMBERLY AV","New Haven","CT",""
15749,"178 KIMBERLY AV","New Haven","CT",""
15750,"KIMBERLY AV","New Haven","CT",""
15751,"155 ELLA T GRASSO BLVD","New Haven","CT",""
15752,"161 ELLA T GRASSO BLVD","New Haven","CT",""
15753,"254 KIMBERLY AV","New Haven","CT",""
15754,"246 KIMBERLY AV","New Haven","CT",""
15755,"240 KIMBERLY AV","New Haven","CT",""
15756,"160 ELLA T GRASSO BLVD","New Haven","CT",""
15757,"ELLA T GRASSO BLVD","New Haven","CT",""
15758,"194 ELLA T GRASSO BLVD","New Haven","CT",""
15759,"198 ELLA T GRASSO BLVD","New Haven","CT",""
15760,"ELLA T GRASSO BLVD","New Haven","CT",""
15761,"241 KIMBERLY AV","New Haven","CT",""
15762,"247 KIMBERLY AV","New Haven","CT",""
15763,"255 KIMBERLY AV","New Haven","CT",""
15764,"251 KIMBERLY AV","New Haven","CT",""
15765,"267 KIMBERLY AV","New Haven","CT",""
15766,"294 KIMBERLY AV","New Haven","CT",""
15767,"272 KIMBERLY AV","New Haven","CT",""
15768,"317 KIMBERLY AV","New Haven","CT",""
15769,"ELLA T GRASSO BLVD","New Haven","CT",""
15770,"28 HARBOUR CLOSE #B12","New Haven","CT",""
15771,"30 HARBOUR CLOSE #B17","New Haven","CT",""
15772,"32 HARBOUR CLOSE #B18","New Haven","CT",""
15773,"34 HARBOUR CLOSE #B-11","New Haven","CT",""
15774,"36 HARBOUR CLOSE #A-1","New Haven","CT",""
15775,"38 HARBOUR CLOSE #B-16","New Haven","CT",""
15776,"40 HARBOUR CLOSE #B-14","New Haven","CT",""
15777,"42 HARBOUR CLOSE #A-4","New Haven","CT",""
15778,"44 HARBOUR CLOSE #A-9","New Haven","CT",""
15779,"46 HARBOUR CLOSE #A-2","New Haven","CT",""
15780,"48 HARBOUR CLOSE #A-3","New Haven","CT",""
15781,"50 HARBOUR CLOSE #A-8","New Haven","CT",""
15782,"52 HARBOUR CLOSE #A-5","New Haven","CT",""
15783,"54 HARBOUR CLOSE #A-6","New Haven","CT",""
15784,"56 HARBOUR CLOSE #A-7","New Haven","CT",""
15785,"58 HARBOUR CLOSE #C-20","New Haven","CT",""
15786,"60 HARBOUR CLOSE #C-24","New Haven","CT",""
15787,"62 HARBOUR CLOSE #C-22","New Haven","CT",""
15788,"64 HARBOUR CLOSE #B-10","New Haven","CT",""
15789,"66 HARBOUR CLOSE #B-13","New Haven","CT",""
15790,"68 HARBOUR CLOSE #B-15","New Haven","CT",""
15791,"70 HARBOUR CLOSE #C-19","New Haven","CT",""
15792,"72 HARBOUR CLOSE #C-21","New Haven","CT",""
15793,"74 HARBOUR CLOSE #C-23","New Haven","CT",""
15794,"KIMBERLY AV","New Haven","CT",""
15795,"KIMBERLY AV","New Haven","CT",""
15796,"KIMBERLY AV","New Haven","CT",""
15797,"KIMBERLY AV","New Haven","CT",""
15798,"KIMBERLY AV","New Haven","CT",""
15799,"386 KIMBERLY AV","New Haven","CT",""
15800,"345 KIMBERLY AV","New Haven","CT",""
15801,"KIMBERLY AV","New Haven","CT",""
15802,"KIMBERLY AV","New Haven","CT",""
15803,"355 KIMBERLY AV","New Haven","CT",""
15804,"KIMBERLY AV","New Haven","CT",""
15805,"230 ELLA T GRASSO BLVD","New Haven","CT",""
15806,"ELLA T GRASSO BLVD","New Haven","CT",""
15807,"ELLA T GRASSO BLVD","New Haven","CT",""
15808,"126 KIMBERLY AV","New Haven","CT",""
15809,"120 KIMBERLY AV","New Haven","CT",""
15810,"118 KIMBERLY AV","New Haven","CT",""
15811,"114 KIMBERLY AV","New Haven","CT",""
15812,"110 KIMBERLY AV","New Haven","CT",""
15813,"104 KIMBERLY AV","New Haven","CT",""
15814,"100 KIMBERLY AV","New Haven","CT",""
15815,"98 KIMBERLY AV","New Haven","CT",""
15816,"94 KIMBERLY AV","New Haven","CT",""
15817,"100 FIRST ST","New Haven","CT",""
15818,"GREENWICH AV","New Haven","CT",""
15819,"414 GREENWICH AV","New Haven","CT",""
15820,"410 GREENWICH AV","New Haven","CT",""
15821,"406 GREENWICH AV","New Haven","CT",""
15822,"404 GREENWICH AV","New Haven","CT",""
15823,"400 GREENWICH AV","New Haven","CT",""
15824,"394 GREENWICH AV","New Haven","CT",""
15825,"390 GREENWICH AV","New Haven","CT",""
15826,"382 GREENWICH AV","New Haven","CT",""
15827,"154 KIMBERLY AV","New Haven","CT",""
15828,"205 ELLA T GRASSO BLVD","New Haven","CT",""
15829,"55 PLYMOUTH ST","New Haven","CT",""
15830,"59 PLYMOUTH ST","New Haven","CT",""
15831,"61 PLYMOUTH ST","New Haven","CT",""
15832,"65 PLYMOUTH ST","New Haven","CT",""
15833,"67 PLYMOUTH ST","New Haven","CT",""
15834,"69 PLYMOUTH ST","New Haven","CT",""
15835,"PLYMOUTH ST","New Haven","CT",""
15836,"81 PLYMOUTH ST","New Haven","CT",""
15837,"85 PLYMOUTH ST","New Haven","CT",""
15838,"89 PLYMOUTH ST","New Haven","CT",""
15839,"91 PLYMOUTH ST","New Haven","CT",""
15840,"95 PLYMOUTH ST","New Haven","CT",""
15841,"14 GRANT ST","New Haven","CT",""
15842,"163 KIMBERLY AV","New Haven","CT",""
15843,"167 KIMBERLY AV","New Haven","CT",""
15844,"173 KIMBERLY AV","New Haven","CT",""
15845,"175 KIMBERLY AV","New Haven","CT",""
15846,"183 KIMBERLY AV","New Haven","CT",""
15847,"187 KIMBERLY AV","New Haven","CT",""
15848,"191 KIMBERLY AV","New Haven","CT",""
15849,"195 KIMBERLY AV","New Haven","CT",""
15850,"199 KIMBERLY AV","New Haven","CT",""
15851,"201 KIMBERLY AV","New Haven","CT",""
15852,"205 KIMBERLY AV","New Haven","CT",""
15853,"209 KIMBERLY AV","New Haven","CT",""
15854,"211 KIMBERLY AV","New Haven","CT",""
15855,"215 KIMBERLY AV","New Haven","CT",""
15856,"219 KIMBERLY AV","New Haven","CT",""
15857,"195 ELLA T GRASSO BLVD","New Haven","CT",""
15858,NA,"New Haven","CT",""
15859,"58 PLYMOUTH ST","New Haven","CT",""
15860,"239 ELLA T GRASSO BLVD","New Haven","CT",""
15861,"PLYMOUTH ST","New Haven","CT",""
15862,"ELLA T GRASSO BLVD","New Haven","CT",""
15863,"60 PLYMOUTH ST","New Haven","CT",""
15864,"64 PLYMOUTH ST","New Haven","CT",""
15865,"68 PLYMOUTH ST","New Haven","CT",""
15866,"78 PLYMOUTH ST","New Haven","CT",""
15867,"84 PLYMOUTH ST","New Haven","CT",""
15868,"88 PLYMOUTH ST","New Haven","CT",""
15869,"94 PLYMOUTH ST","New Haven","CT",""
15870,"96 PLYMOUTH ST","New Haven","CT",""
15871,"48 GRANT ST #1","New Haven","CT",""
15872,"48 GRANT ST","New Haven","CT",""
15873,"255 ELLA T GRASSO BLVD","New Haven","CT",""
15874,"99 PLYMOUTH ST","New Haven","CT",""
15875,"101 PLYMOUTH ST","New Haven","CT",""
15876,NA,"New Haven","CT",""
15877,"107 PLYMOUTH ST","New Haven","CT",""
15878,"111 PLYMOUTH ST","New Haven","CT",""
15879,"115 PLYMOUTH ST","New Haven","CT",""
15880,"117 PLYMOUTH ST","New Haven","CT",""
15881,"121 PLYMOUTH ST","New Haven","CT",""
15882,NA,"New Haven","CT",""
15883,"129 PLYMOUTH ST","New Haven","CT",""
15884,"133 PLYMOUTH ST","New Haven","CT",""
15885,"135 PLYMOUTH ST","New Haven","CT",""
15886,"141 PLYMOUTH ST","New Haven","CT",""
15887,"143 PLYMOUTH ST","New Haven","CT",""
15888,"145 PLYMOUTH ST","New Haven","CT",""
15889,"149 PLYMOUTH ST","New Haven","CT",""
15890,"151 PLYMOUTH ST","New Haven","CT",""
15891,"155 PLYMOUTH ST","New Haven","CT",""
15892,"157 PLYMOUTH ST","New Haven","CT",""
15893,"161 PLYMOUTH ST","New Haven","CT",""
15894,"165 PLYMOUTH ST","New Haven","CT",""
15895,"169 PLYMOUTH ST","New Haven","CT",""
15896,"173 PLYMOUTH ST","New Haven","CT",""
15897,"175 PLYMOUTH ST","New Haven","CT",""
15898,"181 PLYMOUTH ST","New Haven","CT",""
15899,"82 LAMBERTON ST","New Haven","CT",""
15900,"482 GREENWICH AV","New Haven","CT",""
15901,NA,"New Haven","CT",""
15902,"61 KIMBERLY AV","New Haven","CT",""
15903,"63 KIMBERLY AV","New Haven","CT",""
15904,"67 KIMBERLY AV","New Haven","CT",""
15905,"73 KIMBERLY AV","New Haven","CT",""
15906,"75 KIMBERLY AV","New Haven","CT",""
15907,"79 KIMBERLY AV","New Haven","CT",""
15908,"83 KIMBERLY AV","New Haven","CT",""
15909,"85 KIMBERLY AV","New Haven","CT",""
15910,"93 KIMBERLY AV","New Haven","CT",""
15911,"95 KIMBERLY AV","New Haven","CT",""
15912,"99 KIMBERLY AV","New Haven","CT",""
15913,"101 KIMBERLY AV","New Haven","CT",""
15914,"103 KIMBERLY AV","New Haven","CT",""
15915,"107 KIMBERLY AV","New Haven","CT",""
15916,"111 KIMBERLY AV","New Haven","CT",""
15917,"115 KIMBERLY AV","New Haven","CT",""
15918,"117 KIMBERLY AV","New Haven","CT",""
15919,"121 KIMBERLY AV","New Haven","CT",""
15920,"123 KIMBERLY AV","New Haven","CT",""
15921,"127 KIMBERLY AV","New Haven","CT",""
15922,"129 KIMBERLY AV","New Haven","CT",""
15923,"135 KIMBERLY AV","New Haven","CT",""
15924,"141 KIMBERLY AV","New Haven","CT",""
15925,"145 KIMBERLY AV","New Haven","CT",""
15926,"149 KIMBERLY AV","New Haven","CT",""
15927,"GRANT ST","New Haven","CT",""
15928,"17 GRANT ST","New Haven","CT",""
15929,"69 GRANT ST","New Haven","CT",""
15930,"67 GRANT ST","New Haven","CT",""
15931,"65 GRANT ST","New Haven","CT",""
15932,"63 GRANT ST","New Haven","CT",""
15933,"55 GRANT ST","New Haven","CT",""
15934,"39 GRANT ST","New Haven","CT",""
15935,"100 PLYMOUTH ST","New Haven","CT",""
15936,"102 PLYMOUTH ST","New Haven","CT",""
15937,"106 PLYMOUTH ST","New Haven","CT",""
15938,"112 PLYMOUTH ST","New Haven","CT",""
15939,"114 PLYMOUTH ST","New Haven","CT",""
15940,"122 PLYMOUTH ST","New Haven","CT",""
15941,"124 PLYMOUTH ST","New Haven","CT",""
15942,"126 PLYMOUTH ST","New Haven","CT",""
15943,"128 PLYMOUTH ST","New Haven","CT",""
15944,"130 PLYMOUTH ST","New Haven","CT",""
15945,"132 PLYMOUTH ST","New Haven","CT",""
15946,"136 PLYMOUTH ST","New Haven","CT",""
15947,"142 PLYMOUTH ST","New Haven","CT",""
15948,"144 PLYMOUTH ST","New Haven","CT",""
15949,"146 PLYMOUTH ST","New Haven","CT",""
15950,"148 PLYMOUTH ST","New Haven","CT",""
15951,"152 PLYMOUTH ST","New Haven","CT",""
15952,"156 PLYMOUTH ST","New Haven","CT",""
15953,"162 PLYMOUTH ST","New Haven","CT",""
15954,"164 PLYMOUTH ST","New Haven","CT",""
15955,"168 PLYMOUTH ST","New Haven","CT",""
15956,"170 PLYMOUTH ST","New Haven","CT",""
15957,"174 PLYMOUTH ST","New Haven","CT",""
15958,"74 KIMBERLY AV","New Haven","CT",""
15959,"80 KIMBERLY AV","New Haven","CT",""
15960,"84 KIMBERLY AV","New Haven","CT",""
15961,"180 LAMBERTON ST","New Haven","CT",""
15962,"LAMBERTON ST","New Haven","CT",""
15963,"172 LAMBERTON ST","New Haven","CT",""
15964,"168 LAMBERTON ST","New Haven","CT",""
15965,"160 LAMBERTON ST","New Haven","CT",""
15966,"158 LAMBERTON ST","New Haven","CT",""
15967,"154 LAMBERTON ST","New Haven","CT",""
15968,"152 LAMBERTON ST","New Haven","CT",""
15969,"146 LAMBERTON ST","New Haven","CT",""
15970,"144 LAMBERTON ST","New Haven","CT",""
15971,"LAMBERTON ST","New Haven","CT",""
15972,"138 LAMBERTON ST","New Haven","CT",""
15973,"132 LAMBERTON ST","New Haven","CT",""
15974,NA,"New Haven","CT",""
15975,"124 LAMBERTON ST","New Haven","CT",""
15976,"122 LAMBERTON ST","New Haven","CT",""
15977,"120 LAMBERTON ST","New Haven","CT",""
15978,"118 LAMBERTON ST","New Haven","CT",""
15979,"116 LAMBERTON ST","New Haven","CT",""
15980,"114 LAMBERTON ST","New Haven","CT",""
15981,"112 LAMBERTON ST","New Haven","CT",""
15982,"104 LAMBERTON ST","New Haven","CT",""
15983,"102 LAMBERTON ST","New Haven","CT",""
15984,"98 LAMBERTON ST","New Haven","CT",""
15985,"17 MORRIS ST","New Haven","CT",""
15986,"19 MORRIS ST","New Haven","CT",""
15987,"23 MORRIS ST","New Haven","CT",""
15988,"27 MORRIS ST","New Haven","CT",""
15989,"31 MORRIS ST","New Haven","CT",""
15990,"33 MORRIS ST","New Haven","CT",""
15991,"37 MORRIS ST","New Haven","CT",""
15992,"214 LAMBERTON ST","New Haven","CT",""
15993,"212 LAMBERTON ST","New Haven","CT",""
15994,"210 LAMBERTON ST","New Haven","CT",""
15995,"206 LAMBERTON ST","New Haven","CT",""
15996,"202 LAMBERTON ST","New Haven","CT",""
15997,"198 LAMBERTON ST","New Haven","CT",""
15998,"188 LAMBERTON ST","New Haven","CT",""
15999,"42 MORRIS ST","New Haven","CT",""
16000,"32 MORRIS ST","New Haven","CT",""
