"pid","location","city","state","zip"
2001,"24 WOODWARD AV #31","New Haven","CT",""
2002,"24 WOODWARD AV #32","New Haven","CT",""
2003,"24 WOODWARD AV #33","New Haven","CT",""
2004,"24 WOODWARD AV #34","New Haven","CT",""
2005,"24 WOODWARD AV #35","New Haven","CT",""
2006,"24 WOODWARD AV #36","New Haven","CT",""
2007,"24 WOODWARD AV #37","New Haven","CT",""
2008,"24 WOODWARD AV #38","New Haven","CT",""
2009,"24 WOODWARD AV #39","New Haven","CT",""
2010,"24 WOODWARD AV #40","New Haven","CT",""
2011,"24 WOODWARD AV #41","New Haven","CT",""
2012,"24 WOODWARD AV #42","New Haven","CT",""
2013,"24 WOODWARD AV #43","New Haven","CT",""
2014,"24 WOODWARD AV #44","New Haven","CT",""
2015,"24 WOODWARD AV #45","New Haven","CT",""
2016,"24 WOODWARD AV #46","New Haven","CT",""
2017,"24 WOODWARD AV #47","New Haven","CT",""
2018,"24 WOODWARD AV #48","New Haven","CT",""
2019,"24 WOODWARD AV #49","New Haven","CT",""
2020,"24 WOODWARD AV #50","New Haven","CT",""
2021,"24 WOODWARD AV #51","New Haven","CT",""
2022,"24 WOODWARD AV #52","New Haven","CT",""
2023,"24 WOODWARD AV #53","New Haven","CT",""
2024,"24 WOODWARD AV #54","New Haven","CT",""
2025,"24 WOODWARD AV #55","New Haven","CT",""
2026,"24 WOODWARD AV #56","New Haven","CT",""
2027,"24 WOODWARD AV #57","New Haven","CT",""
2028,"24 WOODWARD AV #58","New Haven","CT",""
2029,"24 WOODWARD AV #59","New Haven","CT",""
2030,"24 WOODWARD AV #60","New Haven","CT",""
2031,"24 WOODWARD AV #61","New Haven","CT",""
2032,"24 WOODWARD AV #62","New Haven","CT",""
2033,"HALE RD","New Haven","CT",""
2034,"HALE RD","New Haven","CT",""
2035,"HALE RD","New Haven","CT",""
2036,"HALE RD","New Haven","CT",""
2037,"HALE RD","New Haven","CT",""
2038,"HALE RD","New Haven","CT",""
2039,"HALE RD","New Haven","CT",""
2040,"HALE RD","New Haven","CT",""
2041,"HALE RD","New Haven","CT",""
2042,"HALE RD","New Haven","CT",""
2043,"HALE RD","New Haven","CT",""
2044,"WOODWARD LA","New Haven","CT",""
2045,"HALE RD","New Haven","CT",""
2046,"WOODWARD AV","New Haven","CT",""
2047,"47 WOODWARD AV","New Haven","CT",""
2048,NA,"New Haven","CT",""
2049,"83 FORT HALE RD","New Haven","CT",""
2050,"87 FORT HALE RD","New Haven","CT",""
2051,"93 FORT HALE RD","New Haven","CT",""
2052,"99 FORT HALE RD","New Haven","CT",""
2053,"103 FORT HALE RD","New Haven","CT",""
2054,"111 FORT HALE RD","New Haven","CT",""
2055,"113 FORT HALE RD","New Haven","CT",""
2056,"119 FORT HALE RD","New Haven","CT",""
2057,"123 FORT HALE RD","New Haven","CT",""
2058,"127 FORT HALE RD","New Haven","CT",""
2059,"133 FORT HALE RD","New Haven","CT",""
2060,"137 FORT HALE RD","New Haven","CT",""
2061,"145 FORT HALE RD","New Haven","CT",""
2062,"149 FORT HALE RD","New Haven","CT",""
2063,"153 FORT HALE RD","New Haven","CT",""
2064,"564 TOWNSEND AV","New Haven","CT",""
2065,"552 TOWNSEND AV","New Haven","CT",""
2066,"548 TOWNSEND AV","New Haven","CT",""
2067,"96 MORSE PL","New Haven","CT",""
2068,"88 MORSE PL","New Haven","CT",""
2069,"70 MORSE PL","New Haven","CT",""
2070,"MORSE PL","New Haven","CT",""
2071,"60 MORSE PL","New Haven","CT",""
2072,"52 MORSE PL","New Haven","CT",""
2073,"46 MORSE PL","New Haven","CT",""
2074,"40 MORSE PL","New Haven","CT",""
2075,"34 MORSE PL","New Haven","CT",""
2076,"30 MORSE PL","New Haven","CT",""
2077,"24 MORSE PL","New Haven","CT",""
2078,"16 MORSE PL","New Haven","CT",""
2079,"99 WOODWARD AV","New Haven","CT",""
2080,"105 WOODWARD AV","New Haven","CT",""
2081,"109 WOODWARD AV","New Haven","CT",""
2082,"115 WOODWARD AV","New Haven","CT",""
2083,"5 MORSE PL","New Haven","CT",""
2084,"11 MORSE PL","New Haven","CT",""
2085,"17 MORSE PL","New Haven","CT",""
2086,"MORSE PL","New Haven","CT",""
2087,"27 MORSE PL","New Haven","CT",""
2088,"35 MORSE PL","New Haven","CT",""
2089,"41 MORSE PL","New Haven","CT",""
2090,"49 MORSE PL","New Haven","CT",""
2091,"57 MORSE PL","New Haven","CT",""
2092,"61 MORSE PL","New Haven","CT",""
2093,"65 MORSE PL","New Haven","CT",""
2094,"75 MORSE PL","New Haven","CT",""
2095,"536 TOWNSEND AV","New Haven","CT",""
2096,"534 TOWNSEND AV","New Haven","CT",""
2097,"530 TOWNSEND AV","New Haven","CT",""
2098,"518 TOWNSEND AV","New Haven","CT",""
2099,"512 TOWNSEND AV","New Haven","CT",""
2100,"506 TOWNSEND AV","New Haven","CT",""
2101,"500 TOWNSEND AV","New Haven","CT",""
2102,"84 POPE ST","New Haven","CT",""
2103,"78 POPE ST","New Haven","CT",""
2104,"72 POPE ST","New Haven","CT",""
2105,"66 POPE ST","New Haven","CT",""
2106,"62 POPE ST","New Haven","CT",""
2107,"58 POPE ST","New Haven","CT",""
2108,"54 POPE ST","New Haven","CT",""
2109,"48 POPE ST","New Haven","CT",""
2110,"44 POPE ST","New Haven","CT",""
2111,"38 POPE ST","New Haven","CT",""
2112,"34 POPE ST","New Haven","CT",""
2113,"28 POPE ST","New Haven","CT",""
2114,"24 POPE ST","New Haven","CT",""
2115,"20 POPE ST","New Haven","CT",""
2116,"14 POPE ST","New Haven","CT",""
2117,"10 POPE ST","New Haven","CT",""
2118,"69 WOODWARD AV","New Haven","CT",""
2119,"75 WOODWARD AV","New Haven","CT",""
2120,"81 WOODWARD AV","New Haven","CT",""
2121,"85 WOODWARD AV","New Haven","CT",""
2122,"408 TOWNSEND AV","New Haven","CT",""
2123,"390 TOWNSEND AV","New Haven","CT",""
2124,"382 TOWNSEND AV","New Haven","CT",""
2125,"378 TOWNSEND AV","New Haven","CT",""
2126,"372 TOWNSEND AV","New Haven","CT",""
2127,"366 TOWNSEND AV","New Haven","CT",""
2128,"362 TOWNSEND AV","New Haven","CT",""
2129,"356 TOWNSEND AV","New Haven","CT",""
2130,"352 TOWNSEND AV","New Haven","CT",""
2131,"348 TOWNSEND AV","New Haven","CT",""
2132,"340 TOWNSEND AV","New Haven","CT",""
2133,"328 TOWNSEND AV","New Haven","CT",""
2134,"324 TOWNSEND AV","New Haven","CT",""
2135,"TOWNSEND AV","New Haven","CT",""
2136,"30 WOODWARD AV","New Haven","CT",""
2137,"WOODWARD AV","New Haven","CT",""
2138,"WOODWARD AV","New Haven","CT",""
2139,"112 WOODWARD AV","New Haven","CT",""
2140,"104 WOODWARD AV","New Haven","CT",""
2141,"100 WOODWARD AV","New Haven","CT",""
2142,"94 WOODWARD AV","New Haven","CT",""
2143,"90 WOODWARD AV","New Haven","CT",""
2144,"86 WOODWARD AV","New Haven","CT",""
2145,"80 WOODWARD AV","New Haven","CT",""
2146,"76 WOODWARD AV","New Haven","CT",""
2147,"70 WOODWARD AV","New Haven","CT",""
2148,"66 WOODWARD AV","New Haven","CT",""
2149,"60 WOODWARD AV","New Haven","CT",""
2150,"56 WOODWARD AV","New Haven","CT",""
2151,"50 WOODWARD AV","New Haven","CT",""
2152,"46 WOODWARD AV","New Haven","CT",""
2153,"WOODWARD AV","New Haven","CT",""
2154,"300 WOODWARD AV","New Haven","CT",""
2155,"1 WATERFRONT ST","New Haven","CT",""
2156,"WATERFRONT ST","New Haven","CT",""
2157,"600 CONNECTICUT AV","New Haven","CT",""
2158,"345 EAST SHORE PKWY","New Haven","CT",""
2159,"EAST SHORE PKWY","New Haven","CT",""
2160,"EAST SHORE PKWY","New Haven","CT",""
2161,"EAST SHORE PKWY","New Haven","CT",""
2162,"444 WOODWARD AV","New Haven","CT",""
2163,"448 WOODWARD AV","New Haven","CT",""
2164,"456 WOODWARD AV","New Haven","CT",""
2165,"460 WOODWARD AV","New Haven","CT",""
2166,"462 WOODWARD AV","New Haven","CT",""
2167,"466 WOODWARD AV","New Haven","CT",""
2168,"470 WOODWARD AV","New Haven","CT",""
2169,"480 WOODWARD AV","New Haven","CT",""
2170,"490 WOODWARD AV","New Haven","CT",""
2171,"512 WOODWARD AV #1","New Haven","CT",""
2172,"504 WOODWARD AV #2","New Haven","CT",""
2173,"496 WOODWARD AV #3","New Haven","CT",""
2174,"496 WOODWARD AV #4","New Haven","CT",""
2175,"498 WOODWARD AV #5","New Haven","CT",""
2176,"498 WOODWARD AV #6","New Haven","CT",""
2177,"498 WOODWARD AV #7","New Haven","CT",""
2178,"500 WOODWARD AV #8","New Haven","CT",""
2179,"500 WOODWARD AV #9","New Haven","CT",""
2180,"502 WOODWARD AV #10","New Haven","CT",""
2181,"502 WOODWARD AV #11","New Haven","CT",""
2182,"506 WOODWARD AV #12","New Haven","CT",""
2183,"506 WOODWARD AV #13","New Haven","CT",""
2184,"508 WOODWARD AV #14","New Haven","CT",""
2185,"508 WOODWARD AV #15","New Haven","CT",""
2186,"514 WOODWARD AV #16","New Haven","CT",""
2187,"514 WOODWARD AV #17","New Haven","CT",""
2188,"516 WOODWARD AV #18","New Haven","CT",""
2189,"516 WOODWARD AV #19","New Haven","CT",""
2190,"518 WOODWARD AV #20","New Haven","CT",""
2191,"518 WOODWARD AV #21","New Haven","CT",""
2192,"510 WOODWARD AV #22","New Haven","CT",""
2193,"510 WOODWARD AV #23","New Haven","CT",""
2194,"510 WOODWARD AV #24","New Haven","CT",""
2195,"522 WOODWARD AV","New Haven","CT",""
2196,"524 WOODWARD AV","New Haven","CT",""
2197,"528 WOODWARD AV","New Haven","CT",""
2198,"534 WOODWARD AV #1","New Haven","CT",""
2199,"536 WOODWARD AV #2","New Haven","CT",""
2200,"538 WOODWARD AV #3","New Haven","CT",""
2201,"540 WOODWARD AV #4","New Haven","CT",""
2202,"542 WOODWARD AV #5","New Haven","CT",""
2203,"544 WOODWARD AV #6","New Haven","CT",""
2204,"548 WOODWARD AV","New Haven","CT",""
2205,"560 WOODWARD AV","New Haven","CT",""
2206,"WOODWARD AV","New Haven","CT",""
2207,"576 WOODWARD AV","New Haven","CT",""
2208,"582 WOODWARD AV","New Haven","CT",""
2209,"590 WOODWARD AV","New Haven","CT",""
2210,"594 WOODWARD AV","New Haven","CT",""
2211,"546 WOODWARD AV","New Haven","CT",""
2212,"6 UPSON TER","New Haven","CT",""
2213,"457 WOODWARD AV","New Haven","CT",""
2214,"461 WOODWARD AV","New Haven","CT",""
2215,"465 WOODWARD AV","New Haven","CT",""
2216,"477 WOODWARD AV","New Haven","CT",""
2217,"481 WOODWARD AV","New Haven","CT",""
2218,"489 WOODWARD AV","New Haven","CT",""
2219,"493 WOODWARD AV","New Haven","CT",""
2220,"503 WOODWARD AV","New Haven","CT",""
2221,"507 WOODWARD AV","New Haven","CT",""
2222,"509 WOODWARD AV #A","New Haven","CT",""
2223,"509 WOODWARD AV #B","New Haven","CT",""
2224,"509 WOODWARD AV #C","New Haven","CT",""
2225,"509 WOODWARD AV #D","New Haven","CT",""
2226,"509 WOODWARD AV #E","New Haven","CT",""
2227,"511 WOODWARD AV #A","New Haven","CT",""
2228,"511 WOODWARD AV #B","New Haven","CT",""
2229,"511 WOODWARD AV #C","New Haven","CT",""
2230,"511 WOODWARD AV #D","New Haven","CT",""
2231,"511 WOODWARD AV #E","New Haven","CT",""
2232,"511 WOODWARD AV #F","New Haven","CT",""
2233,"511 WOODWARD AV #G","New Haven","CT",""
2234,"511 WOODWARD AV #H","New Haven","CT",""
2235,"511 WOODWARD AV #I","New Haven","CT",""
2236,"513 WOODWARD AV #A","New Haven","CT",""
2237,"513 WOODWARD AV #B","New Haven","CT",""
2238,"513 WOODWARD AV #C","New Haven","CT",""
2239,"513 WOODWARD AV #D","New Haven","CT",""
2240,"513 WOODWARD AV #E","New Haven","CT",""
2241,"515 WOODWARD AV #A","New Haven","CT",""
2242,"515 WOODWARD AV #B","New Haven","CT",""
2243,"515 WOODWARD AV #C","New Haven","CT",""
2244,"515 WOODWARD AV #D","New Haven","CT",""
2245,"519 WOODWARD AV #A","New Haven","CT",""
2246,"519 WOODWARD AV #B","New Haven","CT",""
2247,"521 WOODWARD AV #A","New Haven","CT",""
2248,"521 WOODWARD AV #B","New Haven","CT",""
2249,"525 WOODWARD AV #A","New Haven","CT",""
2250,"525 WOODWARD AV #B","New Haven","CT",""
2251,"525 WOODWARD AV #C","New Haven","CT",""
2252,"525 WOODWARD AV #D","New Haven","CT",""
2253,"529 WOODWARD AV #A","New Haven","CT",""
2254,"529 WOODWARD AV #B","New Haven","CT",""
2255,"529 WOODWARD AV #C","New Haven","CT",""
2256,"529 WOODWARD AV #D","New Haven","CT",""
2257,"531 WOODWARD AV #A","New Haven","CT",""
2258,"531 WOODWARD AV #B","New Haven","CT",""
2259,"531 WOODWARD AV #C","New Haven","CT",""
2260,"531 WOODWARD AV #D","New Haven","CT",""
2261,"535 WOODWARD AV #A","New Haven","CT",""
2262,"535 WOODWARD AV #B","New Haven","CT",""
2263,"535 WOODWARD AV #C","New Haven","CT",""
2264,"535 WOODWARD AV #D","New Haven","CT",""
2265,"543 WOODWARD AV","New Haven","CT",""
2266,"545 WOODWARD AV","New Haven","CT",""
2267,"547 WOODWARD AV","New Haven","CT",""
2268,"551 WOODWARD AV","New Haven","CT",""
2269,"555 WOODWARD AV","New Haven","CT",""
2270,"557 WOODWARD AV","New Haven","CT",""
2271,"WOODWARD AV","New Haven","CT",""
2272,"579 WOODWARD AV","New Haven","CT",""
2273,"589 WOODWARD AV","New Haven","CT",""
2274,"591 WOODWARD AV","New Haven","CT",""
2275,"7 PARK LA","New Haven","CT",""
2276,"190 ELAINE TER","New Haven","CT",""
2277,"184 ELAINE TER","New Haven","CT",""
2278,"178 ELAINE TER","New Haven","CT",""
2279,"172 ELAINE TER","New Haven","CT",""
2280,"166 ELAINE TER","New Haven","CT",""
2281,"162 ELAINE TER","New Haven","CT",""
2282,"158 ELAINE TER","New Haven","CT",""
2283,"ELAINE TER","New Haven","CT",""
2284,"163 ELAINE TER","New Haven","CT",""
2285,"TOWNSEND AV","New Haven","CT",""
2286,"169 ELAINE TER","New Haven","CT",""
2287,"175 ELAINE TER","New Haven","CT",""
2288,"181 ELAINE TER","New Haven","CT",""
2289,"185 ELAINE TER","New Haven","CT",""
2290,"193 ELAINE TER","New Haven","CT",""
2291,"1028 TOWNSEND AV","New Haven","CT",""
2292,"1020 TOWNSEND AV","New Haven","CT",""
2293,"1014 TOWNSEND AV","New Haven","CT",""
2294,"1010 TOWNSEND AV","New Haven","CT",""
2295,"1004 TOWNSEND AV","New Haven","CT",""
2296,"996 TOWNSEND AV","New Haven","CT",""
2297,"988 TOWNSEND AV","New Haven","CT",""
2298,"980 TOWNSEND AV","New Haven","CT",""
2299,"976 TOWNSEND AV","New Haven","CT",""
2300,"970 TOWNSEND AV","New Haven","CT",""
2301,"968 TOWNSEND AV","New Haven","CT",""
2302,"962 TOWNSEND AV","New Haven","CT",""
2303,"956 TOWNSEND AV","New Haven","CT",""
2304,"950 TOWNSEND AV","New Haven","CT",""
2305,"944 TOWNSEND AV","New Haven","CT",""
2306,"936 TOWNSEND AV","New Haven","CT",""
2307,"932 TOWNSEND AV","New Haven","CT",""
2308,"928 TOWNSEND AV","New Haven","CT",""
2309,"922 TOWNSEND AV","New Haven","CT",""
2310,"918 TOWNSEND AV","New Haven","CT",""
2311,"916 TOWNSEND AV","New Haven","CT",""
2312,"908 TOWNSEND AV","New Haven","CT",""
2313,"902 TOWNSEND AV","New Haven","CT",""
2314,"892 TOWNSEND AV","New Haven","CT",""
2315,"884 TOWNSEND AV","New Haven","CT",""
2316,"880 TOWNSEND AV","New Haven","CT",""
2317,"46 UPSON TER","New Haven","CT",""
2318,"44 UPSON TER","New Haven","CT",""
2319,"323 KNEELAND RD","New Haven","CT",""
2320,"329 KNEELAND RD","New Haven","CT",""
2321,"335 KNEELAND RD","New Haven","CT",""
2322,"341 KNEELAND RD","New Haven","CT",""
2323,"347 KNEELAND RD","New Haven","CT",""
2324,"353 KNEELAND RD","New Haven","CT",""
2325,"359 KNEELAND RD","New Haven","CT",""
2326,"KNEELAND RD","New Haven","CT",""
2327,"KNEELAND RD","New Haven","CT",""
2328,"360 KNEELAND RD","New Haven","CT",""
2329,"354 KNEELAND RD","New Haven","CT",""
2330,"346 KNEELAND RD","New Haven","CT",""
2331,"340 KNEELAND RD","New Haven","CT",""
2332,"332 KNEELAND RD","New Haven","CT",""
2333,"320 KNEELAND RD","New Haven","CT",""
2334,"30 UPSON TER","New Haven","CT",""
2335,"24 UPSON TER","New Haven","CT",""
2336,NA,"New Haven","CT",""
2337,"14 UPSON TER","New Haven","CT",""
2338,"10 UPSON TER","New Haven","CT",""
2339,"TOWNSEND AV","New Haven","CT",""
2340,"HILLSIDE AV","New Haven","CT",""
2341,"6 HUNTINGTON RD","New Haven","CT",""
2342,"HUNTINGTON RD","New Haven","CT",""
2343,"16 HUNTINGTON RD","New Haven","CT",""
2344,"24 HUNTINGTON RD","New Haven","CT",""
2345,"30 HUNTINGTON RD","New Haven","CT",""
2346,"36 HUNTINGTON RD","New Haven","CT",""
2347,"44 HUNTINGTON RD","New Haven","CT",""
2348,"50 HUNTINGTON RD","New Haven","CT",""
2349,"56 HUNTINGTON RD #1","New Haven","CT",""
2350,"56 HUNTINGTON RD #2","New Haven","CT",""
2351,"56 HUNTINGTON RD #3","New Haven","CT",""
2352,"56 HUNTINGTON RD #4","New Haven","CT",""
2353,"62 HUNTINGTON RD #5","New Haven","CT",""
2354,"62 HUNTINGTON RD #6","New Haven","CT",""
2355,"62 HUNTINGTON RD #7","New Haven","CT",""
2356,"62 HUNTINGTON RD #8","New Haven","CT",""
2357,"70 HUNTINGTON RD #9","New Haven","CT",""
2358,"70 HUNTINGTON RD #10","New Haven","CT",""
2359,"70 HUNTINGTON RD #11","New Haven","CT",""
2360,"70 HUNTINGTON RD #12","New Haven","CT",""
2361,"340 UPSON TER","New Haven","CT",""
2362,"320 UPSON TER","New Haven","CT",""
2363,"310 UPSON TER","New Haven","CT",""
2364,"300 UPSON TER","New Haven","CT",""
2365,"280 UPSON TER","New Haven","CT",""
2366,"270 UPSON TER","New Haven","CT",""
2367,"260 UPSON TER","New Haven","CT",""
2368,"240 UPSON TER","New Haven","CT",""
2369,"230 UPSON TER","New Haven","CT",""
2370,"216 UPSON TER","New Haven","CT",""
2371,"206 UPSON TER","New Haven","CT",""
2372,"196 UPSON TER","New Haven","CT",""
2373,"188 UPSON TER","New Haven","CT",""
2374,"176 UPSON TER","New Haven","CT",""
2375,"168 UPSON TER","New Haven","CT",""
2376,NA,"New Haven","CT",""
2377,"146 UPSON TER","New Haven","CT",""
2378,"134 UPSON TER","New Haven","CT",""
2379,"124 UPSON TER","New Haven","CT",""
2380,"875 TOWNSEND AV","New Haven","CT",""
2381,"911 TOWNSEND AV","New Haven","CT",""
2382,"BOSTON AV","New Haven","CT",""
2383,"80 BOSTON AV","New Haven","CT",""
2384,"72 BOSTON AV","New Haven","CT",""
2385,"66 BOSTON AV","New Haven","CT",""
2386,"60 BOSTON AV","New Haven","CT",""
2387,"54 BOSTON AV","New Haven","CT",""
2388,"50 BOSTON AV","New Haven","CT",""
2389,"44 BOSTON AV","New Haven","CT",""
2390,"36 BOSTON AV","New Haven","CT",""
2391,"30 BOSTON AV","New Haven","CT",""
2392,"20 BOSTON AV","New Haven","CT",""
2393,"14 BOSTON AV","New Haven","CT",""
2394,"116 CLARENDON ST","New Haven","CT",""
2395,"110 CLARENDON ST","New Haven","CT",""
2396,"100 CLARENDON ST","New Haven","CT",""
2397,"15 HARRINGTON AV","New Haven","CT",""
2398,"21 HARRINGTON AV","New Haven","CT",""
2399,"37 HARRINGTON AV","New Haven","CT",""
2400,"43 HARRINGTON AV","New Haven","CT",""
2401,"59 HARRINGTON AV","New Haven","CT",""
2402,"69 HARRINGTON AV","New Haven","CT",""
2403,"75 HARRINGTON AV","New Haven","CT",""
2404,"85 HARRINGTON AV","New Haven","CT",""
2405,"91 HARRINGTON AV","New Haven","CT",""
2406,"99 HARRINGTON AV","New Haven","CT",""
2407,"111 HARRINGTON AV","New Haven","CT",""
2408,"117 HARRINGTON AV","New Haven","CT",""
2409,"129 HARRINGTON AV","New Haven","CT",""
2410,"MASSACHUSETTS AV","New Haven","CT",""
2411,"30 MASSACHUSETTS AV","New Haven","CT",""
2412,"28 MASSACHUSETTS AV","New Haven","CT",""
2413,"22 MASSACHUSETTS AV","New Haven","CT",""
2414,"14 MASSACHUSETTS AV","New Haven","CT",""
2415,"8 MASSACHUSETTS AV","New Haven","CT",""
2416,"140 CLARENDON ST","New Haven","CT",""
2417,"3 BOSTON AV","New Haven","CT",""
2418,"9 BOSTON AV","New Haven","CT",""
2419,"21 BOSTON AV","New Haven","CT",""
2420,"27 BOSTON AV","New Haven","CT",""
2421,"31 BOSTON AV","New Haven","CT",""
2422,"41 BOSTON AV","New Haven","CT",""
2423,"47 BOSTON AV","New Haven","CT",""
2424,"53 BOSTON AV","New Haven","CT",""
2425,"90 CLARENDON ST","New Haven","CT",""
2426,"86 CLARENDON ST","New Haven","CT",""
2427,"7 HUNTINGTON AV","New Haven","CT",""
2428,"9 HUNTINGTON AV","New Haven","CT",""
2429,"11 HUNTINGTON AV","New Haven","CT",""
2430,"15 HUNTINGTON AV","New Haven","CT",""
2431,"HUNTINGTON AV","New Haven","CT",""
2432,"25 HUNTINGTON AV","New Haven","CT",""
2433,"29 HUNTINGTON AV","New Haven","CT",""
2434,"35 HUNTINGTON AV","New Haven","CT",""
2435,"45 HUNTINGTON AV","New Haven","CT",""
2436,"49 HUNTINGTON AV","New Haven","CT",""
2437,"55 HUNTINGTON AV","New Haven","CT",""
2438,"65 HUNTINGTON AV","New Haven","CT",""
2439,"69 HUNTINGTON AV","New Haven","CT",""
2440,"77 HUNTINGTON AV","New Haven","CT",""
2441,"85 HUNTINGTON AV","New Haven","CT",""
2442,"91 HUNTINGTON AV","New Haven","CT",""
2443,"HUNTINGTON AV","New Haven","CT",""
2444,"95 HUNTINGTON AV","New Haven","CT",""
2445,"113 HUNTINGTON AV","New Haven","CT",""
2446,"111 HUNTINGTON AV","New Haven","CT",""
2447,"117 HUNTINGTON AV","New Haven","CT",""
2448,"123 HUNTINGTON AV","New Haven","CT",""
2449,"125 HUNTINGTON AV","New Haven","CT",""
2450,"131 HUNTINGTON AV","New Haven","CT",""
2451,"135 HUNTINGTON AV","New Haven","CT",""
2452,"141 HUNTINGTON AV","New Haven","CT",""
2453,"145 HUNTINGTON AV","New Haven","CT",""
2454,"151 HUNTINGTON AV","New Haven","CT",""
2455,"155 HUNTINGTON AV","New Haven","CT",""
2456,"161 HUNTINGTON AV","New Haven","CT",""
2457,"167 HUNTINGTON AV","New Haven","CT",""
2458,"143 MAIN ST ANNEX","New Haven","CT",""
2459,"MAIN ST ANNEX","New Haven","CT",""
2460,"70 TERRACE ST","New Haven","CT",""
2461,"165 MAIN ST ANNEX","New Haven","CT",""
2462,"108 TERRACE ST","New Haven","CT",""
2463,"104 TERRACE ST","New Haven","CT",""
2464,"98 TERRACE ST","New Haven","CT",""
2465,"90 TERRACE ST","New Haven","CT",""
2466,"86 TERRACE ST","New Haven","CT",""
2467,"68 TERRACE ST","New Haven","CT",""
2468,"60 TERRACE ST","New Haven","CT",""
2469,"52 TERRACE ST","New Haven","CT",""
2470,"48 TERRACE ST","New Haven","CT",""
2471,"TERRACE ST","New Haven","CT",""
2472,"56 TERRACE ST #1","New Haven","CT",""
2473,"56 TERRACE ST #2","New Haven","CT",""
2474,"56 TERRACE ST #3","New Haven","CT",""
2475,"56 TERRACE ST #4","New Haven","CT",""
2476,"56 TERRACE ST #5","New Haven","CT",""
2477,"56 TERRACE ST #6","New Haven","CT",""
2478,"56 TERRACE ST #7","New Haven","CT",""
2479,"34 TERRACE ST","New Haven","CT",""
2480,"28 TERRACE ST","New Haven","CT",""
2481,"20 TERRACE ST","New Haven","CT",""
2482,"8 TERRACE ST","New Haven","CT",""
2483,NA,"New Haven","CT",""
2484,"2 TERRACE ST","New Haven","CT",""
2485,"58 HARRINGTON AV","New Haven","CT",""
2486,"46 HARRINGTON AV","New Haven","CT",""
2487,"38 HARRINGTON AV","New Haven","CT",""
2488,"26 HARRINGTON AV","New Haven","CT",""
2489,"18 HARRINGTON AV","New Haven","CT",""
2490,"17 TERRACE ST","New Haven","CT",""
2491,"29 TERRACE ST","New Haven","CT",""
2492,"41 TERRACE ST","New Haven","CT",""
2493,"57 TERRACE ST","New Haven","CT",""
2494,"63 TERRACE ST","New Haven","CT",""
2495,"69 TERRACE ST","New Haven","CT",""
2496,"75 TERRACE ST","New Haven","CT",""
2497,"83 TERRACE ST","New Haven","CT",""
2498,"89 TERRACE ST","New Haven","CT",""
2499,"95 TERRACE ST","New Haven","CT",""
2500,"105 TERRACE ST","New Haven","CT",""
2501,"MAIN ST ANNEX","New Haven","CT",""
2502,"HARRINGTON AV","New Haven","CT",""
2503,"150 HARRINGTON AV","New Haven","CT",""
2504,"140 HARRINGTON AV","New Haven","CT",""
2505,"134 HARRINGTON AV","New Haven","CT",""
2506,"120 HARRINGTON AV","New Haven","CT",""
2507,"112 HARRINGTON AV","New Haven","CT",""
2508,"100 HARRINGTON AV","New Haven","CT",""
2509,"94 HARRINGTON AV","New Haven","CT",""
2510,"86 HARRINGTON AV","New Haven","CT",""
2511,"70 HARRINGTON AV","New Haven","CT",""
2512,"963 TOWNSEND AV","New Haven","CT",""
2513,"973 TOWNSEND AV","New Haven","CT",""
2514,"977 TOWNSEND AV","New Haven","CT",""
2515,"981 TOWNSEND AV","New Haven","CT",""
2516,"985 TOWNSEND AV","New Haven","CT",""
2517,"991 TOWNSEND AV","New Haven","CT",""
2518,"995 TOWNSEND AV","New Haven","CT",""
2519,"999 TOWNSEND AV","New Haven","CT",""
2520,"1007 TOWNSEND AV","New Haven","CT",""
2521,"1015 TOWNSEND AV","New Haven","CT",""
2522,"1017 TOWNSEND AV","New Haven","CT",""
2523,"1021 TOWNSEND AV","New Haven","CT",""
2524,"1025 TOWNSEND AV","New Haven","CT",""
2525,"1029 TOWNSEND AV","New Haven","CT",""
2526,"1035 TOWNSEND AV","New Haven","CT",""
2527,"1037 TOWNSEND AV","New Haven","CT",""
2528,"1041 TOWNSEND AV","New Haven","CT",""
2529,"1047 TOWNSEND AV","New Haven","CT",""
2530,"1053 TOWNSEND AV","New Haven","CT",""
2531,"1059 TOWNSEND AV","New Haven","CT",""
2532,"1065 TOWNSEND AV","New Haven","CT",""
2533,"1073 TOWNSEND AV","New Haven","CT",""
2534,"19 FROST ST","New Haven","CT",""
2535,"BEACON AV","New Haven","CT",""
2536,"1 BEACON AV","New Haven","CT",""
2537,"15 BEACON AV","New Haven","CT",""
2538,"21 BEACON AV","New Haven","CT",""
2539,"27 BEACON AV","New Haven","CT",""
2540,"31 BEACON AV","New Haven","CT",""
2541,"37 BEACON AV","New Haven","CT",""
2542,"43 BEACON AV","New Haven","CT",""
2543,"47 BEACON AV","New Haven","CT",""
2544,"55 BEACON AV","New Haven","CT",""
2545,"63 BEACON AV","New Haven","CT",""
2546,"67 BEACON AV","New Haven","CT",""
2547,"75 BEACON AV","New Haven","CT",""
2548,"81 BEACON AV","New Haven","CT",""
2549,"85 BEACON AV","New Haven","CT",""
2550,"89 BEACON AV","New Haven","CT",""
2551,"95 BEACON AV","New Haven","CT",""
2552,"BEACON AV","New Haven","CT",""
2553,"105 BEACON AV","New Haven","CT",""
2554,"111 BEACON AV","New Haven","CT",""
2555,"115 BEACON AV","New Haven","CT",""
2556,"121 BEACON AV","New Haven","CT",""
2557,"127 BEACON AV","New Haven","CT",""
2558,"133 BEACON AV","New Haven","CT",""
2559,"139 BEACON AV","New Haven","CT",""
2560,"143 BEACON AV","New Haven","CT",""
2561,"147 BEACON AV","New Haven","CT",""
2562,"151 BEACON AV","New Haven","CT",""
2563,"155 BEACON AV","New Haven","CT",""
2564,"163 BEACON AV","New Haven","CT",""
2565,"11 PAGE ST","New Haven","CT",""
2566,"3 PAGE ST","New Haven","CT",""
2567,"HILLSIDE AV","New Haven","CT",""
2568,"138 HILLSIDE AV","New Haven","CT",""
2569,"132 HILLSIDE AV","New Haven","CT",""
2570,"128 HILLSIDE AV","New Haven","CT",""
2571,"122 HILLSIDE AV","New Haven","CT",""
2572,"116 HILLSIDE AV","New Haven","CT",""
2573,"110 HILLSIDE AV","New Haven","CT",""
2574,"108 HILLSIDE AV","New Haven","CT",""
2575,"106 HILLSIDE AV","New Haven","CT",""
2576,"98 HILLSIDE AV","New Haven","CT",""
2577,"90 HILLSIDE AV","New Haven","CT",""
2578,"80 HILLSIDE AV","New Haven","CT",""
2579,"70 HILLSIDE AV","New Haven","CT",""
2580,"62 HILLSIDE AV","New Haven","CT",""
2581,"54 HILLSIDE AV","New Haven","CT",""
2582,"48 HILLSIDE AV","New Haven","CT",""
2583,"38 HILLSIDE AV","New Haven","CT",""
2584,"32 HILLSIDE AV","New Haven","CT",""
2585,"20 HILLSIDE AV","New Haven","CT",""
2586,"12 HILLSIDE AV","New Haven","CT",""
2587,"4 HILLSIDE AV","New Haven","CT",""
2588,"HILLSIDE AV","New Haven","CT",""
2589,"3 HILLSIDE AV","New Haven","CT",""
2590,"7 HILLSIDE AV","New Haven","CT",""
2591,"13 HILLSIDE AV","New Haven","CT",""
2592,"21 HILLSIDE AV","New Haven","CT",""
2593,"31 HILLSIDE AV","New Haven","CT",""
2594,"41 HILLSIDE AV","New Haven","CT",""
2595,"47 HILLSIDE AV","New Haven","CT",""
2596,"HILLSIDE AV","New Haven","CT",""
2597,"65 HILLSIDE AV","New Haven","CT",""
2598,"73 HILLSIDE AV","New Haven","CT",""
2599,"75 HILLSIDE AV","New Haven","CT",""
2600,"HILLSIDE AV","New Haven","CT",""
2601,"99 HILLSIDE AV","New Haven","CT",""
2602,"103 HILLSIDE AV","New Haven","CT",""
2603,"109 HILLSIDE AV","New Haven","CT",""
2604,"115 HILLSIDE AV","New Haven","CT",""
2605,"121 HILLSIDE AV","New Haven","CT",""
2606,"127 HILLSIDE AV","New Haven","CT",""
2607,"133 HILLSIDE AV","New Haven","CT",""
2608,"137 HILLSIDE AV","New Haven","CT",""
2609,"145 HILLSIDE AV","New Haven","CT",""
2610,"25 PAGE ST","New Haven","CT",""
2611,"158 HUNTINGTON AV","New Haven","CT",""
2612,"152 HUNTINGTON AV","New Haven","CT",""
2613,"148 HUNTINGTON AV","New Haven","CT",""
2614,"140 HUNTINGTON AV","New Haven","CT",""
2615,"138 HUNTINGTON AV","New Haven","CT",""
2616,"130 HUNTINGTON AV","New Haven","CT",""
2617,"120 HUNTINGTON AV","New Haven","CT",""
2618,"HUNTINGTON AV","New Haven","CT",""
2619,"110 HUNTINGTON AV","New Haven","CT",""
2620,"100 HUNTINGTON AV","New Haven","CT",""
2621,"98 HUNTINGTON AV","New Haven","CT",""
2622,"94 HUNTINGTON AV","New Haven","CT",""
2623,"90 HUNTINGTON AV","New Haven","CT",""
2624,"86 HUNTINGTON AV","New Haven","CT",""
2625,"82 HUNTINGTON AV","New Haven","CT",""
2626,"78 HUNTINGTON AV","New Haven","CT",""
2627,"74 HUNTINGTON AV","New Haven","CT",""
2628,"70 HUNTINGTON AV","New Haven","CT",""
2629,"64 HUNTINGTON AV","New Haven","CT",""
2630,"58 HUNTINGTON AV","New Haven","CT",""
2631,"48 HUNTINGTON AV","New Haven","CT",""
2632,"44 HUNTINGTON AV","New Haven","CT",""
2633,"36 HUNTINGTON AV","New Haven","CT",""
2634,"32 HUNTINGTON AV","New Haven","CT",""
2635,"26 HUNTINGTON AV","New Haven","CT",""
2636,"22 HUNTINGTON AV","New Haven","CT",""
2637,"18 HUNTINGTON AV","New Haven","CT",""
2638,"HUNTINGTON AV","New Haven","CT",""
2639,"5 HILLSIDE AV","New Haven","CT",""
2640,"HILLSIDE AV","New Haven","CT",""
2641,"HILLSIDE AV","New Haven","CT",""
2642,"21 OAKLEY ST","New Haven","CT",""
2643,"42 PEAT MEADOW RD","New Haven","CT",""
2644,"36 PEAT MEADOW RD","New Haven","CT",""
2645,"22 PEAT MEADOW RD","New Haven","CT",""
2646,"PEAT MEADOW RD","New Haven","CT",""
2647,"180 MAIN ST ANNEX","New Haven","CT",""
2648,"MAIN ST ANNEX","New Haven","CT",""
2649,"166 MAIN ST ANNEX","New Haven","CT",""
2650,"152 MAIN ST ANNEX","New Haven","CT",""
2651,"MAIN ST ANNEX","New Haven","CT",""
2652,"144 MAIN ST ANNEX","New Haven","CT",""
2653,"25 PEAT MEADOW RD","New Haven","CT",""
2654,"132 MAIN ST ANNEX","New Haven","CT",""
2655,"126 MAIN ST ANNEX","New Haven","CT",""
2656,"122 MAIN ST ANNEX","New Haven","CT",""
2657,"116 MAIN ST ANNEX","New Haven","CT",""
2658,"112 MAIN ST ANNEX","New Haven","CT",""
2659,"11 OAKLEY ST","New Haven","CT",""
2660,"1081 TOWNSEND AV","New Haven","CT",""
2661,"1087 TOWNSEND AV","New Haven","CT",""
2662,"1091 TOWNSEND AV","New Haven","CT",""
2663,"1095 TOWNSEND AV","New Haven","CT",""
2664,"1103 TOWNSEND AV","New Haven","CT",""
2665,"1107 TOWNSEND AV","New Haven","CT",""
2666,"1113 TOWNSEND AV","New Haven","CT",""
2667,"1117 TOWNSEND AV","New Haven","CT",""
2668,"1123 TOWNSEND AV","New Haven","CT",""
2669,"1129 TOWNSEND AV","New Haven","CT",""
2670,"1133 TOWNSEND AV","New Haven","CT",""
2671,"1137 TOWNSEND AV","New Haven","CT",""
2672,"1141 TOWNSEND AV","New Haven","CT",""
2673,"1147 TOWNSEND AV","New Haven","CT",""
2674,"1155 TOWNSEND AV","New Haven","CT",""
2675,"1163 TOWNSEND AV","New Haven","CT",""
2676,"1167 TOWNSEND AV","New Haven","CT",""
2677,"15 MAIN ST ANNEX","New Haven","CT",""
2678,"21 MAIN ST ANNEX","New Haven","CT",""
2679,"31 MAIN ST ANNEX","New Haven","CT",""
2680,"35 MAIN ST ANNEX","New Haven","CT",""
2681,"196 BEACON AV","New Haven","CT",""
2682,"194 BEACON AV","New Haven","CT",""
2683,"186 BEACON AV","New Haven","CT",""
2684,"178 BEACON AV","New Haven","CT",""
2685,"174 BEACON AV","New Haven","CT",""
2686,"172 BEACON AV","New Haven","CT",""
2687,"168 BEACON AV","New Haven","CT",""
2688,"164 BEACON AV","New Haven","CT",""
2689,"158 BEACON AV","New Haven","CT",""
2690,"154 BEACON AV","New Haven","CT",""
2691,"150 BEACON AV","New Haven","CT",""
2692,"146 BEACON AV","New Haven","CT",""
2693,"144 BEACON AV","New Haven","CT",""
2694,"140 BEACON AV","New Haven","CT",""
2695,"138 BEACON AV","New Haven","CT",""
2696,"128 BEACON AV","New Haven","CT",""
2697,"32 FROST ST","New Haven","CT",""
2698,"20 FROST ST","New Haven","CT",""
2699,"171 BEACON AV","New Haven","CT",""
2700,"177 BEACON AV","New Haven","CT",""
2701,"179 BEACON AV","New Haven","CT",""
2702,"185 BEACON AV","New Haven","CT",""
2703,"193 BEACON AV","New Haven","CT",""
2704,"197 BEACON AV","New Haven","CT",""
2705,"51 MAIN ST ANNEX","New Haven","CT",""
2706,"190 HILLSIDE AV","New Haven","CT",""
2707,"180 HILLSIDE AV","New Haven","CT",""
2708,"178 HILLSIDE AV","New Haven","CT",""
2709,"168 HILLSIDE AV","New Haven","CT",""
2710,"165 HILLSIDE AV","New Haven","CT",""
2711,"79 MAIN ST ANNEX","New Haven","CT",""
2712,"83 MAIN ST ANNEX","New Haven","CT",""
2713,"89 MAIN ST ANNEX","New Haven","CT",""
2714,"174 HUNTINGTON AV","New Haven","CT",""
2715,"168 HUNTINGTON AV","New Haven","CT",""
2716,"475 FORBES AV","New Haven","CT",""
2717,"501 FORBES AV","New Haven","CT",""
2718,NA,"New Haven","CT",""
2719,"56 MAIN ST ANNEX","New Haven","CT",""
2720,"48 MAIN ST ANNEX","New Haven","CT",""
2721,"70 MAIN ST ANNEX","New Haven","CT",""
2722,"76 MAIN ST ANNEX","New Haven","CT",""
2723,"46 MINOTT ST","New Haven","CT",""
2724,NA,"New Haven","CT",""
2725,"26 OAKLEY ST","New Haven","CT",""
2726,"20 OAKLEY ST","New Haven","CT",""
2727,"100 MAIN ST ANNEX","New Haven","CT",""
2728,"92 MAIN ST ANNEX","New Haven","CT",""
2729,"OAKLEY ST","New Haven","CT",""
2730,"86 MAIN ST ANNEX","New Haven","CT",""
2731,"82 MAIN ST ANNEX","New Haven","CT",""
2732,"1219 TOWNSEND AV","New Haven","CT",""
2733,"490 FORBES AV","New Haven","CT",""
2734,"ASHLAND PL","New Haven","CT",""
2735,"33 ASHLAND PL","New Haven","CT",""
2736,"39 ASHLAND PL","New Haven","CT",""
2737,NA,"New Haven","CT",""
2738,"47 ASHLAND PL","New Haven","CT",""
2739,"53 ASHLAND PL","New Haven","CT",""
2740,"59 ASHLAND PL","New Haven","CT",""
2741,"65 ASHLAND PL","New Haven","CT",""
2742,"69 ASHLAND PL","New Haven","CT",""
2743,"77 ASHLAND PL","New Haven","CT",""
2744,"FORBES AV","New Haven","CT",""
2745,"80 OAKLEY ST","New Haven","CT",""
2746,"76 OAKLEY ST","New Haven","CT",""
2747,"68 OAKLEY ST","New Haven","CT",""
2748,"609 WOODWARD AV","New Haven","CT",""
2749,"615 WOODWARD AV","New Haven","CT",""
2750,"621 WOODWARD AV","New Haven","CT",""
2751,"627 WOODWARD AV","New Haven","CT",""
2752,"633 WOODWARD AV","New Haven","CT",""
2753,"639 WOODWARD AV","New Haven","CT",""
2754,"645 WOODWARD AV","New Haven","CT",""
2755,"651 WOODWARD AV","New Haven","CT",""
2756,"657 WOODWARD AV","New Haven","CT",""
2757,"663 WOODWARD AV","New Haven","CT",""
2758,"669 WOODWARD AV","New Haven","CT",""
2759,"675 WOODWARD AV","New Haven","CT",""
2760,"270 ELAINE TER","New Haven","CT",""
2761,"264 ELAINE TER","New Haven","CT",""
2762,"258 ELAINE TER","New Haven","CT",""
2763,"250 ELAINE TER","New Haven","CT",""
2764,"244 ELAINE TER","New Haven","CT",""
2765,"240 ELAINE TER","New Haven","CT",""
2766,"232 ELAINE TER","New Haven","CT",""
2767,"226 ELAINE TER","New Haven","CT",""
2768,"218 ELAINE TER","New Haven","CT",""
2769,"212 ELAINE TER","New Haven","CT",""
2770,"204 ELAINE TER","New Haven","CT",""
2771,"205 ELAINE TER","New Haven","CT",""
2772,"211 ELAINE TER","New Haven","CT",""
2773,"219 ELAINE TER","New Haven","CT",""
2774,"227 ELAINE TER","New Haven","CT",""
2775,"233 ELAINE TER","New Haven","CT",""
2776,"239 ELAINE TER","New Haven","CT",""
2777,"245 ELAINE TER","New Haven","CT",""
2778,"251 ELAINE TER","New Haven","CT",""
2779,"259 ELAINE TER","New Haven","CT",""
2780,"265 ELAINE TER","New Haven","CT",""
2781,"271 ELAINE TER","New Haven","CT",""
2782,"105 JOHN ST","New Haven","CT",""
2783,"1102 TOWNSEND AV","New Haven","CT",""
2784,"1098 TOWNSEND AV","New Haven","CT",""
2785,"1094 TOWNSEND AV","New Haven","CT",""
2786,"1090 TOWNSEND AV","New Haven","CT",""
2787,"1086 TOWNSEND AV","New Haven","CT",""
2788,"1082 TOWNSEND AV","New Haven","CT",""
2789,"1078 TOWNSEND AV","New Haven","CT",""
2790,"1072 TOWNSEND AV","New Haven","CT",""
2791,"1068 TOWNSEND AV","New Haven","CT",""
2792,"1060 TOWNSEND AV","New Haven","CT",""
2793,"1058 TOWNSEND AV","New Haven","CT",""
2794,"1052 TOWNSEND AV","New Haven","CT",""
2795,"1050 TOWNSEND AV","New Haven","CT",""
2796,"1042 TOWNSEND AV","New Haven","CT",""
2797,"1030 TOWNSEND AV","New Haven","CT",""
2798,"683 WOODWARD AV","New Haven","CT",""
2799,"691 WOODWARD AV","New Haven","CT",""
2800,"701 WOODWARD AV","New Haven","CT",""
2801,"WOODWARD AV","New Haven","CT",""
2802,"711 WOODWARD AV","New Haven","CT",""
2803,"717 WOODWARD AV","New Haven","CT",""
2804,"727 WOODWARD AV","New Haven","CT",""
2805,"348 PROSPECT AV #1","New Haven","CT",""
2806,"346 PROSPECT AV #3","New Haven","CT",""
2807,"344 PROSPECT AV","New Haven","CT",""
2808,"342 PROSPECT AV #7","New Haven","CT",""
2809,"340 PROSPECT AV #9","New Haven","CT",""
2810,"338 PROSPECT AV #11","New Haven","CT",""
2811,"336 PROSPECT AV #13","New Haven","CT",""
2812,"334 PROSPECT AV #334","New Haven","CT",""
2813,"332 PROSPECT AV #332","New Haven","CT",""
2814,"330 PROSPECT AV #330","New Haven","CT",""
2815,"328 PROSPECT AV #328","New Haven","CT",""
2816,"326 PROSPECT AV #326","New Haven","CT",""
2817,"304 PROSPECT AV","New Haven","CT",""
2818,"298 PROSPECT AV","New Haven","CT",""
2819,"292 PROSPECT AV","New Haven","CT",""
2820,"286 PROSPECT AV","New Haven","CT",""
2821,"60 JOHN ST","New Haven","CT",""
2822,"289 PROSPECT AV","New Haven","CT",""
2823,"295 PROSPECT AV","New Haven","CT",""
2824,"301 PROSPECT AV","New Haven","CT",""
2825,"307 PROSPECT AV","New Haven","CT",""
2826,"315 PROSPECT AV","New Haven","CT",""
2827,"319 PROSPECT AV","New Haven","CT",""
2828,"325 PROSPECT AV","New Haven","CT",""
2829,"329 PROSPECT AV","New Haven","CT",""
2830,"333 PROSPECT AV","New Haven","CT",""
2831,"1172 TOWNSEND AV","New Haven","CT",""
2832,"1164 TOWNSEND AV","New Haven","CT",""
2833,"1160 TOWNSEND AV","New Haven","CT",""
2834,"1154 TOWNSEND AV","New Haven","CT",""
2835,"TOWNSEND AV","New Haven","CT",""
2836,"1144 TOWNSEND AV","New Haven","CT",""
2837,"1138 TOWNSEND AV","New Haven","CT",""
2838,"1130 TOWNSEND AV","New Haven","CT",""
2839,"1122 TOWNSEND AV","New Haven","CT",""
2840,"1118 TOWNSEND AV","New Haven","CT",""
2841,"1114 TOWNSEND AV","New Haven","CT",""
2842,"30 ALLEN PL","New Haven","CT",""
2843,"ALLEN PL","New Haven","CT",""
2844,"16 ALLEN PL","New Haven","CT",""
2845,"12 ALLEN PL","New Haven","CT",""
2846,"716 WOODWARD AV","New Haven","CT",""
2847,"710 WOODWARD AV","New Haven","CT",""
2848,"706 WOODWARD AV","New Haven","CT",""
2849,"700 WOODWARD AV","New Haven","CT",""
2850,"21 FAIRVIEW AV","New Haven","CT",""
2851,"694 WOODWARD AV","New Haven","CT",""
2852,"682 WOODWARD AV","New Haven","CT",""
2853,"680 WOODWARD AV","New Haven","CT",""
2854,"662 WOODWARD AV","New Haven","CT",""
2855,"664 WOODWARD AV","New Haven","CT",""
2856,"666 WOODWARD AV","New Haven","CT",""
2857,"668 WOODWARD AV","New Haven","CT",""
2858,"670 WOODWARD AV","New Haven","CT",""
2859,"672 WOODWARD AV","New Haven","CT",""
2860,"674 WOODWARD AV","New Haven","CT",""
2861,"658 WOODWARD AV","New Haven","CT",""
2862,"654 WOODWARD AV","New Haven","CT",""
2863,"650 WOODWARD AV","New Haven","CT",""
2864,"WOODWARD AV","New Haven","CT",""
2865,"646 WOODWARD AV","New Haven","CT",""
2866,"642 WOODWARD AV","New Haven","CT",""
2867,"WOODWARD AV","New Haven","CT",""
2868,"630 WOODWARD AV","New Haven","CT",""
2869,"628 WOODWARD AV","New Haven","CT",""
2870,"626 WOODWARD AV","New Haven","CT",""
2871,"624 WOODWARD AV","New Haven","CT",""
2872,"WOODWARD AV","New Haven","CT",""
2873,"606 WOODWARD AV","New Haven","CT",""
2874,"33 ALLEN PL","New Haven","CT",""
2875,"ALLEN PL","New Haven","CT",""
2876,"27 ALLEN PL","New Haven","CT",""
2877,"23 ALLEN PL","New Haven","CT",""
2878,"19 ALLEN PL","New Haven","CT",""
2879,"15 ALLEN PL","New Haven","CT",""
2880,"11 ALLEN PL","New Haven","CT",""
2881,"726 WOODWARD AV","New Haven","CT",""
2882,"730 WOODWARD AV","New Haven","CT",""
2883,"740 WOODWARD AV","New Haven","CT",""
2884,"EAST SHORE PKWY","New Haven","CT",""
2885,"EAST SHORE PKWY","New Haven","CT",""
2886,"WATERFRONT ST","New Haven","CT",""
2887,"WATERFRONT ST","New Haven","CT",""
2888,NA,"New Haven","CT",""
2889,"481 EAST SHORE PKWY","New Haven","CT",""
2890,"5 GEORGIA ST","New Haven","CT",""
2891,"WATERFRONT ST","New Haven","CT",""
2892,"30 WATERFRONT ST","New Haven","CT",""
2893,NA,"New Haven","CT",""
2894,"31 WATERFRONT ST","New Haven","CT",""
2895,NA,"New Haven","CT",""
2896,"CONNECTICUT AV","New Haven","CT",""
2897,"EAST SHORE PKWY","New Haven","CT",""
2898,"25 CONNECTICUT AV","New Haven","CT",""
2899,"145 ALABAMA ST","New Haven","CT",""
2900,"165 ALABAMA ST","New Haven","CT",""
2901,"ALABAMA ST","New Haven","CT",""
2902,"EDGEMERE RD","New Haven","CT",""
2903,"3 EDGEMERE RD","New Haven","CT",""
2904,"ALABAMA ST","New Haven","CT",""
2905,"EDGEMERE RD","New Haven","CT",""
2906,"EDGEMERE RD","New Haven","CT",""
2907,"COLORADO AV","New Haven","CT",""
2908,"COLORADO AV","New Haven","CT",""
2909,"CONNECTICUT AV","New Haven","CT",""
2910,"581 CONNECTICUT AV","New Haven","CT",""
2911,"45 FULTON TER","New Haven","CT",""
2912,"ALBIA ST","New Haven","CT",""
2913,"170 ALABAMA ST","New Haven","CT",""
2914,"EDGEMERE RD","New Haven","CT",""
2915,"ALABAMA ST","New Haven","CT",""
2916,"29 FULTON TER","New Haven","CT",""
2917,"15 FULTON TER","New Haven","CT",""
2918,"FULTON TER","New Haven","CT",""
2919,"ALABAMA ST","New Haven","CT",""
2920,"EAST SHORE PKWY","New Haven","CT",""
2921,"ALBIA ST","New Haven","CT",""
2922,"821 EAST SHORE PKWY","New Haven","CT",""
2923,"50 FULTON TER","New Haven","CT",""
2924,"ALABAMA ST","New Haven","CT",""
2925,"815 EAST SHORE PKWY","New Haven","CT",""
2926,"FORBES AV","New Haven","CT",""
2927,"FORBES AV","New Haven","CT",""
2928,"383 FORBES AV","New Haven","CT",""
2929,"389 FORBES AV","New Haven","CT",""
2930,"401 FORBES AV","New Haven","CT",""
2931,"429 FORBES AV","New Haven","CT",""
2932,"441 FORBES AV","New Haven","CT",""
2933,"FORBES AV","New Haven","CT",""
2934,"453 FORBES AV","New Haven","CT",""
2935,"25 KENDALL ST","New Haven","CT",""
2936,"47 KENDALL ST","New Haven","CT",""
2937,"166 FULTON TER","New Haven","CT",""
2938,"70 FULTON TER","New Haven","CT",""
2939,"65 STILES ST","New Haven","CT",""
2940,"EAST SHORE PKWY","New Haven","CT",""
2941,"EAST SHORE PKWY","New Haven","CT",""
2942,"EAST SHORE PKWY","New Haven","CT",""
2943,"EAST SHORE PKWY","New Haven","CT",""
2944,"EAST SHORE PKWY","New Haven","CT",""
2945,"130 FULTON TER","New Haven","CT",""
2946,"155 FULTON TER","New Haven","CT",""
2947,"85 KENDALL ST","New Haven","CT",""
2948,"111 KENDALL ST","New Haven","CT",""
2949,"117 KENDALL ST","New Haven","CT",""
2950,"131 KENDALL ST","New Haven","CT",""
2951,"345 FORBES AV","New Haven","CT",""
2952,"STRATFORD AV","New Haven","CT",""
2953,"355 FORBES AV","New Haven","CT",""
2954,"FORBES AV","New Haven","CT",""
2955,"HOOVER ST","New Haven","CT",""
2956,"208 HOOVER ST","New Haven","CT",""
2957,NA,"New Haven","CT",""
2958,"EDGEMERE RD","New Haven","CT",""
2959,"40 EDGEMERE RD","New Haven","CT",""
2960,"EDGEMERE RD","New Haven","CT",""
2961,"54 EDGEMERE RD","New Haven","CT",""
2962,"135 FULTON TER","New Haven","CT",""
2963,NA,"New Haven","CT",""
2964,"189 FORBES AV","New Haven","CT",""
2965,NA,"New Haven","CT",""
2966,"203 FORBES AV","New Haven","CT",""
2967,"209 FORBES AV","New Haven","CT",""
2968,"FORBES AV","New Haven","CT",""
2969,"FORBES AV","New Haven","CT",""
2970,"225 FORBES AV","New Haven","CT",""
2971,"227 FORBES AV","New Haven","CT",""
2972,"231 FORBES AV","New Haven","CT",""
2973,"239 FORBES AV","New Haven","CT",""
2974,"247 FORBES AV","New Haven","CT",""
2975,"212 FULTON TER","New Haven","CT",""
2976,"206 FULTON TER","New Haven","CT",""
2977,"190 FULTON TER","New Haven","CT",""
2978,"176 FULTON TER","New Haven","CT",""
2979,"44 KENDALL ST","New Haven","CT",""
2980,"40 KENDALL ST","New Haven","CT",""
2981,"26 KENDALL ST","New Haven","CT",""
2982,"KENDALL ST","New Haven","CT",""
2983,"99 STILES ST","New Haven","CT",""
2984,"125 STILES ST","New Haven","CT",""
2985,"131 STILES ST","New Haven","CT",""
2986,"111 STILES ST","New Haven","CT",""
2987,"117 STILES ST","New Haven","CT",""
2988,"133 STILES ST","New Haven","CT",""
2989,NA,"New Haven","CT",""
2990,"257 FORBES AV","New Haven","CT",""
2991,"261 FORBES AV","New Haven","CT",""
2992,"265 FORBES AV","New Haven","CT",""
2993,"269 FORBES AV","New Haven","CT",""
2994,"277 FORBES AV","New Haven","CT",""
2995,"283 FORBES AV","New Haven","CT",""
2996,"313 FORBES AV","New Haven","CT",""
2997,"321 FORBES AV","New Haven","CT",""
2998,"118 KENDALL ST","New Haven","CT",""
2999,"110 KENDALL ST","New Haven","CT",""
3000,"EDGEMERE RD","New Haven","CT",""
