"pid","location","city","state","zip"
14001,"191 MANSFIELD ST","New Haven","CT",""
14002,"197 MANSFIELD ST","New Haven","CT",""
14003,"203 MANSFIELD ST","New Haven","CT",""
14004,"211 MANSFIELD ST","New Haven","CT",""
14005,"217 MANSFIELD ST","New Haven","CT",""
14006,"56 HILLSIDE PL","New Haven","CT",""
14007,"54 HILLSIDE PL","New Haven","CT",""
14008,"52 HILLSIDE PL","New Haven","CT",""
14009,"PROSPECT ST","New Haven","CT",""
14010,"314 PROSPECT ST","New Haven","CT",""
14011,"MANSFIELD ST","New Haven","CT",""
14012,NA,"New Haven","CT",""
14013,"310 PROSPECT ST","New Haven","CT",""
14014,"300 PROSPECT ST","New Haven","CT",""
14015,"282 PROSPECT ST","New Haven","CT",""
14016,"276 PROSPECT ST","New Haven","CT",""
14017,"MANSFIELD ST","New Haven","CT",""
14018,NA,"New Haven","CT",""
14019,NA,"New Haven","CT",""
14020,NA,"New Haven","CT",""
14021,NA,"New Haven","CT",""
14022,NA,"New Haven","CT",""
14023,NA,"New Haven","CT",""
14024,NA,"New Haven","CT",""
14025,NA,"New Haven","CT",""
14026,NA,"New Haven","CT",""
14027,NA,"New Haven","CT",""
14028,"313 MANSFIELD ST","New Haven","CT",""
14029,"426 PROSPECT ST","New Haven","CT",""
14030,NA,"New Haven","CT",""
14031,"406 PROSPECT ST","New Haven","CT",""
14032,"400 PROSPECT ST","New Haven","CT",""
14033,"386 PROSPECT ST","New Haven","CT",""
14034,"360 PROSPECT ST","New Haven","CT",""
14035,"227 MANSFIELD ST","New Haven","CT",""
14036,"265 MANSFIELD ST","New Haven","CT",""
14037,"295 MANSFIELD ST","New Haven","CT",""
14038,"339 PROSPECT ST","New Haven","CT",""
14039,"12 SAINT RONAN TER","New Haven","CT",""
14040,"9 SAINT RONAN TER","New Haven","CT",""
14041,"SAINT RONAN TER","New Haven","CT",""
14042,"5 SAINT RONAN TER","New Haven","CT",""
14043,"258 SAINT RONAN ST","New Haven","CT",""
14044,"240 SAINT RONAN ST","New Haven","CT",""
14045,"10 SAINT RONAN TER","New Haven","CT",""
14046,"8 SAINT RONAN TER","New Haven","CT",""
14047,"6 SAINT RONAN TER","New Haven","CT",""
14048,"4 SAINT RONAN TER","New Haven","CT",""
14049,"224 SAINT RONAN ST","New Haven","CT",""
14050,"210 SAINT RONAN ST","New Haven","CT",""
14051,"216 SAINT RONAN ST","New Haven","CT",""
14052,"208 SAINT RONAN ST","New Haven","CT",""
14053,NA,"New Haven","CT",""
14054,"190 SAINT RONAN ST","New Haven","CT",""
14055,"176 SAINT RONAN ST","New Haven","CT",""
14056,"160 SAINT RONAN ST","New Haven","CT",""
14057,"335 PROSPECT ST","New Haven","CT",""
14058,"341 SAINT RONAN ST","New Haven","CT",""
14059,"341 SAINT RONAN ST","New Haven","CT",""
14060,"319 MANSFIELD ST","New Haven","CT",""
14061,"325 MANSFIELD ST","New Haven","CT",""
14062,"460 PROSPECT ST","New Haven","CT",""
14063,"PROSPECT ST","New Haven","CT",""
14064,"329 MANSFIELD ST","New Haven","CT",""
14065,"436 PROSPECT ST","New Haven","CT",""
14066,"440 PROSPECT ST #1","New Haven","CT",""
14067,"440 PROSPECT ST #2","New Haven","CT",""
14068,"440 PROSPECT ST #3","New Haven","CT",""
14069,"440 PROSPECT ST #4","New Haven","CT",""
14070,"440 PROSPECT ST #5","New Haven","CT",""
14071,"440 PROSPECT ST #6","New Haven","CT",""
14072,"440 PROSPECT ST #7","New Haven","CT",""
14073,"440 PROSPECT ST #8","New Haven","CT",""
14074,"440 PROSPECT ST #9","New Haven","CT",""
14075,"440 PROSPECT ST #10","New Haven","CT",""
14076,"440 PROSPECT ST #11","New Haven","CT",""
14077,"440 PROSPECT ST #12","New Haven","CT",""
14078,"370 CANNER ST","New Haven","CT",""
14079,"477 PROSPECT ST","New Haven","CT",""
14080,"CANNER ST","New Haven","CT",""
14081,"352 CANNER ST","New Haven","CT",""
14082,"341 SAINT RONAN ST","New Haven","CT",""
14083,"423 PROSPECT ST","New Haven","CT",""
14084,"459 PROSPECT ST","New Haven","CT",""
14085,"346 SAINT RONAN ST","New Haven","CT",""
14086,"CANNER ST","New Haven","CT",""
14087,"320 CANNER ST","New Haven","CT",""
14088,"340 SAINT RONAN ST","New Haven","CT",""
14089,"490 PROSPECT ST","New Haven","CT",""
14090,"470 PROSPECT ST","New Haven","CT",""
14091,"SHELDON TER","New Haven","CT",""
14092,"71 SHELDON TER","New Haven","CT",""
14093,"63 SHELDON TER","New Haven","CT",""
14094,"SHELDON TER","New Haven","CT",""
14095,"51 SHELDON TER","New Haven","CT",""
14096,"45 SHELDON TER","New Haven","CT",""
14097,"43 SHELDON TER","New Haven","CT",""
14098,"35 SHELDON TER","New Haven","CT",""
14099,"31 SHELDON TER","New Haven","CT",""
14100,"25 SHELDON TER","New Haven","CT",""
14101,"21 SHELDON TER","New Haven","CT",""
14102,"15 SHELDON TER","New Haven","CT",""
14103,"11 SHELDON TER","New Haven","CT",""
14104,"5 SHELDON TER","New Haven","CT",""
14105,"594 PROSPECT ST #A-1","New Haven","CT",""
14106,"594 PROSPECT ST #A-2","New Haven","CT",""
14107,"596 PROSPECT ST #A-3","New Haven","CT",""
14108,"596 PROSPECT ST #A-4","New Haven","CT",""
14109,"598 PROSPECT ST #A-5","New Haven","CT",""
14110,"598 PROSPECT ST #A-6","New Haven","CT",""
14111,"600 PROSPECT ST #A-7","New Haven","CT",""
14112,"600 PROSPECT ST #A-8","New Haven","CT",""
14113,"594 PROSPECT ST #B-1","New Haven","CT",""
14114,"594 PROSPECT ST #B-2","New Haven","CT",""
14115,"596 PROSPECT ST #B-3","New Haven","CT",""
14116,"596 PROSPECT ST #B-4","New Haven","CT",""
14117,"598 PROSPECT ST #B-5","New Haven","CT",""
14118,"598 PROSPECT ST #B-6","New Haven","CT",""
14119,"600 PROSPECT ST #B-7","New Haven","CT",""
14120,"600 PROSPECT ST #B-8","New Haven","CT",""
14121,"594 PROSPECT ST #C-1","New Haven","CT",""
14122,"594 PROSPECT ST #C-2","New Haven","CT",""
14123,"596 PROSPECT ST #C-3","New Haven","CT",""
14124,"596 PROSPECT ST #C-4","New Haven","CT",""
14125,"598 PROSPECT ST #C-5","New Haven","CT",""
14126,"598 PROSPECT ST #C-6","New Haven","CT",""
14127,"600 PROSPECT ST #C-7","New Haven","CT",""
14128,"600 PROSPECT ST #C-8","New Haven","CT",""
14129,"584 PROSPECT ST","New Haven","CT",""
14130,"570 PROSPECT ST","New Haven","CT",""
14131,NA,"New Haven","CT",""
14132,"550 PROSPECT ST #1","New Haven","CT",""
14133,"550 PROSPECT ST #2","New Haven","CT",""
14134,"550 PROSPECT ST #3","New Haven","CT",""
14135,"550 PROSPECT ST #4","New Haven","CT",""
14136,"550 PROSPECT ST #5","New Haven","CT",""
14137,"550 PROSPECT ST #6","New Haven","CT",""
14138,"550 PROSPECT ST #7","New Haven","CT",""
14139,"550 PROSPECT ST #8","New Haven","CT",""
14140,"550 PROSPECT ST #9","New Haven","CT",""
14141,"550 PROSPECT ST #10","New Haven","CT",""
14142,"550 PROSPECT ST #11","New Haven","CT",""
14143,"550 PROSPECT ST #12","New Haven","CT",""
14144,"550 PROSPECT ST #13","New Haven","CT",""
14145,"550 PROSPECT ST #14","New Haven","CT",""
14146,"550 PROSPECT ST #15","New Haven","CT",""
14147,"550 PROSPECT ST #16","New Haven","CT",""
14148,"550 PROSPECT ST #17","New Haven","CT",""
14149,"550 PROSPECT ST #18","New Haven","CT",""
14150,"550 PROSPECT ST #19","New Haven","CT",""
14151,"550 PROSPECT ST #20","New Haven","CT",""
14152,"550 PROSPECT ST #21","New Haven","CT",""
14153,"550 PROSPECT ST #22","New Haven","CT",""
14154,"500 PROSPECT ST #2A","New Haven","CT",""
14155,"500 PROSPECT ST #2B","New Haven","CT",""
14156,"500 PROSPECT #3A","New Haven","CT",""
14157,"500 PROSPECT ST #3B","New Haven","CT",""
14158,"500 PROSPECT ST #4A","New Haven","CT",""
14159,"500 PROSPECT ST #4B","New Haven","CT",""
14160,"500 PROSPECT ST #C","New Haven","CT",""
14161,"500 PROSPECT ST #D","New Haven","CT",""
14162,"500 PROSPECT ST #E","New Haven","CT",""
14163,"500 PROSPECT ST #F","New Haven","CT",""
14164,"500 PROSPECT ST #G","New Haven","CT",""
14165,"500 PROSPECT ST #C","New Haven","CT",""
14166,"500 PROSPECT ST #D","New Haven","CT",""
14167,"500 PROSPECT ST #E","New Haven","CT",""
14168,"500 PROSPECT ST #2F","New Haven","CT",""
14169,"500 PROSPECT ST #G","New Haven","CT",""
14170,"500 PROSPECT ST #C","New Haven","CT",""
14171,"500 PROSPECT ST #D","New Haven","CT",""
14172,"500 PROSPECT ST #E","New Haven","CT",""
14173,"500 PROSPECT ST #F","New Haven","CT",""
14174,"500 PROSPECT ST #G","New Haven","CT",""
14175,"500 PROSPECT ST #F","New Haven","CT",""
14176,"500 PROSPECT ST #4-D","New Haven","CT",""
14177,"500 PROSPECT ST #E","New Haven","CT",""
14178,"500 PROSPECT ST #F","New Haven","CT",""
14179,"500 PROSPECT ST #G","New Haven","CT",""
14180,NA,"New Haven","CT",""
14181,NA,"New Haven","CT",""
14182,"567 PROSPECT ST","New Haven","CT",""
14183,"150 HIGHLAND ST","New Haven","CT",""
14184,"50 LOOMIS PL","New Haven","CT",""
14185,"LOOMIS PL","New Haven","CT",""
14186,"375 CANNER ST","New Haven","CT",""
14187,"511 PROSPECT ST","New Haven","CT",""
14188,"533 PROSPECT ST","New Haven","CT",""
14189,"246 HUNTINGTON ST","New Haven","CT",""
14190,"236 HUNTINGTON ST","New Haven","CT",""
14191,"228 HUNTINGTON ST","New Haven","CT",""
14192,"224 HUNTINGTON ST","New Haven","CT",""
14193,"682 PROSPECT ST","New Haven","CT",""
14194,"670 PROSPECT ST","New Haven","CT",""
14195,"656 PROSPECT ST","New Haven","CT",""
14196,"652 PROSPECT ST","New Haven","CT",""
14197,"648 PROSPECT ST","New Haven","CT",""
14198,"644 PROSPECT ST","New Haven","CT",""
14199,"640 PROSPECT ST","New Haven","CT",""
14200,"PROSPECT ST","New Haven","CT",""
14201,"638 PROSPECT ST","New Haven","CT",""
14202,"634 PROSPECT ST","New Haven","CT",""
14203,"630 PROSPECT ST","New Haven","CT",""
14204,"616 PROSPECT ST","New Haven","CT",""
14205,"211 HIGHLAND ST","New Haven","CT",""
14206,"215 HIGHLAND ST","New Haven","CT",""
14207,"221 HIGHLAND ST","New Haven","CT",""
14208,"227 HIGHLAND ST","New Haven","CT",""
14209,"233 HIGHLAND ST","New Haven","CT",""
14210,"101 SHELDON TER","New Haven","CT",""
14211,"107 SHELDON TER","New Haven","CT",""
14212,"111 SHELDON TER","New Haven","CT",""
14213,"117 SHELDON TER","New Haven","CT",""
14214,"123 SHELDON TER","New Haven","CT",""
14215,"129 SHELDON TER","New Haven","CT",""
14216,"135 SHELDON TER","New Haven","CT",""
14217,"166 HUNTINGTON ST","New Haven","CT",""
14218,"162 HUNTINGTON ST","New Haven","CT",""
14219,"150 HUNTINGTON ST","New Haven","CT",""
14220,"142 HUNTINGTON ST","New Haven","CT",""
14221,"130 HUNTINGTON ST","New Haven","CT",""
14222,"120 HUNTINGTON ST","New Haven","CT",""
14223,"112 HUNTINGTON ST","New Haven","CT",""
14224,"108 HUNTINGTON ST","New Haven","CT",""
14225,"104 HUNTINGTON ST","New Haven","CT",""
14226,"24 EDGEHILL RD","New Haven","CT",""
14227,"20 EDGEHILL RD","New Haven","CT",""
14228,"12 EDGEHILL RD","New Haven","CT",""
14229,"651 PROSPECT ST","New Haven","CT",""
14230,"HIGHLAND ST","New Haven","CT",""
14231,"2 EDGEHILL RD","New Haven","CT",""
14232,"4 EDGEHILL RD","New Haven","CT",""
14233,"EDGEHILL RD","New Haven","CT",""
14234,"661 PROSPECT ST","New Haven","CT",""
14235,"671 PROSPECT ST","New Haven","CT",""
14236,"175 HUNTINGTON ST","New Haven","CT",""
14237,"711 PROSPECT ST","New Haven","CT",""
14238,"300 EAST ROCK RD","New Haven","CT",""
14239,"123 HUNTINGTON ST","New Haven","CT",""
14240,"64 EDGEHILL RD","New Haven","CT",""
14241,"50 EDGEHILL RD","New Haven","CT",""
14242,"34 EDGEHILL RD","New Haven","CT",""
14243,"165 HUNTINGTON ST","New Haven","CT",""
14244,"755 PROSPECT ST","New Haven","CT",""
14245,"765 PROSPECT ST","New Haven","CT",""
14246,"340 OGDEN ST","New Haven","CT",""
14247,"316 OGDEN ST","New Haven","CT",""
14248,"300 OGDEN ST","New Haven","CT",""
14249,"288 OGDEN ST","New Haven","CT",""
14250,"274 OGDEN ST","New Haven","CT",""
14251,"248 OGDEN ST","New Haven","CT",""
14252,"OGDEN ST","New Haven","CT",""
14253,"82 EDGEHILL RD","New Haven","CT",""
14254,"72 EDGEHILL RD","New Haven","CT",""
14255,"237 EAST ROCK RD","New Haven","CT",""
14256,"245 EAST ROCK RD","New Haven","CT",""
14257,"251 EAST ROCK RD","New Haven","CT",""
14258,"265 EAST ROCK RD","New Haven","CT",""
14259,"275 EAST ROCK RD","New Haven","CT",""
14260,"787 PROSPECT ST","New Haven","CT",""
14261,"2 RESERVOIR ST","New Haven","CT",""
14262,"317 OGDEN ST","New Haven","CT",""
14263,"301 OGDEN ST","New Haven","CT",""
14264,"797 PROSPECT ST","New Haven","CT",""
14265,"11 BEECHWOOD LA","New Haven","CT",""
14266,"19 BEECHWOOD LA","New Haven","CT",""
14267,"25 BEECHWOOD LA","New Haven","CT",""
14268,"8 RESERVOIR ST","New Haven","CT",""
14269,"33 BEECHWOOD LA","New Haven","CT",""
14270,"RESERVOIR ST","New Haven","CT",""
14271,"20 BEECHWOOD LA","New Haven","CT",""
14272,"8 BEECHWOOD LA","New Haven","CT",""
14273,"100 EDGEHILL RD","New Haven","CT",""
14274,"45 RESERVOIR ST","New Haven","CT",""
14275,"120 CLIFF ST","New Haven","CT",""
14276,"130 EDGEHILL RD","New Haven","CT",""
14277,"OGDEN ST","New Haven","CT",""
14278,"OGDEN ST","New Haven","CT",""
14279,"OGDEN ST","New Haven","CT",""
14280,"255 OGDEN ST","New Haven","CT",""
14281,"269 OGDEN ST","New Haven","CT",""
14282,"1 RESERVOIR ST","New Haven","CT",""
14283,"1 RESERVOIR ST","New Haven","CT",""
14284,"9 RESERVOIR ST","New Haven","CT",""
14285,"140 EDGEHILL RD","New Haven","CT",""
14286,"135 CLIFF ST","New Haven","CT",""
14287,"145 CLIFF ST","New Haven","CT",""
14288,"700 PROSPECT ST","New Haven","CT",""
14289,"700 PROSPECT ST","New Haven","CT",""
14290,"810 PROSPECT ST","New Haven","CT",""
14291,"451 HUNTINGTON ST","New Haven","CT",""
14292,"39 SHEPARD ST","New Haven","CT",""
14293,"43 SHEPARD ST","New Haven","CT",""
14294,"86 READ ST","New Haven","CT",""
14295,"82 READ ST","New Haven","CT",""
14296,"78 READ ST","New Haven","CT",""
14297,"74 READ ST","New Haven","CT",""
14298,"66 READ ST","New Haven","CT",""
14299,"70 READ ST","New Haven","CT",""
14300,"326 NEWHALL ST","New Haven","CT",""
14301,"322 NEWHALL ST","New Haven","CT",""
14302,"320 NEWHALL ST","New Haven","CT",""
14303,"316 NEWHALL ST","New Haven","CT",""
14304,"312 NEWHALL ST","New Haven","CT",""
14305,"304 NEWHALL ST","New Haven","CT",""
14306,"300 NEWHALL ST","New Haven","CT",""
14307,"425 HUNTINGTON ST","New Haven","CT",""
14308,"429 HUNTINGTON ST","New Haven","CT",""
14309,"431 HUNTINGTON ST","New Haven","CT",""
14310,"441 HUNTINGTON ST","New Haven","CT",""
14311,"445 HUNTINGTON ST","New Haven","CT",""
14312,"407 HUNTINGTON ST","New Haven","CT",""
14313,"311 NEWHALL ST","New Haven","CT",""
14314,"315 NEWHALL ST","New Haven","CT",""
14315,"319 NEWHALL ST","New Haven","CT",""
14316,"323 NEWHALL ST","New Haven","CT",""
14317,"327 NEWHALL ST","New Haven","CT",""
14318,"44 READ ST","New Haven","CT",""
14319,"42 READ ST","New Haven","CT",""
14320,"40 READ ST","New Haven","CT",""
14321,"38 READ ST","New Haven","CT",""
14322,"36 READ ST","New Haven","CT",""
14323,"34 READ ST","New Haven","CT",""
14324,"32 READ ST","New Haven","CT",""
14325,"30 READ ST","New Haven","CT",""
14326,"28 READ ST","New Haven","CT",""
14327,"24 READ ST","New Haven","CT",""
14328,"20 READ ST","New Haven","CT",""
14329,"16 READ ST","New Haven","CT",""
14330,"12 READ ST","New Haven","CT",""
14331,"10 READ ST","New Haven","CT",""
14332,"6 READ ST","New Haven","CT",""
14333,"2 READ ST","New Haven","CT",""
14334,"798 WINCHESTER AV","New Haven","CT",""
14335,"794 WINCHESTER AV","New Haven","CT",""
14336,"780 WINCHESTER AV","New Haven","CT",""
14337,"357 HUNTINGTON ST","New Haven","CT",""
14338,"365 HUNTINGTON ST","New Haven","CT",""
14339,"373 HUNTINGTON ST","New Haven","CT",""
14340,"377 HUNTINGTON ST","New Haven","CT",""
14341,"381 HUNTINGTON ST","New Haven","CT",""
14342,"385 HUNTINGTON ST","New Haven","CT",""
14343,"389 HUNTINGTON ST","New Haven","CT",""
14344,"393 HUNTINGTON ST","New Haven","CT",""
14345,"397 HUNTINGTON ST","New Haven","CT",""
14346,"401 HUNTINGTON ST","New Haven","CT",""
14347,"83 READ ST","New Haven","CT",""
14348,"71 SHEPARD ST","New Haven","CT",""
14349,"73 SHEPARD ST","New Haven","CT",""
14350,"77 SHEPARD ST","New Haven","CT",""
14351,"81 SHEPARD ST","New Haven","CT",""
14352,"83 SHEPARD ST","New Haven","CT",""
14353,"87 SHEPARD ST","New Haven","CT",""
14354,"91 SHEPARD ST","New Haven","CT",""
14355,"93 SHEPARD ST","New Haven","CT",""
14356,"97 SHEPARD ST","New Haven","CT",""
14357,"101 SHEPARD ST","New Haven","CT",""
14358,"105 SHEPARD ST","New Haven","CT",""
14359,"109 SHEPARD ST","New Haven","CT",""
14360,"113 SHEPARD ST","New Haven","CT",""
14361,"119 SHEPARD ST","New Haven","CT",""
14362,"121 SHEPARD ST","New Haven","CT",""
14363,"400 NEWHALL ST","New Haven","CT",""
14364,"396 NEWHALL ST","New Haven","CT",""
14365,"392 NEWHALL ST","New Haven","CT",""
14366,"388 NEWHALL ST","New Haven","CT",""
14367,"384 NEWHALL ST","New Haven","CT",""
14368,"380 NEWHALL ST","New Haven","CT",""
14369,"376 NEWHALL ST","New Haven","CT",""
14370,"374 NEWHALL ST","New Haven","CT",""
14371,"370 NEWHALL ST","New Haven","CT",""
14372,"362 NEWHALL ST","New Haven","CT",""
14373,"358 NEWHALL ST","New Haven","CT",""
14374,"350 NEWHALL ST","New Haven","CT",""
14375,"348 NEWHALL ST","New Haven","CT",""
14376,"344 NEWHALL ST","New Haven","CT",""
14377,"332 NEWHALL ST","New Haven","CT",""
14378,"65 READ ST","New Haven","CT",""
14379,"67 READ ST","New Haven","CT",""
14380,"71 READ ST","New Haven","CT",""
14381,"75 READ ST","New Haven","CT",""
14382,"79 READ ST","New Haven","CT",""
14383,"53 READ ST","New Haven","CT",""
14384,"45 READ ST","New Haven","CT",""
14385,"39 READ ST","New Haven","CT",""
14386,"40 CAVE ST","New Haven","CT",""
14387,"31 READ ST","New Haven","CT",""
14388,"25 READ ST","New Haven","CT",""
14389,"19 READ ST","New Haven","CT",""
14390,"15 READ ST","New Haven","CT",""
14391,"13 READ ST","New Haven","CT",""
14392,"828 WINCHESTER AV","New Haven","CT",""
14393,"838 WINCHESTER AV","New Haven","CT",""
14394,"18 CAVE ST","New Haven","CT",""
14395,"347 NEWHALL ST","New Haven","CT",""
14396,"351 NEWHALL ST","New Haven","CT",""
14397,"355 NEWHALL ST","New Haven","CT",""
14398,"359 NEWHALL ST","New Haven","CT",""
14399,"365 NEWHALL ST","New Haven","CT",""
14400,"369 NEWHALL ST","New Haven","CT",""
14401,"373 NEWHALL ST","New Haven","CT",""
14402,"38 LANDER ST","New Haven","CT",""
14403,"34 LANDER ST","New Haven","CT",""
14404,"30 LANDER ST","New Haven","CT",""
14405,"26 LANDER ST","New Haven","CT",""
14406,"22 LANDER ST","New Haven","CT",""
14407,"18 LANDER ST","New Haven","CT",""
14408,"14 LANDER ST","New Haven","CT",""
14409,"886 WINCHESTER AV","New Haven","CT",""
14410,"878 WINCHESTER AV","New Haven","CT",""
14411,"872 WINCHESTER AV","New Haven","CT",""
14412,"866 WINCHESTER AV","New Haven","CT",""
14413,"860 WINCHESTER AV","New Haven","CT",""
14414,"850 WINCHESTER AV","New Haven","CT",""
14415,"23 CAVE ST","New Haven","CT",""
14416,"25 CAVE ST","New Haven","CT",""
14417,"27 CAVE ST","New Haven","CT",""
14418,"29 CAVE ST","New Haven","CT",""
14419,"33 CAVE ST","New Haven","CT",""
14420,"35 CAVE ST","New Haven","CT",""
14421,"41 CAVE ST","New Haven","CT",""
14422,"383 NEWHALL ST","New Haven","CT",""
14423,"387 NEWHALL ST","New Haven","CT",""
14424,"393 NEWHALL ST","New Haven","CT",""
14425,"NEWHALL ST","New Haven","CT",""
14426,"922 WINCHESTER AV","New Haven","CT",""
14427,"916 WINCHESTER AV","New Haven","CT",""
14428,"912 WINCHESTER AV","New Haven","CT",""
14429,"908 WINCHESTER AV","New Haven","CT",""
14430,"13 LANDER ST","New Haven","CT",""
14431,"17 LANDER ST","New Haven","CT",""
14432,"21 LANDER ST","New Haven","CT",""
14433,"25 LANDER ST","New Haven","CT",""
14434,"29 LANDER ST","New Haven","CT",""
14435,"33 LANDER ST","New Haven","CT",""
14436,"39 LANDER ST","New Haven","CT",""
14437,"GOODRICH ST","New Haven","CT",""
14438,"GOODRICH ST","New Haven","CT",""
14439,"GOODRICH ST","New Haven","CT",""
14440,"GOODRICH ST","New Haven","CT",""
14441,"767 WINCHESTER AV","New Haven","CT",""
14442,"312 HUNTINGTON ST","New Haven","CT",""
14443,"306 HUNTINGTON ST","New Haven","CT",""
14444,"300 HUNTINGTON ST","New Haven","CT",""
14445,"278 SHEFFIELD AV","New Haven","CT",""
14446,"270 SHEFFIELD AV","New Haven","CT",""
14447,"264 SHEFFIELD AV","New Haven","CT",""
14448,"258 SHEFFIELD AV","New Haven","CT",""
14449,"252 SHEFFIELD AV","New Haven","CT",""
14450,"SHEFFIELD AV","New Haven","CT",""
14451,"246 SHEFFIELD AV","New Haven","CT",""
14452,"240 SHEFFIELD AV","New Haven","CT",""
14453,"212 SHEFFIELD AV","New Haven","CT",""
14454,"HIGHLAND ST","New Haven","CT",""
14455,"279 HIGHLAND ST","New Haven","CT",""
14456,"283 HIGHLAND ST","New Haven","CT",""
14457,"287 HIGHLAND ST","New Haven","CT",""
14458,"671 WINCHESTER AV","New Haven","CT",""
14459,"675 WINCHESTER AV","New Haven","CT",""
14460,"679 WINCHESTER AV","New Haven","CT",""
14461,"683 WINCHESTER AV","New Haven","CT",""
14462,"687 WINCHESTER AV","New Haven","CT",""
14463,"691 WINCHESTER AV","New Haven","CT",""
14464,"697 WINCHESTER AV","New Haven","CT",""
14465,"701 WINCHESTER AV","New Haven","CT",""
14466,"705 WINCHESTER AV","New Haven","CT",""
14467,"709 WINCHESTER AV","New Haven","CT",""
14468,"713 WINCHESTER AV","New Haven","CT",""
14469,"717 WINCHESTER AV","New Haven","CT",""
14470,"721 WINCHESTER AV","New Haven","CT",""
14471,"725 WINCHESTER AV","New Haven","CT",""
14472,"729 WINCHESTER AV","New Haven","CT",""
14473,"733 WINCHESTER AV","New Haven","CT",""
14474,"743 WINCHESTER AV","New Haven","CT",""
14475,"745 WINCHESTER AV","New Haven","CT",""
14476,"753 WINCHESTER AV","New Haven","CT",""
14477,"757 WINCHESTER AV","New Haven","CT",""
14478,"761 WINCHESTER AV","New Haven","CT",""
14479,"280 HUNTINGTON ST","New Haven","CT",""
14480,"276 HUNTINGTON ST","New Haven","CT",""
14481,"270 HUNTINGTON ST","New Haven","CT",""
14482,"264 HUNTINGTON ST","New Haven","CT",""
14483,"258 HUNTINGTON ST","New Haven","CT",""
14484,"252 HUNTINGTON ST","New Haven","CT",""
14485,"SHELDON TER","New Haven","CT",""
14486,"SHEFFIELD AV","New Haven","CT",""
14487,"128 SHELDON TER","New Haven","CT",""
14488,NA,"New Haven","CT",""
14489,NA,"New Haven","CT",""
14490,NA,"New Haven","CT",""
14491,"110 SHELDON TER","New Haven","CT",""
14492,"104 SHELDON TER","New Haven","CT",""
14493,"SHELDON TER","New Haven","CT",""
14494,"245 HIGHLAND ST","New Haven","CT",""
14495,"249 HIGHLAND ST","New Haven","CT",""
14496,"253 HIGHLAND ST","New Haven","CT",""
14497,"257 HIGHLAND ST","New Haven","CT",""
14498,"205 SHEFFIELD AV","New Haven","CT",""
14499,"215 SHEFFIELD AV","New Haven","CT",""
14500,"225 SHEFFIELD AV","New Haven","CT",""
14501,"233 SHEFFIELD AV","New Haven","CT",""
14502,"239 SHEFFIELD AV","New Haven","CT",""
14503,"245 SHEFFIELD AV","New Haven","CT",""
14504,"253 SHEFFIELD AV","New Haven","CT",""
14505,"257 SHEFFIELD AV","New Haven","CT",""
14506,"263 SHEFFIELD AV","New Haven","CT",""
14507,"273 SHEFFIELD AV","New Haven","CT",""
14508,"23 SHEPARD ST","New Haven","CT",""
14509,"436 HUNTINGTON ST","New Haven","CT",""
14510,"432 HUNTINGTON ST","New Haven","CT",""
14511,"428 HUNTINGTON ST","New Haven","CT",""
14512,"424 HUNTINGTON ST","New Haven","CT",""
14513,"420 HUNTINGTON ST","New Haven","CT",""
14514,"292 NEWHALL ST","New Haven","CT",""
14515,"290 NEWHALL ST","New Haven","CT",""
14516,"286 NEWHALL ST","New Haven","CT",""
14517,"282 NEWHALL ST","New Haven","CT",""
14518,"278 NEWHALL ST","New Haven","CT",""
14519,"53 BASSETT ST","New Haven","CT",""
14520,"57 BASSETT ST","New Haven","CT",""
14521,"59 BASSETT ST","New Haven","CT",""
14522,"61 BASSETT ST","New Haven","CT",""
14523,"69 BASSETT ST","New Haven","CT",""
14524,"73 BASSETT ST","New Haven","CT",""
14525,"7 SHEPARD ST","New Haven","CT",""
14526,"9 SHEPARD ST","New Haven","CT",""
14527,"13 SHEPARD ST","New Haven","CT",""
14528,"17 SHEPARD ST","New Haven","CT",""
14529,"21 SHEPARD ST","New Haven","CT",""
14530,"406 HUNTINGTON ST","New Haven","CT",""
14531,"402 HUNTINGTON ST","New Haven","CT",""
14532,"396 HUNTINGTON ST","New Haven","CT",""
14533,"392 HUNTINGTON ST","New Haven","CT",""
14534,"388 HUNTINGTON ST","New Haven","CT",""
14535,"384 HUNTINGTON ST","New Haven","CT",""
14536,"380 HUNTINGTON ST","New Haven","CT",""
14537,"374 HUNTINGTON ST","New Haven","CT",""
14538,"370 HUNTINGTON ST","New Haven","CT",""
14539,"364 HUNTINGTON ST","New Haven","CT",""
14540,"356 HUNTINGTON ST","New Haven","CT",""
14541,"770 WINCHESTER AV","New Haven","CT",""
14542,"766 WINCHESTER AV","New Haven","CT",""
14543,"760 WINCHESTER AV","New Haven","CT",""
14544,"754 WINCHESTER AV","New Haven","CT",""
14545,"748 WINCHESTER AV","New Haven","CT",""
14546,"742 WINCHESTER AV","New Haven","CT",""
14547,"738 WINCHESTER AV","New Haven","CT",""
14548,"17 BASSETT ST","New Haven","CT",""
14549,"19 BASSETT ST","New Haven","CT",""
14550,"23 BASSETT ST","New Haven","CT",""
14551,"25 BASSETT ST","New Haven","CT",""
14552,"27 BASSETT ST","New Haven","CT",""
14553,"29 BASSETT ST","New Haven","CT",""
14554,"35 BASSETT ST","New Haven","CT",""
14555,"37 BASSETT ST","New Haven","CT",""
14556,"39 BASSETT ST","New Haven","CT",""
14557,"43 BASSETT ST","New Haven","CT",""
14558,"45 BASSETT ST","New Haven","CT",""
14559,"49 BASSETT ST","New Haven","CT",""
14560,"281 NEWHALL ST","New Haven","CT",""
14561,"481 WINCHESTER AV","New Haven","CT",""
14562,"489 WINCHESTER AV","New Haven","CT",""
14563,"493 WINCHESTER AV","New Haven","CT",""
14564,"497 WINCHESTER AV","New Haven","CT",""
14565,"503 WINCHESTER AV","New Haven","CT",""
14566,"507 WINCHESTER AV","New Haven","CT",""
14567,"509 WINCHESTER AV","New Haven","CT",""
14568,"511 WINCHESTER AV","New Haven","CT",""
14569,"517 WINCHESTER AV","New Haven","CT",""
14570,"523 WINCHESTER AV","New Haven","CT",""
14571,"527 WINCHESTER AV","New Haven","CT",""
14572,"531 WINCHESTER AV","New Haven","CT",""
14573,"535 WINCHESTER AV","New Haven","CT",""
14574,"539 WINCHESTER AV","New Haven","CT",""
14575,NA,"New Haven","CT",""
14576,"551 WINCHESTER AV","New Haven","CT",""
14577,"555 WINCHESTER AV","New Haven","CT",""
14578,"108 STARR ST","New Haven","CT",""
14579,"106 STARR ST","New Haven","CT",""
14580,"84 SHEFFIELD AV","New Haven","CT",""
14581,"78 SHEFFIELD AV","New Haven","CT",""
14582,"72 SHEFFIELD AV","New Haven","CT",""
14583,"64 SHEFFIELD AV","New Haven","CT",""
14584,"58 SHEFFIELD AV","New Haven","CT",""
14585,"54 SHEFFIELD AV","New Haven","CT",""
14586,"46 SHEFFIELD AV","New Haven","CT",""
14587,"38 SHEFFIELD AV","New Haven","CT",""
14588,"32 SHEFFIELD AV","New Haven","CT",""
14589,"79 DIVISION ST","New Haven","CT",""
14590,"83 DIVISION ST","New Haven","CT",""
14591,"87 DIVISION ST","New Haven","CT",""
14592,"93 DIVISION ST","New Haven","CT",""
14593,"9 SHEFFIELD AV","New Haven","CT",""
14594,"15 SHEFFIELD AV","New Haven","CT",""
14595,"21 SHEFFIELD AV","New Haven","CT",""
14596,"25 SHEFFIELD AV","New Haven","CT",""
14597,"31 SHEFFIELD AV","New Haven","CT",""
14598,"35 SHEFFIELD AV","New Haven","CT",""
14599,"41 SHEFFIELD AV","New Haven","CT",""
14600,"45 SHEFFIELD AV","New Haven","CT",""
14601,"49 SHEFFIELD AV","New Haven","CT",""
14602,"55 SHEFFIELD AV","New Haven","CT",""
14603,"59 SHEFFIELD AV","New Haven","CT",""
14604,"63 SHEFFIELD AV","New Haven","CT",""
14605,"69 SHEFFIELD AV","New Haven","CT",""
14606,"73 SHEFFIELD AV","New Haven","CT",""
14607,"77 SHEFFIELD AV","New Haven","CT",""
14608,"83 SHEFFIELD AV","New Haven","CT",""
14609,"74 STARR ST","New Haven","CT",""
14610,"68 STARR ST","New Haven","CT",""
14611,"64 STARR ST","New Haven","CT",""
14612,"60 STARR ST","New Haven","CT",""
14613,"56 STARR ST","New Haven","CT",""
14614,"54 STARR ST","New Haven","CT",""
14615,"46 STARR ST","New Haven","CT",""
14616,"400 MANSFIELD ST","New Haven","CT",""
14617,NA,"New Haven","CT",""
14618,"43 DIVISION ST","New Haven","CT",""
14619,"51 DIVISION ST","New Haven","CT",""
14620,"67 DIVISION ST","New Haven","CT",""
14621,"565 WINCHESTER AV","New Haven","CT",""
14622,"WINCHESTER AV","New Haven","CT",""
14623,"575 WINCHESTER AV","New Haven","CT",""
14624,"579 WINCHESTER AV","New Haven","CT",""
14625,"585 WINCHESTER AV","New Haven","CT",""
14626,"589 WINCHESTER AV","New Haven","CT",""
14627,"593 WINCHESTER AV","New Haven","CT",""
14628,"597 WINCHESTER AV","New Haven","CT",""
14629,"605 WINCHESTER AV","New Haven","CT",""
14630,"609 WINCHESTER AV","New Haven","CT",""
14631,"615 WINCHESTER AV","New Haven","CT",""
14632,"619 WINCHESTER AV","New Haven","CT",""
14633,"623 WINCHESTER AV","New Haven","CT",""
14634,"629 WINCHESTER AV","New Haven","CT",""
14635,"633 WINCHESTER AV","New Haven","CT",""
14636,"WINCHESTER AV","New Haven","CT",""
14637,"637 WINCHESTER AV","New Haven","CT",""
14638,"647 WINCHESTER AV","New Haven","CT",""
14639,NA,"New Haven","CT",""
14640,"653 WINCHESTER AV","New Haven","CT",""
14641,"657 WINCHESTER AV","New Haven","CT",""
14642,"284 HIGHLAND ST","New Haven","CT",""
14643,"186 SHEFFIELD AV","New Haven","CT",""
14644,"182 SHEFFIELD AV","New Haven","CT",""
14645,"176 SHEFFIELD AV","New Haven","CT",""
14646,"172 SHEFFIELD AV","New Haven","CT",""
14647,"166 SHEFFIELD AV","New Haven","CT",""
14648,"162 SHEFFIELD AV","New Haven","CT",""
14649,"156 SHEFFIELD AV","New Haven","CT",""
14650,"152 SHEFFIELD AV","New Haven","CT",""
14651,"146 SHEFFIELD AV","New Haven","CT",""
14652,"142 SHEFFIELD AV","New Haven","CT",""
14653,"130 SHEFFIELD AV","New Haven","CT",""
14654,"126 SHEFFIELD AV","New Haven","CT",""
14655,"120 SHEFFIELD AV","New Haven","CT",""
14656,"116 SHEFFIELD AV","New Haven","CT",""
14657,"110 SHEFFIELD AV","New Haven","CT",""
14658,"106 SHEFFIELD AV","New Haven","CT",""
14659,"100 SHEFFIELD AV","New Haven","CT",""
14660,"94 SHEFFIELD AV","New Haven","CT",""
14661,"107 STARR ST","New Haven","CT",""
14662,"109 STARR ST","New Haven","CT",""
14663,"93 SHEFFIELD AV","New Haven","CT",""
14664,"97 SHEFFIELD AV","New Haven","CT",""
14665,"103 SHEFFIELD AV","New Haven","CT",""
14666,"107 SHEFFIELD AV","New Haven","CT",""
14667,"113 SHEFFIELD AV","New Haven","CT",""
14668,"117 SHEFFIELD AV","New Haven","CT",""
14669,"125 SHEFFIELD AV","New Haven","CT",""
14670,"141 SHEFFIELD AV","New Haven","CT",""
14671,"165 SHEFFIELD AV","New Haven","CT",""
14672,"266 HIGHLAND ST","New Haven","CT",""
14673,"262 HIGHLAND ST","New Haven","CT",""
14674,"258 HIGHLAND ST","New Haven","CT",""
14675,"72 SHELDON TER","New Haven","CT",""
14676,"68 SHELDON TER","New Haven","CT",""
14677,"62 SHELDON TER","New Haven","CT",""
14678,"58 SHELDON TER","New Haven","CT",""
14679,"50 SHELDON TER","New Haven","CT",""
14680,"46 SHELDON TER","New Haven","CT",""
14681,"42 SHELDON TER","New Haven","CT",""
14682,"38 SHELDON TER","New Haven","CT",""
14683,"32 SHELDON TER","New Haven","CT",""
14684,"24 SHELDON TER","New Haven","CT",""
14685,"12 SHELDON TER","New Haven","CT",""
14686,"8 SHELDON TER","New Haven","CT",""
14687,"4 SHELDON TER","New Haven","CT",""
14688,"73 STARR ST","New Haven","CT",""
14689,"395 WINCHESTER AV","New Haven","CT",""
14690,"320 MANSFIELD ST","New Haven","CT",""
14691,"275 WINCHESTER AV","New Haven","CT",""
14692,"375 WINCHESTER AV","New Haven","CT",""
14693,"WINCHESTER AV","New Haven","CT",""
14694,"300 MANSFIELD ST","New Haven","CT",""
14695,"50 DIVISION ST","New Haven","CT",""
14696,"DIVISION ST","New Haven","CT",""
14697,"DIVISION ST","New Haven","CT",""
14698,"CANAL ST","New Haven","CT",""
14699,"ASHMUN ST","New Haven","CT",""
14700,"206 CANAL ST","New Haven","CT",""
14701,"173 ASHMUN ST","New Haven","CT",""
14702,"ASHMUN ST","New Haven","CT",""
14703,"ASHMUN ST","New Haven","CT",""
14704,"237 ASHMUN ST","New Haven","CT",""
14705,"219 ASHMUN ST","New Haven","CT",""
14706,"150 MUNSON ST","New Haven","CT",""
14707,NA,"New Haven","CT",""
14708,"182 WINCHESTER AV","New Haven","CT",""
14709,"130 WINCHESTER AV #100","New Haven","CT",""
14710,"130 WINCHESTER AV #101","New Haven","CT",""
14711,"130 WINCHESTER AV #102","New Haven","CT",""
14712,"130 WINCHESTER AV #103","New Haven","CT",""
14713,"130 WINCHESTER AV #104","New Haven","CT",""
14714,"130 WINCHESTER AV #105","New Haven","CT",""
14715,"130 WINCHESTER AV #106","New Haven","CT",""
14716,"130 WINCHESTER AV #107","New Haven","CT",""
14717,"130 WINCHESTER AV #200","New Haven","CT",""
14718,"130 WINCHESTER AV #201","New Haven","CT",""
14719,"130 WINCHESTER AV #202","New Haven","CT",""
14720,"130 WINCHESTER AV #203","New Haven","CT",""
14721,"130 WINCHESTER AV #204","New Haven","CT",""
14722,"130 WINCHESTER AV #205","New Haven","CT",""
14723,"130 WINCHESTER AV #206","New Haven","CT",""
14724,"130 WINCHESTER AV #207","New Haven","CT",""
14725,"130 WINCHESTER AV #300","New Haven","CT",""
14726,"130 WINCHESTER AV #301","New Haven","CT",""
14727,"130 WINCHESTER AV #302","New Haven","CT",""
14728,"130 WINCHESTER AV #303","New Haven","CT",""
14729,"130 WINCHESTER AV #304","New Haven","CT",""
14730,"130 WINCHESTER AV #305","New Haven","CT",""
14731,"130 WINCHESTER AV #306","New Haven","CT",""
14732,"130 WINCHESTER AV #307","New Haven","CT",""
14733,"130 WINCHESTER AV #400","New Haven","CT",""
14734,"130 WINCHESTER AV #401","New Haven","CT",""
14735,"130 WINCHESTER AV #402","New Haven","CT",""
14736,"130 WINCHESTER AV #403","New Haven","CT",""
14737,"130 WINCHESTER AV #404","New Haven","CT",""
14738,"130 WINCHESTER AV #405","New Haven","CT",""
14739,"130 WINCHESTER AV #406","New Haven","CT",""
14740,"130 WINCHESTER AV #407","New Haven","CT",""
14741,"143 CANAL ST","New Haven","CT",""
14742,"154 MUNSON ST","New Haven","CT",""
14743,"195 CANAL ST","New Haven","CT",""
14744,"125 CANAL ST","New Haven","CT",""
14745,"220 MANSFIELD ST","New Haven","CT",""
14746,"216 MANSFIELD ST","New Haven","CT",""
14747,"212 MANSFIELD ST","New Haven","CT",""
14748,"198 MANSFIELD ST","New Haven","CT",""
14749,"196 MANSFIELD ST","New Haven","CT",""
14750,"192 MANSFIELD ST","New Haven","CT",""
14751,"188 MANSFIELD ST","New Haven","CT",""
14752,"184 MANSFIELD ST","New Haven","CT",""
14753,"182 MANSFIELD ST","New Haven","CT",""
14754,"15 TILTON ST","New Haven","CT",""
14755,"19 TILTON ST","New Haven","CT",""
14756,"23 TILTON ST","New Haven","CT",""
14757,"27 TILTON ST","New Haven","CT",""
14758,"31 TILTON ST","New Haven","CT",""
14759,"35 TILTON ST","New Haven","CT",""
14760,"39 TILTON ST","New Haven","CT",""
14761,"43 TILTON ST","New Haven","CT",""
14762,"215 WINCHESTER AV","New Haven","CT",""
14763,"225 WINCHESTER AV","New Haven","CT",""
14764,"235 WINCHESTER AV","New Haven","CT",""
14765,"241 WINCHESTER AV","New Haven","CT",""
14766,"122 MUNSON ST #1","New Haven","CT",""
14767,"122 MUNSON ST #2","New Haven","CT",""
14768,"122 MUNSON ST #3","New Haven","CT",""
14769,"122 MUNSON ST #4","New Haven","CT",""
14770,"124 MUNSON ST #5","New Haven","CT",""
14771,"124 MUNSON ST #6","New Haven","CT",""
14772,"124 MUNSON ST #7","New Haven","CT",""
14773,"124 MUNSON ST #8","New Haven","CT",""
14774,"124 MUNSON ST #9","New Haven","CT",""
14775,"124 MUNSON ST #10","New Haven","CT",""
14776,"265 WINCHESTER AV","New Haven","CT",""
14777,NA,"New Haven","CT",""
14778,"116 MUNSON ST","New Haven","CT",""
14779,"249 WINCHESTER AV","New Haven","CT",""
14780,"MUNSON ST","New Haven","CT",""
14781,"110 MUNSON ST","New Haven","CT",""
14782,"84 MUNSON ST","New Haven","CT",""
14783,"82 MUNSON ST","New Haven","CT",""
14784,"174 MANSFIELD ST","New Haven","CT",""
14785,"170 MANSFIELD ST","New Haven","CT",""
14786,"168 MANSFIELD ST","New Haven","CT",""
14787,"164 MANSFIELD ST","New Haven","CT",""
14788,"158 MANSFIELD ST","New Haven","CT",""
14789,"152 MANSFIELD ST","New Haven","CT",""
14790,"15 WOODLAND ST","New Haven","CT",""
14791,"19 WOODLAND ST","New Haven","CT",""
14792,"23 WOODLAND ST","New Haven","CT",""
14793,"31 WOODLAND ST","New Haven","CT",""
14794,"37 WOODLAND ST","New Haven","CT",""
14795,"41 WOODLAND ST","New Haven","CT",""
14796,"43 WOODLAND ST","New Haven","CT",""
14797,"169 WINCHESTER AV","New Haven","CT",""
14798,NA,"New Haven","CT",""
14799,"181 WINCHESTER AV","New Haven","CT",""
14800,"185 WINCHESTER AV","New Haven","CT",""
14801,"191 WINCHESTER AV","New Haven","CT",""
14802,"201 WINCHESTER AV","New Haven","CT",""
14803,"46 TILTON ST","New Haven","CT",""
14804,"38 TILTON ST","New Haven","CT",""
14805,"34 TILTON ST","New Haven","CT",""
14806,"30 TILTON ST","New Haven","CT",""
14807,"26 TILTON ST","New Haven","CT",""
14808,"22 TILTON ST","New Haven","CT",""
14809,"20 TILTON ST","New Haven","CT",""
14810,"16 TILTON ST","New Haven","CT",""
14811,"94 CANAL ST","New Haven","CT",""
14812,"90 CANAL ST","New Haven","CT",""
14813,"88 CANAL ST","New Haven","CT",""
14814,"82 CANAL ST","New Haven","CT",""
14815,"80 CANAL ST","New Haven","CT",""
14816,"78 CANAL ST","New Haven","CT",""
14817,"74 CANAL ST","New Haven","CT",""
14818,"70 CANAL ST","New Haven","CT",""
14819,"68 CANAL ST","New Haven","CT",""
14820,"64 CANAL ST","New Haven","CT",""
14821,"60 CANAL ST","New Haven","CT",""
14822,"9 BRISTOL ST","New Haven","CT",""
14823,"11 BRISTOL ST","New Haven","CT",""
14824,"15 BRISTOL ST","New Haven","CT",""
14825,"19 BRISTOL ST","New Haven","CT",""
14826,"21 BRISTOL ST","New Haven","CT",""
14827,"27 BRISTOL ST","New Haven","CT",""
14828,"121 ASHMUN ST","New Haven","CT",""
14829,"129 ASHMUN ST","New Haven","CT",""
14830,"133 ASHMUN ST","New Haven","CT",""
14831,"139 ASHMUN ST","New Haven","CT",""
14832,"145 ASHMUN ST","New Haven","CT",""
14833,"ASHMUN ST","New Haven","CT",""
14834,"147 ASHMUN ST","New Haven","CT",""
14835,"ASHMUN ST","New Haven","CT",""
14836,"157 ASHMUN ST","New Haven","CT",""
14837,NA,"New Haven","CT",""
14838,NA,"New Haven","CT",""
14839,NA,"New Haven","CT",""
14840,NA,"New Haven","CT",""
14841,NA,"New Haven","CT",""
14842,NA,"New Haven","CT",""
14843,NA,"New Haven","CT",""
14844,NA,"New Haven","CT",""
14845,NA,"New Haven","CT",""
14846,NA,"New Haven","CT",""
14847,NA,"New Haven","CT",""
14848,NA,"New Haven","CT",""
14849,NA,"New Haven","CT",""
14850,NA,"New Haven","CT",""
14851,NA,"New Haven","CT",""
14852,NA,"New Haven","CT",""
14853,NA,"New Haven","CT",""
14854,NA,"New Haven","CT",""
14855,NA,"New Haven","CT",""
14856,"101 ASHMUN ST","New Haven","CT",""
14857,NA,"New Haven","CT",""
14858,NA,"New Haven","CT",""
14859,"86 WINCHESTER AV","New Haven","CT",""
14860,"2 WEBSTER ST","New Haven","CT",""
14861,NA,"New Haven","CT",""
14862,"76 WINCHESTER AV","New Haven","CT",""
14863,"70 WINCHESTER AV","New Haven","CT",""
14864,"62 WINCHESTER AV","New Haven","CT",""
14865,"56 WINCHESTER AV","New Haven","CT",""
14866,"52 WINCHESTER AV","New Haven","CT",""
14867,"44 WINCHESTER AV","New Haven","CT",""
14868,"40 WINCHESTER AV","New Haven","CT",""
14869,"30 WINCHESTER AV #1","New Haven","CT",""
14870,"30 WINCHESTER AV #2","New Haven","CT",""
14871,"30 WINCHESTER AV #3","New Haven","CT",""
14872,"30 WINCHESTER AV #4","New Haven","CT",""
14873,"30 WINCHESTER AV #5","New Haven","CT",""
14874,"36 WINCHESTER AV #6","New Haven","CT",""
14875,"36 WINCHESTER AV #7","New Haven","CT",""
14876,"36 WINCHESTER AV #8","New Haven","CT",""
14877,"36 WINCHESTER AV #9","New Haven","CT",""
14878,"36 WINCHESTER AV #10","New Haven","CT",""
14879,"20 WINCHESTER AV","New Haven","CT",""
14880,"16 WINCHESTER AV","New Haven","CT",""
14881,"105 SACHEM ST","New Haven","CT",""
14882,"106 MANSFIELD ST","New Haven","CT",""
14883,"102 MANSFIELD ST","New Haven","CT",""
14884,"100 MANSFIELD ST","New Haven","CT",""
14885,"96 MANSFIELD ST","New Haven","CT",""
14886,"92 MANSFIELD ST","New Haven","CT",""
14887,"84 MANSFIELD ST","New Haven","CT",""
14888,"82 MANSFIELD ST","New Haven","CT",""
14889,"76 MANSFIELD ST","New Haven","CT",""
14890,"72 MANSFIELD ST","New Haven","CT",""
14891,"68 MANSFIELD ST","New Haven","CT",""
14892,"58 MANSFIELD ST","New Haven","CT",""
14893,"56 MANSFIELD ST","New Haven","CT",""
14894,"46 MANSFIELD ST","New Haven","CT",""
14895,"42 MANSFIELD ST","New Haven","CT",""
14896,"83 SACHEM ST","New Haven","CT",""
14897,"15 WINCHESTER AV","New Haven","CT",""
14898,"21 WINCHESTER AV","New Haven","CT",""
14899,"29 WINCHESTER AV","New Haven","CT",""
14900,"35 WINCHESTER AV","New Haven","CT",""
14901,"39 WINCHESTER AV","New Haven","CT",""
14902,"45 WINCHESTER AV","New Haven","CT",""
14903,"49 WINCHESTER AV","New Haven","CT",""
14904,"53 WINCHESTER AV","New Haven","CT",""
14905,"57 WINCHESTER AV","New Haven","CT",""
14906,"63 WINCHESTER AV","New Haven","CT",""
14907,"67 WINCHESTER AV","New Haven","CT",""
14908,"71 WINCHESTER AV","New Haven","CT",""
14909,"77 WINCHESTER AV","New Haven","CT",""
14910,"79 WINCHESTER AV","New Haven","CT",""
14911,"85 WINCHESTER AV","New Haven","CT",""
14912,"28 COMPTON ST","New Haven","CT",""
14913,"26 COMPTON ST","New Haven","CT",""
14914,"18 COMPTON ST","New Haven","CT",""
14915,"14 COMPTON ST","New Haven","CT",""
14916,NA,"New Haven","CT",""
14917,NA,"New Haven","CT",""
14918,NA,"New Haven","CT",""
14919,NA,"New Haven","CT",""
14920,"70 SACHEM ST","New Haven","CT",""
14921,"50 TOWER PKWY","New Haven","CT",""
14922,"400 YORK ST","New Haven","CT",""
14923,"227 GROVE ST","New Haven","CT",""
14924,NA,"New Haven","CT",""
14925,NA,"New Haven","CT",""
14926,NA,"New Haven","CT",""
14927,NA,"New Haven","CT",""
14928,NA,"New Haven","CT",""
14929,NA,"New Haven","CT",""
14930,NA,"New Haven","CT",""
14931,NA,"New Haven","CT",""
14932,NA,"New Haven","CT",""
14933,"YORK ST","New Haven","CT",""
14934,"120 HIGH ST","New Haven","CT",""
14935,"209 ELM ST","New Haven","CT",""
14936,"121 HIGH ST","New Haven","CT",""
14937,"110 WALL ST","New Haven","CT",""
14938,"470 COLLEGE ST","New Haven","CT",""
14939,"189 ELM ST","New Haven","CT",""
14940,"115 HIGH ST","New Haven","CT",""
14941,"HIGH ST","New Haven","CT",""
14942,"9 TOWER PKWY","New Haven","CT",""
14943,"YORK ST","New Haven","CT",""
14944,"320 YORK ST","New Haven","CT",""
14945,"306 YORK ST","New Haven","CT",""
14946,"302 YORK ST","New Haven","CT",""
14947,"294 YORK ST","New Haven","CT",""
14948,"290 YORK ST","New Haven","CT",""
14949,"282 YORK ST","New Haven","CT",""
14950,NA,"New Haven","CT",""
14951,"1 BROADWAY","New Haven","CT",""
14952,"15 BROADWAY","New Haven","CT",""
14953,"21 BROADWAY","New Haven","CT",""
14954,"23 BROADWAY","New Haven","CT",""
14955,"29 BROADWAY","New Haven","CT",""
14956,"51 BROADWAY","New Haven","CT",""
14957,"57 BROADWAY","New Haven","CT",""
14958,"65 BROADWAY","New Haven","CT",""
14959,"77 BROADWAY","New Haven","CT",""
14960,"140 HIGH ST","New Haven","CT",""
14961,"145 HIGH ST","New Haven","CT",""
14962,"500 COLLEGE ST","New Haven","CT",""
14963,"COLLEGE ST","New Haven","CT",""
14964,"484 COLLEGE ST","New Haven","CT",""
14965,"109 WALL ST","New Haven","CT",""
14966,"121 WALL ST","New Haven","CT",""
14967,"313 CROWN ST","New Haven","CT",""
14968,"139 YORK ST","New Haven","CT",""
14969,"149 YORK ST","New Haven","CT",""
14970,"1074 CHAPEL ST","New Haven","CT",""
14971,"1074 CHAPEL ST","New Haven","CT",""
14972,"1074 CHAPEL ST","New Haven","CT",""
14973,"1120 CHAPEL ST","New Haven","CT",""
14974,"38 HIGH ST","New Haven","CT",""
14975,"36 HIGH ST","New Haven","CT",""
14976,"32 HIGH ST","New Haven","CT",""
14977,"28 HIGH ST","New Haven","CT",""
14978,"26 HIGH ST","New Haven","CT",""
14979,"24 HIGH ST","New Haven","CT",""
14980,"295 CROWN ST","New Haven","CT",""
14981,"301 CROWN ST","New Haven","CT",""
14982,"307 CROWN ST","New Haven","CT",""
14983,"283 CROWN ST","New Haven","CT",""
14984,"27 HIGH ST","New Haven","CT",""
14985,"31 HIGH ST","New Haven","CT",""
14986,"35 HIGH ST","New Haven","CT",""
14987,"37 HIGH ST","New Haven","CT",""
14988,"1048 CHAPEL ST","New Haven","CT",""
14989,"41 HIGH ST","New Haven","CT",""
14990,"1066 CHAPEL ST","New Haven","CT",""
14991,"1042 CHAPEL ST","New Haven","CT",""
14992,"1032 CHAPEL ST","New Haven","CT",""
14993,"1032 CHAPEL ST","New Haven","CT",""
14994,"1022 CHAPEL ST","New Haven","CT",""
14995,"1016 CHAPEL ST","New Haven","CT",""
14996,"1002 CHAPEL ST","New Haven","CT",""
14997,"268 COLLEGE ST","New Haven","CT",""
14998,"266 COLLEGE ST","New Haven","CT",""
14999,NA,"New Haven","CT",""
15000,"COLLEGE ST","New Haven","CT",""
