"pid","location","city","state","zip"
26001,"30 DAVIS ST","New Haven","CT",""
26002,"26 DAVIS ST","New Haven","CT",""
26003,"18 DAVIS ST","New Haven","CT",""
26004,"14 DAVIS ST","New Haven","CT",""
26005,"441 FOUNTAIN ST","New Haven","CT",""
26006,"447 FOUNTAIN ST","New Haven","CT",""
26007,"455 FOUNTAIN ST","New Haven","CT",""
26008,"463 FOUNTAIN ST","New Haven","CT",""
26009,"408 VALLEY ST","New Haven","CT",""
26010,"18 RAMSDELL PL","New Haven","CT",""
26011,"24 RAMSDELL PL","New Haven","CT",""
26012,"126 PARKSIDE DR","New Haven","CT",""
26013,"124 PARKSIDE DR","New Haven","CT",""
26014,"PARKSIDE DR","New Haven","CT",""
26015,"PARKSIDE DR","New Haven","CT",""
26016,"116 PARKSIDE DR","New Haven","CT",""
26017,"PARKSIDE DR","New Haven","CT",""
26018,"110 PARKSIDE DR","New Haven","CT",""
26019,"PARKSIDE DR","New Haven","CT",""
26020,"102 PARKSIDE DR","New Haven","CT",""
26021,"PARKSIDE DR","New Haven","CT",""
26022,"94 PARKSIDE DR","New Haven","CT",""
26023,"PARKSIDE DR","New Haven","CT",""
26024,"88 PARKSIDE DR","New Haven","CT",""
26025,"PARKSIDE DR","New Haven","CT",""
26026,"80 PARKSIDE DR","New Haven","CT",""
26027,"PARKSIDE DR","New Haven","CT",""
26028,"72 PARKSIDE DR","New Haven","CT",""
26029,"PARKSIDE DR","New Haven","CT",""
26030,"64 PARKSIDE DR","New Haven","CT",""
26031,"PARKSIDE DR","New Haven","CT",""
26032,"58 PARKSIDE DR","New Haven","CT",""
26033,"PARKSIDE DR","New Haven","CT",""
26034,"52 PARKSIDE DR","New Haven","CT",""
26035,"PARKSIDE DR","New Haven","CT",""
26036,"PARKSIDE DR","New Haven","CT",""
26037,"46 PARKSIDE DR","New Haven","CT",""
26038,"40 PARKSIDE DR","New Haven","CT",""
26039,"34 PARKSIDE DR","New Haven","CT",""
26040,"30 PARKSIDE DR","New Haven","CT",""
26041,"PARKSIDE DR","New Haven","CT",""
26042,"22 PARKSIDE DR","New Haven","CT",""
26043,"PARKSIDE DR","New Haven","CT",""
26044,"12 PARKSIDE DR","New Haven","CT",""
26045,"PARKSIDE DR","New Haven","CT",""
26046,"6 PARKSIDE DR","New Haven","CT",""
26047,"PARKSIDE DR","New Haven","CT",""
26048,"1279 WHALLEY AV","New Haven","CT",""
26049,"WHALLEY AV","New Haven","CT",""
26050,"1289 WHALLEY AV","New Haven","CT",""
26051,"WHALLEY AV","New Haven","CT",""
26052,"1297 WHALLEY AV","New Haven","CT",""
26053,"WHALLEY AV","New Haven","CT",""
26054,"1307 WHALLEY AV","New Haven","CT",""
26055,"WHALLEY AV","New Haven","CT",""
26056,"1313 WHALLEY AV","New Haven","CT",""
26057,"WHALLEY AV","New Haven","CT",""
26058,"1321 WHALLEY AV","New Haven","CT",""
26059,"WHALLEY AV","New Haven","CT",""
26060,"1325 WHALLEY AV","New Haven","CT",""
26061,"1351 WHALLEY AV","New Haven","CT",""
26062,"WHALLEY AV","New Haven","CT",""
26063,"EAST RAMSDELL ST","New Haven","CT",""
26064,"EAST RAMSDELL ST","New Haven","CT",""
26065,"53 EAST RAMSDELL ST","New Haven","CT",""
26066,"57 EAST RAMSDELL ST","New Haven","CT",""
26067,"19 RAMSDELL PL","New Haven","CT",""
26068,"RAMSDELL PL","New Haven","CT",""
26069,"394 VALLEY ST","New Haven","CT",""
26070,"386 VALLEY ST","New Haven","CT",""
26071,"380 VALLEY ST","New Haven","CT",""
26072,"376 VALLEY ST","New Haven","CT",""
26073,"370 VALLEY ST","New Haven","CT",""
26074,"364 VALLEY ST","New Haven","CT",""
26075,"360 VALLEY ST","New Haven","CT",""
26076,"354 VALLEY ST","New Haven","CT",""
26077,"348 VALLEY ST","New Haven","CT",""
26078,"342 VALLEY ST","New Haven","CT",""
26079,"336 VALLEY ST","New Haven","CT",""
26080,"330 VALLEY ST","New Haven","CT",""
26081,"39 PARKSIDE DR","New Haven","CT",""
26082,"49 PARKSIDE DR","New Haven","CT",""
26083,"59 PARKSIDE DR","New Haven","CT",""
26084,"65 PARKSIDE DR","New Haven","CT",""
26085,"75 PARKSIDE DR","New Haven","CT",""
26086,"79 PARKSIDE DR","New Haven","CT",""
26087,"89 PARKSIDE DR","New Haven","CT",""
26088,"95 PARKSIDE DR","New Haven","CT",""
26089,"103 PARKSIDE DR","New Haven","CT",""
26090,"111 PARKSIDE DR","New Haven","CT",""
26091,"117 PARKSIDE DR","New Haven","CT",""
26092,"2 SO GENESEE ST","New Haven","CT",""
26093,"54 EAST RAMSDELL ST","New Haven","CT",""
26094,"EAST RAMSDELL ST","New Haven","CT",""
26095,"42 EAST RAMSDELL ST","New Haven","CT",""
26096,"1375 WHALLEY AV","New Haven","CT",""
26097,"EAST RAMSDELL ST","New Haven","CT",""
26098,"1379 WHALLEY AV","New Haven","CT",""
26099,"1475 WHALLEY AV","New Haven","CT",""
26100,"1595 WHALLEY AV","New Haven","CT",""
26101,"44 EAST RAMSDELL ST","New Haven","CT",""
26102,"WHALLEY AV","New Haven","CT",""
26103,"436 VALLEY ST","New Haven","CT",""
26104,"59 VICTORY DR","New Haven","CT",""
26105,"57 VICTORY DR","New Haven","CT",""
26106,"55 VICTORY DR","New Haven","CT",""
26107,"53 VICTORY DR","New Haven","CT",""
26108,"51 VICTORY DR","New Haven","CT",""
26109,"49 VICTORY DR","New Haven","CT",""
26110,"47 VICTORY DR","New Haven","CT",""
26111,"45 VICTORY DR","New Haven","CT",""
26112,"43 VICTORY DR","New Haven","CT",""
26113,"41 VICTORY DR","New Haven","CT",""
26114,"37 VICTORY DR","New Haven","CT",""
26115,"33 VICTORY DR","New Haven","CT",""
26116,"29 VICTORY DR","New Haven","CT",""
26117,"25 VICTORY DR","New Haven","CT",""
26118,"21 VICTORY DR","New Haven","CT",""
26119,"17 VICTORY DR","New Haven","CT",""
26120,"13 VICTORY DR","New Haven","CT",""
26121,"9 VICTORY DR","New Haven","CT",""
26122,"5 VICTORY DR","New Haven","CT",""
26123,"1 VICTORY DR","New Haven","CT",""
26124,"417 VALLEY ST","New Haven","CT",""
26125,"413 VALLEY ST","New Haven","CT",""
26126,"425 VALLEY ST","New Haven","CT",""
26127,"435 VALLEY ST","New Haven","CT",""
26128,"443 VALLEY ST","New Haven","CT",""
26129,"451 VALLEY ST","New Haven","CT",""
26130,"457 VALLEY ST","New Haven","CT",""
26131,"461 VALLEY ST","New Haven","CT",""
26132,"467 VALLEY ST","New Haven","CT",""
26133,"475 VALLEY ST","New Haven","CT",""
26134,"481 VALLEY ST","New Haven","CT",""
26135,"485 VALLEY ST","New Haven","CT",""
26136,"491 VALLEY ST","New Haven","CT",""
26137,"497 VALLEY ST","New Haven","CT",""
26138,"505 VALLEY ST","New Haven","CT",""
26139,"511 VALLEY ST","New Haven","CT",""
26140,"517 VALLEY ST","New Haven","CT",""
26141,"523 VALLEY ST","New Haven","CT",""
26142,"529 VALLEY ST","New Haven","CT",""
26143,"535 VALLEY ST","New Haven","CT",""
26144,"549 VALLEY ST","New Haven","CT",""
26145,"35 MOUNTAIN RD","New Haven","CT",""
26146,"1 HILLTOP RD","New Haven","CT",""
26147,"2 HILLTOP RD","New Haven","CT",""
26148,"3 HILLTOP RD","New Haven","CT",""
26149,"4 HILLTOP RD","New Haven","CT",""
26150,"6 HILLTOP RD","New Haven","CT",""
26151,"8 HILLTOP RD","New Haven","CT",""
26152,"10 HILLTOP RD","New Haven","CT",""
26153,"12 HILLTOP RD","New Haven","CT",""
26154,"14 HILLTOP RD","New Haven","CT",""
26155,"16 HILLTOP RD","New Haven","CT",""
26156,"18 HILLTOP RD","New Haven","CT",""
26157,"19 HILLTOP RD","New Haven","CT",""
26158,"24 VICTORY DR","New Haven","CT",""
26159,"28 VICTORY DR","New Haven","CT",""
26160,"32 VICTORY DR","New Haven","CT",""
26161,"36 VICTORY DR","New Haven","CT",""
26162,"38 VICTORY DR","New Haven","CT",""
26163,"40 VICTORY DR","New Haven","CT",""
26164,"44 VICTORY DR","New Haven","CT",""
26165,"48 VICTORY DR","New Haven","CT",""
26166,"50 VICTORY DR","New Haven","CT",""
26167,"52 VICTORY DR","New Haven","CT",""
26168,"56 VICTORY DR","New Haven","CT",""
26169,"60 VICTORY DR","New Haven","CT",""
26170,"77 MOUNTAIN RD","New Haven","CT",""
26171,"89 MOUNTAIN RD","New Haven","CT",""
26172,"97 ROCK CREEK RD","New Haven","CT",""
26173,"101 ROCK CREEK RD","New Haven","CT",""
26174,"103 ROCK CREEK RD","New Haven","CT",""
26175,"105 ROCK CREEK RD","New Haven","CT",""
26176,"107 ROCK CREEK RD","New Haven","CT",""
26177,"111 ROCK CREEK RD","New Haven","CT",""
26178,"115 ROCK CREEK RD","New Haven","CT",""
26179,"117 ROCK CREEK RD","New Haven","CT",""
26180,"119 ROCK CREEK RD","New Haven","CT",""
26181,"127 ROCK CREEK RD","New Haven","CT",""
26182,"131 ROCK CREEK RD","New Haven","CT",""
26183,"133 ROCK CREEK RD","New Haven","CT",""
26184,"135 ROCK CREEK RD","New Haven","CT",""
26185,"137 ROCK CREEK RD","New Haven","CT",""
26186,"10 VICTORY DR","New Haven","CT",""
26187,"12 VICTORY DR","New Haven","CT",""
26188,"14 VICTORY DR","New Haven","CT",""
26189,"16 VICTORY DR","New Haven","CT",""
26190,"20 VICTORY DR","New Haven","CT",""
26191,"VICTORY DR","New Haven","CT",""
26192,"22 VICTORY DR","New Haven","CT",""
26193,"HILLTOP RD","New Haven","CT",""
26194,"PARK DR","New Haven","CT",""
26195,"20 HILLTOP RD","New Haven","CT",""
26196,"22 HILLTOP RD","New Haven","CT",""
26197,"23 HILLTOP RD","New Haven","CT",""
26198,"24 HILLTOP RD","New Haven","CT",""
26199,"26 HILLTOP RD","New Haven","CT",""
26200,"28 HILLTOP RD","New Haven","CT",""
26201,"30 HILLTOP RD","New Haven","CT",""
26202,"32 HILLTOP RD","New Haven","CT",""
26203,"34 HILLTOP RD","New Haven","CT",""
26204,"36 HILLTOP RD","New Haven","CT",""
26205,"38 HILLTOP RD","New Haven","CT",""
26206,"40 HILLTOP RD","New Haven","CT",""
26207,"42 HILLTOP RD","New Haven","CT",""
26208,"44 HILLTOP RD","New Haven","CT",""
26209,"46 HILLTOP RD","New Haven","CT",""
26210,"48 HILLTOP RD","New Haven","CT",""
26211,"49 HILLTOP RD","New Haven","CT",""
26212,"51 HILLTOP RD","New Haven","CT",""
26213,"52 HILLTOP RD","New Haven","CT",""
26214,"54 HILLTOP RD","New Haven","CT",""
26215,"56 HILLTOP RD","New Haven","CT",""
26216,"58 HILLTOP RD","New Haven","CT",""
26217,"141 MOUNTAIN RD","New Haven","CT",""
26218,"155 MOUNTAIN RD","New Haven","CT",""
26219,"167 MOUNTAIN RD","New Haven","CT",""
26220,"181 MOUNTAIN RD","New Haven","CT",""
26221,"140 POND LILY AV","New Haven","CT",""
26222,"100 POND LILY AV","New Haven","CT",""
26223,"633 VALLEY ST","New Haven","CT",""
26224,"95 POND LILY AV","New Haven","CT",""
26225,"99 POND LILY AV","New Haven","CT",""
26226,"105 POND LILY AV","New Haven","CT",""
26227,"111 POND LILY AV","New Haven","CT",""
26228,"121 POND LILY AV","New Haven","CT",""
26229,"127 POND LILY AV","New Haven","CT",""
26230,"133 POND LILY AV","New Haven","CT",""
26231,"139 POND LILY AV","New Haven","CT",""
26232,"147 POND LILY AV","New Haven","CT",""
26233,"153 POND LILY AV","New Haven","CT",""
26234,"161 POND LILY AV","New Haven","CT",""
26235,"167 POND LILY AV","New Haven","CT",""
26236,"169 POND LILY AV","New Haven","CT",""
26237,NA,"New Haven","CT",""
26238,"88 TAYLOR AV","New Haven","CT",""
26239,NA,"New Haven","CT",""
26240,"82 TAYLOR AV","New Haven","CT",""
26241,"76 TAYLOR AV","New Haven","CT",""
26242,"70 TAYLOR AV","New Haven","CT",""
26243,"64 TAYLOR AV","New Haven","CT",""
26244,"58 TAYLOR AV","New Haven","CT",""
26245,"52 TAYLOR AV","New Haven","CT",""
26246,"46 TAYLOR AV","New Haven","CT",""
26247,NA,"New Haven","CT",""
26248,"38 TAYLOR AV","New Haven","CT",""
26249,"30 TAYLOR AV","New Haven","CT",""
26250,"20 TAYLOR AV","New Haven","CT",""
26251,"14 TAYLOR AV","New Haven","CT",""
26252,"613 VALLEY ST","New Haven","CT",""
26253,"617 VALLEY ST","New Haven","CT",""
26254,"605 VALLEY ST","New Haven","CT",""
26255,"15 TAYLOR AV","New Haven","CT",""
26256,"19 TAYLOR AV","New Haven","CT",""
26257,"37 TAYLOR AV","New Haven","CT",""
26258,"43 TAYLOR AV","New Haven","CT",""
26259,"51 TAYLOR AV","New Haven","CT",""
26260,"57 TAYLOR AV","New Haven","CT",""
26261,"59 TAYLOR AV","New Haven","CT",""
26262,"71 TAYLOR AV","New Haven","CT",""
26263,"TAYLOR AV","New Haven","CT",""
26264,"TAYLOR AV","New Haven","CT",""
26265,"91 TAYLOR AV","New Haven","CT",""
26266,"190 HARPER AV","New Haven","CT",""
26267,"184 HARPER AV","New Haven","CT",""
26268,"180 HARPER AV","New Haven","CT",""
26269,"174 HARPER AV","New Haven","CT",""
26270,"170 HARPER AV","New Haven","CT",""
26271,"164 HARPER AV","New Haven","CT",""
26272,"160 HARPER AV","New Haven","CT",""
26273,"148 HARPER AV","New Haven","CT",""
26274,"142 HARPER AV","New Haven","CT",""
26275,"136 HARPER AV","New Haven","CT",""
26276,"130 HARPER AV","New Haven","CT",""
26277,"126 HARPER AV","New Haven","CT",""
26278,"120 HARPER AV","New Haven","CT",""
26279,"110 HARPER AV","New Haven","CT",""
26280,"589 VALLEY ST","New Haven","CT",""
26281,"593 VALLEY ST","New Haven","CT",""
26282,"99 HARPER AV","New Haven","CT",""
26283,"107 HARPER AV","New Haven","CT",""
26284,"HARPER AV","New Haven","CT",""
26285,"125 HARPER AV","New Haven","CT",""
26286,"133 HARPER AV","New Haven","CT",""
26287,"145 HARPER AV","New Haven","CT",""
26288,"149 HARPER AV","New Haven","CT",""
26289,"155 HARPER AV","New Haven","CT",""
26290,"161 HARPER AV","New Haven","CT",""
26291,"165 HARPER AV","New Haven","CT",""
26292,"171 HARPER AV","New Haven","CT",""
26293,"177 HARPER AV","New Haven","CT",""
26294,"183 HARPER AV","New Haven","CT",""
26295,"189 HARPER AV","New Haven","CT",""
26296,"170 MOUNTAIN RD","New Haven","CT",""
26297,"MOUNTAIN RD","New Haven","CT",""
26298,"80 MOUNTAIN RD","New Haven","CT",""
26299,"68 MOUNTAIN RD","New Haven","CT",""
26300,"54 MOUNTAIN RD","New Haven","CT",""
26301,"44 MOUNTAIN RD","New Haven","CT",""
26302,"34 MOUNTAIN RD","New Haven","CT",""
26303,"10 MOUNTAIN RD","New Haven","CT",""
26304,"567 VALLEY ST","New Haven","CT",""
26305,"BANK ST","New Haven","CT",""
26306,"WHALLEY AV","New Haven","CT",""
26307,"1605 WHALLEY AV","New Haven","CT",""
26308,"15 POND LILY AV","New Haven","CT",""
26309,"21 POND LILY AV","New Haven","CT",""
26310,"27 POND LILY AV","New Haven","CT",""
26311,"BANK ST","New Haven","CT",""
26312,"70 POND LILY AV","New Haven","CT",""
26313,"70 POND LILY AV #REAR","New Haven","CT",""
26314,"WHALLEY AV","New Haven","CT",""
26315,"49 POND LILY AV","New Haven","CT",""
26316,"120 GENESEE ST","New Haven","CT",""
26317,"112 GENESEE ST","New Haven","CT",""
26318,"108 GENESEE ST","New Haven","CT",""
26319,"98 GENESEE ST","New Haven","CT",""
26320,"GENESEE ST","New Haven","CT",""
26321,"56 HARPER AV","New Haven","CT",""
26322,"50 HARPER AV","New Haven","CT",""
26323,"24 BANK ST","New Haven","CT",""
26324,"45 POND LILY AV","New Haven","CT",""
26325,"61 POND LILY AV","New Haven","CT",""
26326,NA,"New Haven","CT",""
26327,"616 VALLEY ST","New Haven","CT",""
26328,"612 VALLEY ST","New Haven","CT",""
26329,"608 VALLEY ST","New Haven","CT",""
26330,"90 HARPER AV","New Haven","CT",""
26331,"99 GENESEE ST","New Haven","CT",""
26332,"GENESEE ST","New Haven","CT",""
26333,"111 GENESEE ST","New Haven","CT",""
26334,"115 GENESEE ST","New Haven","CT",""
26335,NA,"New Haven","CT",""
26336,"1570 WHALLEY AV","New Haven","CT",""
26337,NA,"New Haven","CT",""
26338,NA,"New Haven","CT",""
26339,"1560 WHALLEY AV","New Haven","CT",""
26340,"75 AMITY RD","New Haven","CT",""
26341,"109 AMITY RD","New Haven","CT",""
26342,"75 AMITY RD","New Haven","CT",""
26343,"1536 WHALLEY AV","New Haven","CT",""
26344,"1522 WHALLEY AV","New Haven","CT",""
26345,"1516 WHALLEY AV","New Haven","CT",""
26346,"1500 WHALLEY AV","New Haven","CT",""
26347,NA,"New Haven","CT",""
26348,"51 AMITY RD","New Haven","CT",""
26349,"1474 WHALLEY AV","New Haven","CT",""
26350,NA,"New Haven","CT",""
26351,"61 AMITY RD","New Haven","CT",""
26352,"63 AMITY RD","New Haven","CT",""
26353,"149 AMITY RD","New Haven","CT",""
26354,"129 AMITY RD","New Haven","CT",""
26355,"160 AMITY RD","New Haven","CT",""
26356,"130 AMITY RD","New Haven","CT",""
26357,"AMITY RD","New Haven","CT",""
26358,"92 AMITY RD","New Haven","CT",""
26359,"AMITY RD","New Haven","CT",""
26360,"96 AMITY RD","New Haven","CT",""
26361,"94 AMITY RD","New Haven","CT",""
26362,"120 SENECA RD","New Haven","CT",""
26363,"130 SENECA RD","New Haven","CT",""
26364,"134 SENECA RD","New Haven","CT",""
26365,"8 FOWLER ST","New Haven","CT",""
26366,"18 FOWLER ST","New Haven","CT",""
26367,"22 FOWLER ST","New Haven","CT",""
26368,"26 FOWLER ST","New Haven","CT",""
26369,"30 FOWLER ST","New Haven","CT",""
26370,"36 FOWLER ST","New Haven","CT",""
26371,"42 FOWLER ST","New Haven","CT",""
26372,"50 FOWLER ST","New Haven","CT",""
26373,"73 FOWLER ST #1R","New Haven","CT",""
26374,"73 FOWLER ST #1L","New Haven","CT",""
26375,"73 FOWLER ST #2R","New Haven","CT",""
26376,"73 FOWLER ST #2L","New Haven","CT",""
26377,"77 FOWLER ST #1R","New Haven","CT",""
26378,"77 FOWLER ST #1L","New Haven","CT",""
26379,"77 FOWLER ST #2R","New Haven","CT",""
26380,"77 FOWLER ST #2L","New Haven","CT",""
26381,"81 FOWLER ST #1R","New Haven","CT",""
26382,"81 FOWLER ST #1L","New Haven","CT",""
26383,"81 FOWLER ST #2R","New Haven","CT",""
26384,"81 FOWLER ST #2L","New Haven","CT",""
26385,"87 FOWLER ST #1R","New Haven","CT",""
26386,"87 FOWLER ST #1L","New Haven","CT",""
26387,"87 FOWLER ST #2R","New Haven","CT",""
26388,"87 FOWLER ST #2L","New Haven","CT",""
26389,"93 FOWLER ST #1R","New Haven","CT",""
26390,"93 FOWLER ST #1L","New Haven","CT",""
26391,"93 FOWLER ST #2R","New Haven","CT",""
26392,"93 FOWLER ST #2L","New Haven","CT",""
26393,"111 FREDERICK ST #1R","New Haven","CT",""
26394,"111 FREDERICK ST #1L","New Haven","CT",""
26395,"111 FREDERICK ST #2R","New Haven","CT",""
26396,"111 FREDERICK ST #2L","New Haven","CT",""
26397,"113 FREDERICK ST #1R","New Haven","CT",""
26398,"113 FREDERICK ST #1L","New Haven","CT",""
26399,"113 FREDERICK ST #2R","New Haven","CT",""
26400,"113 FREDERICK ST #2L","New Haven","CT",""
26401,"115 FREDERICK ST #1R","New Haven","CT",""
26402,"115 FREDERICK ST #1L","New Haven","CT",""
26403,"115 FREDERICK ST #2R","New Haven","CT",""
26404,"115 FREDERICK ST #2L","New Haven","CT",""
26405,"117 FREDERICK ST #1R","New Haven","CT",""
26406,"117 FREDERICK ST #1L","New Haven","CT",""
26407,"117 FREDERICK ST #2R","New Haven","CT",""
26408,"117 FREDERICK ST #2L","New Haven","CT",""
26409,"119 FREDERICK ST #1R","New Haven","CT",""
26410,"119 FREDERICK ST #1L","New Haven","CT",""
26411,"119 FREDERICK ST #2R","New Haven","CT",""
26412,"119 FREDERICK ST #2L","New Haven","CT",""
26413,"FOWLER ST","New Haven","CT",""
26414,"107 FOWLER ST","New Haven","CT",""
26415,"121 FOWLER ST","New Haven","CT",""
26416,"109 FOWLER ST","New Haven","CT",""
26417,"30 AMITY RD","New Haven","CT",""
26418,"16 AMITY RD","New Haven","CT",""
26419,"2 AMITY RD","New Haven","CT",""
26420,"15 WRIGHT AV","New Haven","CT",""
26421,"19 WRIGHT AV","New Haven","CT",""
26422,"23 WRIGHT AV","New Haven","CT",""
26423,"27 WRIGHT AV","New Haven","CT",""
26424,"31 WRIGHT AV","New Haven","CT",""
26425,"35 WRIGHT AV","New Haven","CT",""
26426,"39 WRIGHT AV","New Haven","CT",""
26427,"53 WRIGHT AV","New Haven","CT",""
26428,"57 WRIGHT AV","New Haven","CT",""
26429,"63 WRIGHT AV","New Haven","CT",""
26430,"99 FREDERICK ST","New Haven","CT",""
26431,"150 SENECA RD","New Haven","CT",""
26432,"15 FOWLER ST","New Haven","CT",""
26433,"25 FOWLER ST","New Haven","CT",""
26434,"33 FOWLER ST","New Haven","CT",""
26435,"39 FOWLER ST","New Haven","CT",""
26436,"45 FOWLER ST","New Haven","CT",""
26437,"108 FREDERICK ST","New Haven","CT",""
26438,NA,"New Haven","CT",""
26439,"55 FOWLER ST","New Haven","CT",""
26440,"63 FOWLER ST","New Haven","CT",""
26441,"98 FREDERICK ST","New Haven","CT",""
26442,"134 GREEN HILL TER","New Haven","CT",""
26443,"124 GREEN HILL TER","New Haven","CT",""
26444,"GREEN HILL TER","New Haven","CT",""
26445,"118 GREEN HILL TER","New Haven","CT",""
26446,"112 GREEN HILL TER","New Haven","CT",""
26447,"106 GREEN HILL TER","New Haven","CT",""
26448,"100 GREEN HILL TER","New Haven","CT",""
26449,"96 GREEN HILL TER","New Haven","CT",""
26450,"90 GREEN HILL TER","New Haven","CT",""
26451,"341 FAIRFIELD ST","New Haven","CT",""
26452,"345 FAIRFIELD ST","New Haven","CT",""
26453,"154 SENECA RD","New Haven","CT",""
26454,"86 AMITY RD","New Haven","CT",""
26455,"80 AMITY RD","New Haven","CT",""
26456,NA,"New Haven","CT",""
26457,NA,"New Haven","CT",""
26458,"50 AMITY RD","New Haven","CT",""
26459,"102 FOWLER ST","New Haven","CT",""
26460,"74 FOWLER ST #1R","New Haven","CT",""
26461,"74 FOWLER ST #IL","New Haven","CT",""
26462,"74 FOWLER ST #2R","New Haven","CT",""
26463,"74 FOWLER ST #2L","New Haven","CT",""
26464,"76 FOWLER ST #1R","New Haven","CT",""
26465,"76 FOWLER ST #1L","New Haven","CT",""
26466,"76 FOWLER ST #2R","New Haven","CT",""
26467,"76 FOWLER ST #2L","New Haven","CT",""
26468,"78 FOWLER ST #1R","New Haven","CT",""
26469,"78 FOWLER ST #1L","New Haven","CT",""
26470,"78 FOWLER ST #2R","New Haven","CT",""
26471,"78 FOWLER ST #2L","New Haven","CT",""
26472,"80 FOWLER ST #1R","New Haven","CT",""
26473,"80 FOWLER ST #1L","New Haven","CT",""
26474,"80 FOWLER ST #2R","New Haven","CT",""
26475,"80 FOWLER ST #2L","New Haven","CT",""
26476,"90 FOWLER ST #1R","New Haven","CT",""
26477,"90 FOWLER ST #1L","New Haven","CT",""
26478,"90 FOWLER ST #2R","New Haven","CT",""
26479,"90 FOWLER ST #2L","New Haven","CT",""
26480,"92 FOWLER ST #1R","New Haven","CT",""
26481,"92 FOWLER ST #1L","New Haven","CT",""
26482,"92 FOWLER ST #2R","New Haven","CT",""
26483,"92 FOWLER ST #2L","New Haven","CT",""
26484,"94 FOWLER ST #1R","New Haven","CT",""
26485,"94 FOWLER ST #1L","New Haven","CT",""
26486,"94 FOWLER ST #2R","New Haven","CT",""
26487,"94 FOWLER ST #2L","New Haven","CT",""
26488,"96 FOWLER ST #1R","New Haven","CT",""
26489,"96 FOWLER ST #1L","New Haven","CT",""
26490,"96 FOWLER ST #2R","New Haven","CT",""
26491,"96 FOWLER ST #2L","New Haven","CT",""
26492,"98 FOWLER ST #1R","New Haven","CT",""
26493,"98 FOWLER ST #1L","New Haven","CT",""
26494,"98 FOWLER ST #2R","New Haven","CT",""
26495,"98 FOWLER ST #2L","New Haven","CT",""
26496,"100 FOWLER ST #1R","New Haven","CT",""
26497,"100 FOWLER ST #1L","New Haven","CT",""
26498,"100 FOWLER ST #2R","New Haven","CT",""
26499,"100 FOWLER ST #2L","New Haven","CT",""
26500,"SENECA RD","New Haven","CT",""
26501,"6 SENECA RD","New Haven","CT",""
26502,"14 SENECA RD","New Haven","CT",""
26503,"20 SENECA RD","New Haven","CT",""
26504,"34 SENECA RD","New Haven","CT",""
26505,"40 SENECA RD","New Haven","CT",""
26506,"50 SENECA RD","New Haven","CT",""
26507,"60 SENECA RD","New Haven","CT",""
26508,"135 SENECA RD","New Haven","CT",""
26509,"149 SENECA RD","New Haven","CT",""
26510,"216 LAWNCREST RD","New Haven","CT",""
26511,"212 LAWNCREST RD","New Haven","CT",""
26512,"208 LAWNCREST RD","New Haven","CT",""
26513,"198 LAWNCREST RD","New Haven","CT",""
26514,"194 LAWNCREST RD","New Haven","CT",""
26515,"182 LAWNCREST RD","New Haven","CT",""
26516,"176 LAWNCREST RD","New Haven","CT",""
26517,"172 LAWNCREST RD","New Haven","CT",""
26518,"168 LAWNCREST RD","New Haven","CT",""
26519,"164 LAWNCREST RD","New Haven","CT",""
26520,"158 LAWNCREST RD","New Haven","CT",""
26521,"150 LAWNCREST RD","New Haven","CT",""
26522,"146 LAWNCREST RD","New Haven","CT",""
26523,"140 LAWNCREST RD","New Haven","CT",""
26524,"33 SENECA RD","New Haven","CT",""
26525,"39 SENECA RD","New Haven","CT",""
26526,"47 SENECA RD","New Haven","CT",""
26527,"55 SENECA RD","New Haven","CT",""
26528,"61 SENECA RD","New Haven","CT",""
26529,"67 SENECA RD","New Haven","CT",""
26530,"75 SENECA RD","New Haven","CT",""
26531,"81 SENECA RD","New Haven","CT",""
26532,"89 SENECA RD","New Haven","CT",""
26533,"97 SENECA RD","New Haven","CT",""
26534,"105 SENECA RD","New Haven","CT",""
26535,"113 SENECA RD","New Haven","CT",""
26536,"123 SENECA RD","New Haven","CT",""
26537,"376 FAIRFIELD ST","New Haven","CT",""
26538,"368 FAIRFIELD ST","New Haven","CT",""
26539,"74 GREEN HILL TER","New Haven","CT",""
26540,"68 GREEN HILL TER","New Haven","CT",""
26541,"66 GREEN HILL TER","New Haven","CT",""
26542,"50 GREEN HILL TER","New Haven","CT",""
26543,"46 GREEN HILL TER","New Haven","CT",""
26544,"40 GREEN HILL TER","New Haven","CT",""
26545,"38 GREEN HILL TER","New Haven","CT",""
26546,"34 GREEN HILL TER","New Haven","CT",""
26547,"28 GREEN HILL TER","New Haven","CT",""
26548,"26 GREEN HILL TER","New Haven","CT",""
26549,"20 GREEN HILL TER","New Haven","CT",""
26550,"14 GREEN HILL TER","New Haven","CT",""
26551,"6 GREEN HILL TER","New Haven","CT",""
26552,"119 LAWNCREST RD","New Haven","CT",""
26553,"133 LAWNCREST RD","New Haven","CT",""
26554,"145 LAWNCREST RD","New Haven","CT",""
26555,"151 LAWNCREST RD","New Haven","CT",""
26556,"159 LAWNCREST RD","New Haven","CT",""
26557,"161 LAWNCREST RD","New Haven","CT",""
26558,"169 LAWNCREST RD","New Haven","CT",""
26559,"173 LAWNCREST RD","New Haven","CT",""
26560,"191 LAWNCREST RD","New Haven","CT",""
26561,"205 LAWNCREST RD","New Haven","CT",""
26562,"211 LAWNCREST RD","New Haven","CT",""
26563,"219 LAWNCREST RD","New Haven","CT",""
26564,"358 FAIRFIELD ST","New Haven","CT",""
26565,"70 GLEN VIEW TER","New Haven","CT",""
26566,"64 GLEN VIEW TER","New Haven","CT",""
26567,"58 GLEN VIEW TER","New Haven","CT",""
26568,"52 GLEN VIEW TER","New Haven","CT",""
26569,"46 GLEN VIEW TER","New Haven","CT",""
26570,"36 GLEN VIEW TER","New Haven","CT",""
26571,"30 GLEN VIEW TER","New Haven","CT",""
26572,"24 GLEN VIEW TER","New Haven","CT",""
26573,"20 GLEN VIEW TER","New Haven","CT",""
26574,"14 GLEN VIEW TER","New Haven","CT",""
26575,"85 LAWNCREST RD","New Haven","CT",""
26576,"95 LAWNCREST RD","New Haven","CT",""
26577,"99 LAWNCREST RD","New Haven","CT",""
26578,"103 LAWNCREST RD","New Haven","CT",""
26579,"13 GREEN HILL TER","New Haven","CT",""
26580,"17 GREEN HILL TER","New Haven","CT",""
26581,"25 GREEN HILL TER","New Haven","CT",""
26582,"33 GREEN HILL TER","New Haven","CT",""
26583,"39 GREEN HILL TER","New Haven","CT",""
26584,"45 GREEN HILL TER","New Haven","CT",""
26585,"49 GREEN HILL TER","New Haven","CT",""
26586,"57 GREEN HILL TER","New Haven","CT",""
26587,"61 GREEN HILL TER","New Haven","CT",""
26588,"67 GREEN HILL TER","New Haven","CT",""
26589,"73 GREEN HILL TER","New Haven","CT",""
26590,"71 GLEN VIEW TER","New Haven","CT",""
26591,"60 BEVERLY RD","New Haven","CT",""
26592,"52 BEVERLY RD","New Haven","CT",""
26593,"46 BEVERLY RD","New Haven","CT",""
26594,"34 BEVERLY RD","New Haven","CT",""
26595,"30 BEVERLY RD","New Haven","CT",""
26596,"24 BEVERLY RD","New Haven","CT",""
26597,"18 BEVERLY RD","New Haven","CT",""
26598,"14 BEVERLY RD","New Haven","CT",""
26599,"8 BEVERLY RD","New Haven","CT",""
26600,"67 LAWNCREST RD","New Haven","CT",""
26601,"71 LAWNCREST RD","New Haven","CT",""
26602,"5 GLEN VIEW TER","New Haven","CT",""
26603,"15 GLEN VIEW TER","New Haven","CT",""
26604,"21 GLEN VIEW TER","New Haven","CT",""
26605,"29 GLEN VIEW TER","New Haven","CT",""
26606,"35 GLEN VIEW TER","New Haven","CT",""
26607,"39 GLEN VIEW TER","New Haven","CT",""
26608,"45 GLEN VIEW TER","New Haven","CT",""
26609,"51 GLEN VIEW TER","New Haven","CT",""
26610,"57 GLEN VIEW TER","New Haven","CT",""
26611,"63 GLEN VIEW TER","New Haven","CT",""
26612,"57 BEVERLY RD","New Haven","CT",""
26613,"44 WESTERLEIGH RD","New Haven","CT",""
26614,"42 WESTERLEIGH RD","New Haven","CT",""
26615,"36 WESTERLEIGH RD","New Haven","CT",""
26616,"32 WESTERLEIGH RD","New Haven","CT",""
26617,"26 WESTERLEIGH RD","New Haven","CT",""
26618,"20 WESTERLEIGH RD","New Haven","CT",""
26619,"14 WESTERLEIGH RD","New Haven","CT",""
26620,"WESTERLEIGH RD","New Haven","CT",""
26621,"35 LAWNCREST RD","New Haven","CT",""
26622,"47 LAWNCREST RD","New Haven","CT",""
26623,"51 LAWNCREST RD","New Haven","CT",""
26624,"13 BEVERLY RD","New Haven","CT",""
26625,"19 BEVERLY RD","New Haven","CT",""
26626,"25 BEVERLY RD","New Haven","CT",""
26627,"31 BEVERLY RD","New Haven","CT",""
26628,"35 BEVERLY RD","New Haven","CT",""
26629,"41 BEVERLY RD","New Haven","CT",""
26630,"47 BEVERLY RD","New Haven","CT",""
26631,"51 BEVERLY RD","New Haven","CT",""
26632,"138 LAWNCREST RD","New Haven","CT",""
26633,"136 LAWNCREST RD","New Haven","CT",""
26634,"126 LAWNCREST RD","New Haven","CT",""
26635,"120 LAWNCREST RD","New Haven","CT",""
26636,"116 LAWNCREST RD","New Haven","CT",""
26637,"112 LAWNCREST RD","New Haven","CT",""
26638,"108 LAWNCREST RD","New Haven","CT",""
26639,"104 LAWNCREST RD","New Haven","CT",""
26640,"100 LAWNCREST RD","New Haven","CT",""
26641,"88 LAWNCREST RD","New Haven","CT",""
26642,"84 LAWNCREST RD","New Haven","CT",""
26643,"80 LAWNCREST RD","New Haven","CT",""
26644,"78 LAWNCREST RD","New Haven","CT",""
26645,"72 LAWNCREST RD","New Haven","CT",""
26646,"68 LAWNCREST RD","New Haven","CT",""
26647,"62 LAWNCREST RD","New Haven","CT",""
26648,"58 LAWNCREST RD","New Haven","CT",""
26649,"52 LAWNCREST RD","New Haven","CT",""
26650,"44 LAWNCREST RD","New Haven","CT",""
26651,"36 LAWNCREST RD","New Haven","CT",""
26652,"32 LAWNCREST RD","New Haven","CT",""
26653,"581 FOUNTAIN ST","New Haven","CT",""
26654,"589 FOUNTAIN ST","New Haven","CT",""
26655,"595 FOUNTAIN ST","New Haven","CT",""
26656,"599 FOUNTAIN ST","New Haven","CT",""
26657,"605 FOUNTAIN ST","New Haven","CT",""
26658,"609 FOUNTAIN ST","New Haven","CT",""
26659,"615 FOUNTAIN ST","New Haven","CT",""
26660,"621 FOUNTAIN ST","New Haven","CT",""
26661,"625 FOUNTAIN ST","New Haven","CT",""
26662,"635 FOUNTAIN ST","New Haven","CT",""
26663,"629 FOUNTAIN ST","New Haven","CT",""
26664,"639 FOUNTAIN ST","New Haven","CT",""
26665,"645 FOUNTAIN ST","New Haven","CT",""
26666,"647 FOUNTAIN ST","New Haven","CT",""
26667,"649 FOUNTAIN ST","New Haven","CT",""
26668,"675 FOUNTAIN ST","New Haven","CT",""
26669,"689 FOUNTAIN ST","New Haven","CT",""
26670,"699 FOUNTAIN ST","New Haven","CT",""
26671,"715 FOUNTAIN ST","New Haven","CT",""
26672,"705 FOUNTAIN ST","New Haven","CT",""
26673,"15 SENECA RD","New Haven","CT",""
26674,"17 SENECA RD","New Haven","CT",""
26675,"25 SENECA RD","New Haven","CT",""
26676,"75 FREDERICK ST","New Haven","CT",""
26677,"60 WRIGHT AV","New Haven","CT",""
26678,"54 WRIGHT AV","New Haven","CT",""
26679,"48 WRIGHT AV","New Haven","CT",""
26680,"42 WRIGHT AV","New Haven","CT",""
26681,"38 WRIGHT AV","New Haven","CT",""
26682,"34 WRIGHT AV","New Haven","CT",""
26683,"28 WRIGHT AV","New Haven","CT",""
26684,"24 WRIGHT AV","New Haven","CT",""
26685,"20 WRIGHT AV","New Haven","CT",""
26686,"1460 WHALLEY AV","New Haven","CT",""
26687,"176 GLEN VIEW TER","New Haven","CT",""
26688,"GLEN VIEW TER","New Haven","CT",""
26689,"170 GLEN VIEW TER","New Haven","CT",""
26690,"164 GLEN VIEW TER","New Haven","CT",""
26691,"160 GLEN VIEW TER","New Haven","CT",""
26692,"156 GLEN VIEW TER","New Haven","CT",""
26693,"150 GLEN VIEW TER","New Haven","CT",""
26694,"146 GLEN VIEW TER","New Haven","CT",""
26695,"142 GLEN VIEW TER","New Haven","CT",""
26696,"59 FREDERICK ST","New Haven","CT",""
26697,"65 FREDERICK ST","New Haven","CT",""
26698,"37 FREDERICK ST","New Haven","CT",""
26699,"165 GLEN VIEW TER","New Haven","CT",""
26700,"1440 WHALLEY AV","New Haven","CT",""
26701,"1426 WHALLEY AV","New Haven","CT",""
26702,"WHALLEY AV","New Haven","CT",""
26703,"1412 WHALLEY AV","New Haven","CT",""
26704,"1400 WHALLEY AV","New Haven","CT",""
26705,"150 WESTERLEIGH RD","New Haven","CT",""
26706,"140 WESTERLEIGH RD","New Haven","CT",""
26707,"7 FREDERICK ST","New Haven","CT",""
26708,"15 FREDERICK ST","New Haven","CT",""
26709,"21 FREDERICK ST","New Haven","CT",""
26710,"23 FREDERICK ST","New Haven","CT",""
26711,"FREDERICK ST","New Haven","CT",""
26712,"27 FREDERICK ST","New Haven","CT",""
26713,"31 FREDERICK ST","New Haven","CT",""
26714,"89 GREEN HILL TER","New Haven","CT",""
26715,"95 GREEN HILL TER","New Haven","CT",""
26716,"101 GREEN HILL TER","New Haven","CT",""
26717,"105 GREEN HILL TER","New Haven","CT",""
26718,"111 GREEN HILL TER","New Haven","CT",""
26719,"117 GREEN HILL TER","New Haven","CT",""
26720,"121 GREEN HILL TER","New Haven","CT",""
26721,"127 GREEN HILL TER","New Haven","CT",""
26722,"72 FREDERICK ST","New Haven","CT",""
26723,"62 FREDERICK ST","New Haven","CT",""
26724,"124 GLEN VIEW TER","New Haven","CT",""
26725,"120 GLEN VIEW TER","New Haven","CT",""
26726,"112 GLEN VIEW TER","New Haven","CT",""
26727,"108 GLEN VIEW TER","New Haven","CT",""
26728,"102 GLEN VIEW TER","New Haven","CT",""
26729,"96 GLEN VIEW TER","New Haven","CT",""
26730,"92 GLEN VIEW TER","New Haven","CT",""
26731,"86 GLEN VIEW TER","New Haven","CT",""
26732,"331 FAIRFIELD ST","New Haven","CT",""
26733,"79 GLEN VIEW TER","New Haven","CT",""
26734,"85 GLEN VIEW TER","New Haven","CT",""
26735,"91 GLEN VIEW TER","New Haven","CT",""
26736,"95 GLEN VIEW TER","New Haven","CT",""
26737,"99 GLEN VIEW TER","New Haven","CT",""
26738,"107 GLEN VIEW TER","New Haven","CT",""
26739,"113 GLEN VIEW TER","New Haven","CT",""
26740,"119 GLEN VIEW TER","New Haven","CT",""
26741,"125 GLEN VIEW TER","New Haven","CT",""
26742,"129 GLEN VIEW TER","New Haven","CT",""
26743,"44 FREDERICK ST","New Haven","CT",""
26744,"36 FREDERICK ST","New Haven","CT",""
26745,"124 BEVERLY RD","New Haven","CT",""
26746,"120 BEVERLY RD","New Haven","CT",""
26747,"114 BEVERLY RD","New Haven","CT",""
26748,"108 BEVERLY RD","New Haven","CT",""
26749,"102 BEVERLY RD","New Haven","CT",""
26750,"96 BEVERLY RD","New Haven","CT",""
26751,"90 BEVERLY RD","New Haven","CT",""
26752,"86 BEVERLY RD","New Haven","CT",""
26753,"80 BEVERLY RD","New Haven","CT",""
26754,"74 BEVERLY RD","New Haven","CT",""
26755,"68 BEVERLY RD","New Haven","CT",""
26756,"67 BEVERLY RD","New Haven","CT",""
26757,"75 BEVERLY RD","New Haven","CT",""
26758,"79 BEVERLY RD","New Haven","CT",""
26759,"85 BEVERLY RD","New Haven","CT",""
26760,"89 BEVERLY RD","New Haven","CT",""
26761,"97 BEVERLY RD","New Haven","CT",""
26762,"101 BEVERLY RD","New Haven","CT",""
26763,"107 BEVERLY RD","New Haven","CT",""
26764,"115 BEVERLY RD","New Haven","CT",""
26765,"121 BEVERLY RD","New Haven","CT",""
26766,"125 BEVERLY RD","New Haven","CT",""
26767,"16 FREDERICK ST","New Haven","CT",""
26768,"6 FREDERICK ST","New Haven","CT",""
26769,"116 WESTERLEIGH RD","New Haven","CT",""
26770,"110 WESTERLEIGH RD","New Haven","CT",""
26771,"104 WESTERLEIGH RD","New Haven","CT",""
26772,"100 WESTERLEIGH RD","New Haven","CT",""
26773,"94 WESTERLEIGH RD","New Haven","CT",""
26774,"88 WESTERLEIGH RD","New Haven","CT",""
26775,"82 WESTERLEIGH RD","New Haven","CT",""
26776,"76 WESTERLEIGH RD","New Haven","CT",""
26777,"70 WESTERLEIGH RD","New Haven","CT",""
26778,"64 WESTERLEIGH RD","New Haven","CT",""
26779,"291 FAIRFIELD ST","New Haven","CT",""
26780,"287 FAIRFIELD ST","New Haven","CT",""
26781,"65 WESTERLEIGH RD","New Haven","CT",""
26782,"69 WESTERLEIGH RD","New Haven","CT",""
26783,"75 WESTERLEIGH RD","New Haven","CT",""
26784,"81 WESTERLEIGH RD","New Haven","CT",""
26785,"85 WESTERLEIGH RD","New Haven","CT",""
26786,"91 WESTERLEIGH RD","New Haven","CT",""
26787,"97 WESTERLEIGH RD","New Haven","CT",""
26788,"103 WESTERLEIGH RD","New Haven","CT",""
26789,"107 WESTERLEIGH RD","New Haven","CT",""
26790,"113 WESTERLEIGH RD","New Haven","CT",""
26791,"119 WESTERLEIGH RD","New Haven","CT",""
26792,"123 WESTERLEIGH RD","New Haven","CT",""
26793,"125 WESTERLEIGH RD","New Haven","CT",""
26794,"127 WESTERLEIGH RD","New Haven","CT",""
26795,"129 WESTERLEIGH RD","New Haven","CT",""
26796,"1384 WHALLEY AV","New Haven","CT",""
26797,"1380 WHALLEY AV","New Haven","CT",""
26798,"1378 WHALLEY AV","New Haven","CT",""
26799,"1374 WHALLEY AV","New Haven","CT",""
26800,"156 RAMSDELL ST","New Haven","CT",""
26801,"152 RAMSDELL ST","New Haven","CT",""
26802,"142 RAMSDELL ST","New Haven","CT",""
26803,"136 RAMSDELL ST","New Haven","CT",""
26804,"132 RAMSDELL ST","New Haven","CT",""
26805,"124 RAMSDELL ST","New Haven","CT",""
26806,NA,"New Haven","CT",""
26807,"116 RAMSDELL ST","New Haven","CT",""
26808,"110 RAMSDELL ST","New Haven","CT",""
26809,"106 RAMSDELL ST","New Haven","CT",""
26810,"104 RAMSDELL ST","New Haven","CT",""
26811,"92 RAMSDELL ST","New Haven","CT",""
26812,"86 RAMSDELL ST","New Haven","CT",""
26813,"80 RAMSDELL ST","New Haven","CT",""
26814,"76 RAMSDELL ST","New Haven","CT",""
26815,"75 RAMSDELL ST","New Haven","CT",""
26816,"239 FAIRFIELD ST","New Haven","CT",""
26817,"95 RAMSDELL ST","New Haven","CT",""
26818,"99 RAMSDELL ST","New Haven","CT",""
26819,"103 RAMSDELL ST","New Haven","CT",""
26820,"109 RAMSDELL ST","New Haven","CT",""
26821,"119 RAMSDELL ST","New Haven","CT",""
26822,"125 RAMSDELL ST","New Haven","CT",""
26823,"131 RAMSDELL ST","New Haven","CT",""
26824,"135 RAMSDELL ST","New Haven","CT",""
26825,"141 RAMSDELL ST","New Haven","CT",""
26826,"145 RAMSDELL ST","New Haven","CT",""
26827,"149 RAMSDELL ST","New Haven","CT",""
26828,"1370 WHALLEY AV","New Haven","CT",""
26829,"1350 WHALLEY AV","New Haven","CT",""
26830,"1358 WHALLEY AV","New Haven","CT",""
26831,"116 ANTHONY ST","New Haven","CT",""
26832,"114 ANTHONY ST","New Haven","CT",""
26833,"106 ANTHONY ST","New Haven","CT",""
26834,"102 ANTHONY ST","New Haven","CT",""
26835,"98 ANTHONY ST","New Haven","CT",""
26836,"92 ANTHONY ST","New Haven","CT",""
26837,"88 ANTHONY ST","New Haven","CT",""
26838,"84 ANTHONY ST","New Haven","CT",""
26839,"76 ANTHONY ST","New Haven","CT",""
26840,"72 ANTHONY ST","New Haven","CT",""
26841,"68 ANTHONY ST","New Haven","CT",""
26842,"64 ANTHONY ST","New Haven","CT",""
26843,"56 ANTHONY ST","New Haven","CT",""
26844,"52 ANTHONY ST","New Haven","CT",""
26845,"215 FAIRFIELD ST","New Haven","CT",""
26846,"11 LAWNCREST RD","New Haven","CT",""
26847,"25 LAWNCREST RD","New Haven","CT",""
26848,"1 WESTERLEIGH RD","New Haven","CT",""
26849,"7 WESTERLEIGH RD","New Haven","CT",""
26850,"15 WESTERLEIGH RD","New Haven","CT",""
26851,"21 WESTERLEIGH RD","New Haven","CT",""
26852,"25 WESTERLEIGH RD","New Haven","CT",""
26853,"31 WESTERLEIGH RD","New Haven","CT",""
26854,"35 WESTERLEIGH RD","New Haven","CT",""
26855,"41 WESTERLEIGH RD","New Haven","CT",""
26856,"45 WESTERLEIGH RD","New Haven","CT",""
26857,"70 RAMSDELL ST","New Haven","CT",""
26858,"62 RAMSDELL ST","New Haven","CT",""
26859,"56 RAMSDELL ST","New Haven","CT",""
26860,"48 RAMSDELL ST","New Haven","CT",""
26861,"40 RAMSDELL ST","New Haven","CT",""
26862,"32 RAMSDELL ST","New Haven","CT",""
26863,"28 RAMSDELL ST","New Haven","CT",""
26864,"22 RAMSDELL ST","New Haven","CT",""
26865,"10 FIELD ST","New Haven","CT",""
26866,"43 RAMSDELL ST","New Haven","CT",""
26867,"49 RAMSDELL ST","New Haven","CT",""
26868,"53 RAMSDELL ST","New Haven","CT",""
26869,"57 RAMSDELL ST","New Haven","CT",""
26870,"65 RAMSDELL ST","New Haven","CT",""
26871,"246 FAIRFIELD ST","New Haven","CT",""
26872,"92 BENTON ST","New Haven","CT",""
26873,"60 BENTON ST","New Haven","CT",""
26874,"50 BENTON ST","New Haven","CT",""
26875,"44 BENTON ST","New Haven","CT",""
26876,"38 BENTON ST","New Haven","CT",""
26877,"40 FIELD ST","New Haven","CT",""
26878,"30 FIELD ST","New Haven","CT",""
26879,"18 FIELD ST","New Haven","CT",""
26880,"5 BENTON ST","New Haven","CT",""
26881,"15 BENTON ST","New Haven","CT",""
26882,"25 BENTON ST","New Haven","CT",""
26883,"29 BENTON ST","New Haven","CT",""
26884,"37 BENTON ST","New Haven","CT",""
26885,"41 BENTON ST","New Haven","CT",""
26886,"51 BENTON ST","New Haven","CT",""
26887,"55 BENTON ST","New Haven","CT",""
26888,"63 BENTON ST","New Haven","CT",""
26889,"73 BENTON ST","New Haven","CT",""
26890,"83 BENTON ST","New Haven","CT",""
26891,"218 FAIRFIELD ST","New Haven","CT",""
26892,"212 FAIRFIELD ST","New Haven","CT",""
26893,"50 ANTHONY ST","New Haven","CT",""
26894,"48 ANTHONY ST","New Haven","CT",""
26895,"46 ANTHONY ST","New Haven","CT",""
26896,"42 ANTHONY ST","New Haven","CT",""
26897,"38 ANTHONY ST","New Haven","CT",""
26898,"36 ANTHONY ST","New Haven","CT",""
26899,"28 ANTHONY ST","New Haven","CT",""
26900,"26 ANTHONY ST","New Haven","CT",""
26901,"18 ANTHONY ST","New Haven","CT",""
26902,"12 ANTHONY ST","New Haven","CT",""
26903,"487 FOUNTAIN ST","New Haven","CT",""
26904,"493 FOUNTAIN ST","New Haven","CT",""
26905,"497 FOUNTAIN ST","New Haven","CT",""
26906,"501 FOUNTAIN ST","New Haven","CT",""
26907,"513 FOUNTAIN ST","New Haven","CT",""
26908,"517 FOUNTAIN ST","New Haven","CT",""
26909,"565 FOUNTAIN ST","New Haven","CT",""
26910,"11 RAMSDELL ST","New Haven","CT",""
26911,"15 RAMSDELL ST","New Haven","CT",""
26912,"25 FIELD ST","New Haven","CT",""
26913,"31 FIELD ST","New Haven","CT",""
26914,"FIELD ST","New Haven","CT",""
26915,"24 BENTON ST","New Haven","CT",""
26916,"20 BENTON ST","New Haven","CT",""
26917,"529 FOUNTAIN ST","New Haven","CT",""
26918,"533 FOUNTAIN ST","New Haven","CT",""
26919,"537 FOUNTAIN ST","New Haven","CT",""
26920,"543 FOUNTAIN ST","New Haven","CT",""
26921,"547 FOUNTAIN ST","New Haven","CT",""
26922,"551 FOUNTAIN ST","New Haven","CT",""
26923,"555 FOUNTAIN ST","New Haven","CT",""
26924,"561 FOUNTAIN ST","New Haven","CT",""
26925,"275 RAY RD","New Haven","CT",""
26926,"70 JUDWIN AV","New Haven","CT",""
26927,"64 JUDWIN AV","New Haven","CT",""
26928,"58 JUDWIN AV","New Haven","CT",""
26929,"20 ROBIN LA","New Haven","CT",""
26930,"10 ROBIN LA","New Haven","CT",""
26931,"25 CURTIS DR","New Haven","CT",""
26932,"35 CURTIS DR","New Haven","CT",""
26933,"492 FOUNTAIN ST","New Haven","CT",""
26934,"488 FOUNTAIN ST","New Haven","CT",""
26935,"484 FOUNTAIN ST","New Haven","CT",""
26936,"480 FOUNTAIN ST","New Haven","CT",""
26937,"40 MAPLEWOOD RD","New Haven","CT",""
26938,"36 MAPLEWOOD RD","New Haven","CT",""
26939,"30 MAPLEWOOD RD","New Haven","CT",""
26940,"26 MAPLEWOOD RD","New Haven","CT",""
26941,"20 MAPLEWOOD RD","New Haven","CT",""
26942,"16 MAPLEWOOD RD","New Haven","CT",""
26943,"10 MAPLEWOOD RD","New Haven","CT",""
26944,"2 MAPLEWOOD RD","New Haven","CT",""
26945,"260 HEMLOCK RD","New Haven","CT",""
26946,"250 HEMLOCK RD","New Haven","CT",""
26947,"240 HEMLOCK RD","New Haven","CT",""
26948,"230 HEMLOCK RD","New Haven","CT",""
26949,"220 HEMLOCK RD","New Haven","CT",""
26950,"200 HEMLOCK RD","New Haven","CT",""
26951,NA,"New Haven","CT",""
26952,"150 LAKE VIEW TER","New Haven","CT",""
26953,"140 LAKE VIEW TER","New Haven","CT",""
26954,"130 LAKE VIEW TER","New Haven","CT",""
26955,"110 LAKE VIEW TER","New Haven","CT",""
26956,"100 LAKE VIEW TER","New Haven","CT",""
26957,"90 LAKE VIEW TER","New Haven","CT",""
26958,"80 LAKE VIEW TER","New Haven","CT",""
26959,"70 LAKE VIEW TER","New Haven","CT",""
26960,"56 LAKE VIEW TER","New Haven","CT",""
26961,"28 CURTIS DR","New Haven","CT",""
26962,"24 CURTIS DR","New Haven","CT",""
26963,"20 CURTIS DR","New Haven","CT",""
26964,"10 CURTIS DR","New Haven","CT",""
26965,"2 CURTIS DR","New Haven","CT",""
26966,"5 ROBIN LA","New Haven","CT",""
26967,"9 ROBIN LA","New Haven","CT",""
26968,"15 ROBIN LA","New Haven","CT",""
26969,"25 ROBIN LA","New Haven","CT",""
26970,"5 MAPLEWOOD RD","New Haven","CT",""
26971,"9 MAPLEWOOD RD","New Haven","CT",""
26972,"21 MAPLEWOOD RD","New Haven","CT",""
26973,"27 MAPLEWOOD RD","New Haven","CT",""
26974,"31 MAPLEWOOD RD","New Haven","CT",""
26975,"35 MAPLEWOOD RD","New Haven","CT",""
26976,"41 MAPLEWOOD RD","New Haven","CT",""
26977,"47 MAPLEWOOD RD","New Haven","CT",""
26978,"460 FOUNTAIN ST","New Haven","CT",""
26979,"458 FOUNTAIN ST","New Haven","CT",""
26980,"454 FOUNTAIN ST","New Haven","CT",""
26981,"448 FOUNTAIN ST","New Haven","CT",""
26982,"442 FOUNTAIN ST","New Haven","CT",""
26983,"260 LAKE VIEW TER","New Haven","CT",""
26984,"246 LAKE VIEW TER","New Haven","CT",""
26985,"236 LAKE VIEW TER","New Haven","CT",""
26986,"230 LAKE VIEW TER","New Haven","CT",""
26987,"220 LAKE VIEW TER","New Haven","CT",""
26988,"206 LAKE VIEW TER","New Haven","CT",""
26989,"200 LAKE VIEW TER","New Haven","CT",""
26990,"225 HEMLOCK RD","New Haven","CT",""
26991,"4 JUDWIN AV","New Haven","CT",""
26992,"95 LOWIN AV","New Haven","CT",""
26993,"105 LOWIN AV","New Haven","CT",""
26994,"115 LOWIN AV","New Haven","CT",""
26995,"125 LOWIN AV","New Haven","CT",""
26996,"135 LOWIN AV","New Haven","CT",""
26997,"145 LOWIN AV","New Haven","CT",""
26998,"155 LOWIN AV","New Haven","CT",""
26999,"530 FOUNTAIN ST","New Haven","CT",""
27000,"18 COLBY #CT","New Haven","CT",""
