"pid","location","city","state","zip"
20001,"38 AUBURN ST","New Haven","CT",""
20002,"36 AUBURN ST","New Haven","CT",""
20003,"32 AUBURN ST","New Haven","CT",""
20004,"26 AUBURN ST","New Haven","CT",""
20005,"24 AUBURN ST","New Haven","CT",""
20006,"141 SYLVAN AV","New Haven","CT",""
20007,"31 AUBURN ST","New Haven","CT",""
20008,"33 AUBURN ST","New Haven","CT",""
20009,"39 AUBURN ST","New Haven","CT",""
20010,"45 AUBURN ST","New Haven","CT",""
20011,"53 AUBURN ST","New Haven","CT",""
20012,"55 AUBURN ST","New Haven","CT",""
20013,"422 LEGION AV","New Haven","CT",""
20014,"416 LEGION AV","New Haven","CT",""
20015,"408 LEGION AV","New Haven","CT",""
20016,"400 LEGION AV","New Haven","CT",""
20017,"392 LEGION AV","New Haven","CT",""
20018,"384 LEGION AV","New Haven","CT",""
20019,"54 GREENWOOD ST","New Haven","CT",""
20020,"52 GREENWOOD ST","New Haven","CT",""
20021,"48 GREENWOOD ST","New Haven","CT",""
20022,"46 GREENWOOD ST","New Haven","CT",""
20023,"42 GREENWOOD ST","New Haven","CT",""
20024,"40 GREENWOOD ST","New Haven","CT",""
20025,"36 GREENWOOD ST","New Haven","CT",""
20026,"30 GREENWOOD ST","New Haven","CT",""
20027,"133 SYLVAN AV","New Haven","CT",""
20028,"129 SYLVAN AV","New Haven","CT",""
20029,"9 GREENWOOD ST","New Haven","CT",""
20030,"15 GREENWOOD ST","New Haven","CT",""
20031,"17 GREENWOOD ST","New Haven","CT",""
20032,"21 GREENWOOD ST","New Haven","CT",""
20033,"23 GREENWOOD ST","New Haven","CT",""
20034,"25 GREENWOOD ST","New Haven","CT",""
20035,"29 GREENWOOD ST","New Haven","CT",""
20036,"31 GREENWOOD ST","New Haven","CT",""
20037,"33 GREENWOOD ST","New Haven","CT",""
20038,"41 GREENWOOD ST","New Haven","CT",""
20039,"47 GREENWOOD ST","New Haven","CT",""
20040,"364 LEGION AV","New Haven","CT",""
20041,"352 LEGION AV","New Haven","CT",""
20042,"348 LEGION AV","New Haven","CT",""
20043,"342 LEGION AV","New Haven","CT",""
20044,"336 LEGION AV","New Haven","CT",""
20045,"324 LEGION AV","New Haven","CT",""
20046,"32 VINE ST","New Haven","CT",""
20047,"28 VINE ST","New Haven","CT",""
20048,"26 VINE ST","New Haven","CT",""
20049,"24 VINE ST","New Haven","CT",""
20050,"22 VINE ST","New Haven","CT",""
20051,"20 VINE ST","New Haven","CT",""
20052,"18 VINE ST","New Haven","CT",""
20053,"VINE ST","New Haven","CT",""
20054,"16 VINE ST","New Haven","CT",""
20055,"14 VINE ST","New Haven","CT",""
20056,"12 VINE ST","New Haven","CT",""
20057,"10 VINE ST #.5","New Haven","CT",""
20058,"10 VINE ST","New Haven","CT",""
20059,"8 VINE ST","New Haven","CT",""
20060,"2 VINE ST","New Haven","CT",""
20061,"121 SYLVAN AV","New Haven","CT",""
20062,"123 SYLVAN AV","New Haven","CT",""
20063,"125 SYLVAN AV","New Haven","CT",""
20064,"130 ORCHARD ST","New Haven","CT",""
20065,"467 LEGION AV","New Haven","CT",""
20066,"LEGION AV","New Haven","CT",""
20067,"113 AUBURN ST","New Haven","CT",""
20068,"121 AUBURN ST","New Haven","CT",""
20069,"117 AUBURN ST","New Haven","CT",""
20070,"105 GREENWOOD ST","New Haven","CT",""
20071,NA,"New Haven","CT",""
20072,"ORCHARD ST","New Haven","CT",""
20073,"192 ORCHARD ST","New Haven","CT",""
20074,"283 LEGION AV","New Haven","CT",""
20075,"GREENWOOD ST","New Haven","CT",""
20076,"59 SHERMAN AV","New Haven","CT",""
20077,"67 SHERMAN AV","New Haven","CT",""
20078,"71 SHERMAN AV","New Haven","CT",""
20079,"73 SHERMAN AV","New Haven","CT",""
20080,"75 SHERMAN AV","New Haven","CT",""
20081,"81 SHERMAN AV","New Haven","CT",""
20082,"85 SHERMAN AV","New Haven","CT",""
20083,"89 SHERMAN AV","New Haven","CT",""
20084,"106 GILBERT AV","New Haven","CT",""
20085,"100 GILBERT AV","New Haven","CT",""
20086,"87 SHERMAN AV","New Haven","CT",""
20087,"98 GILBERT AV","New Haven","CT",""
20088,"92 GILBERT AV","New Haven","CT",""
20089,"144 GREENWOOD ST","New Haven","CT",""
20090,"142 GREENWOOD ST","New Haven","CT",""
20091,"136 GREENWOOD ST","New Haven","CT",""
20092,"132 GREENWOOD ST","New Haven","CT",""
20093,"128 GREENWOOD ST","New Haven","CT",""
20094,"124 GREENWOOD ST","New Haven","CT",""
20095,"120 GREENWOOD ST","New Haven","CT",""
20096,"116 GREENWOOD ST","New Haven","CT",""
20097,"112 GREENWOOD ST","New Haven","CT",""
20098,"108 GREENWOOD ST","New Haven","CT",""
20099,"121 SCRANTON ST","New Haven","CT",""
20100,"123 SCRANTON ST","New Haven","CT",""
20101,"127 SCRANTON ST","New Haven","CT",""
20102,"133 SCRANTON ST","New Haven","CT",""
20103,"137 SCRANTON ST","New Haven","CT",""
20104,"141 SCRANTON ST","New Haven","CT",""
20105,"41 SHERMAN AV","New Haven","CT",""
20106,"49 SHERMAN AV","New Haven","CT",""
20107,"51 SHERMAN AV","New Haven","CT",""
20108,"55 SHERMAN AV","New Haven","CT",""
20109,"136 SCRANTON ST","New Haven","CT",""
20110,"108 AUBURN ST","New Haven","CT",""
20111,"FAYETTE ST","New Haven","CT",""
20112,"109 LEGION AV","New Haven","CT",""
20113,"111 GREENWOOD ST","New Haven","CT",""
20114,"117 GREENWOOD ST","New Haven","CT",""
20115,"121 GREENWOOD ST","New Haven","CT",""
20116,"125 GREENWOOD ST","New Haven","CT",""
20117,"131 GREENWOOD ST","New Haven","CT",""
20118,"133 GREENWOOD ST","New Haven","CT",""
20119,"135 GREENWOOD ST","New Haven","CT",""
20120,"137 GREENWOOD ST","New Haven","CT",""
20121,"72 GILBERT AV","New Haven","CT",""
20122,"68 GILBERT AV","New Haven","CT",""
20123,"64 GILBERT AV","New Haven","CT",""
20124,"56 GILBERT AV","New Haven","CT",""
20125,"54 GILBERT AV","New Haven","CT",""
20126,"50 GILBERT AV","New Haven","CT",""
20127,"44 GILBERT AV","New Haven","CT",""
20128,"40 GILBERT AV","New Haven","CT",""
20129,"34 GILBERT AV","New Haven","CT",""
20130,"232 ORCHARD ST","New Haven","CT",""
20131,"220 ORCHARD ST","New Haven","CT",""
20132,"200 ORCHARD ST #101","New Haven","CT",""
20133,"200 ORCHARD ST #102","New Haven","CT",""
20134,"200 ORCHARD ST #103","New Haven","CT",""
20135,"200 ORCHARD ST #104","New Haven","CT",""
20136,"200 ORCHARD ST #105","New Haven","CT",""
20137,"200 ORCHARD ST #106","New Haven","CT",""
20138,"200 ORCHARD ST #107","New Haven","CT",""
20139,"200 ORCHARD ST #108","New Haven","CT",""
20140,"200 ORCHARD ST #109","New Haven","CT",""
20141,"200 ORCHARD ST #201","New Haven","CT",""
20142,"200 ORCHARD ST #202","New Haven","CT",""
20143,"200 ORCHARD ST #203","New Haven","CT",""
20144,"200 ORCHARD ST #204","New Haven","CT",""
20145,"200 ORCHARD ST #205","New Haven","CT",""
20146,"200 ORCHARD ST #206","New Haven","CT",""
20147,"200 ORCHARD ST #207","New Haven","CT",""
20148,"200 ORCHARD ST #208","New Haven","CT",""
20149,"200 ORCHARD ST #209","New Haven","CT",""
20150,"200 ORCHARD ST #301","New Haven","CT",""
20151,"200 ORCHARD ST #302","New Haven","CT",""
20152,"200 ORCHARD ST #303","New Haven","CT",""
20153,"200 ORCHARD ST #304","New Haven","CT",""
20154,"200 ORCHARD ST #305","New Haven","CT",""
20155,"200 ORCHARD ST #306","New Haven","CT",""
20156,"200 ORCHARD ST #307","New Haven","CT",""
20157,"200 ORCHARD ST #308","New Haven","CT",""
20158,"200 ORCHARD ST #309","New Haven","CT",""
20159,"200 ORCHARD ST #310","New Haven","CT",""
20160,"200 ORCHARD ST #401","New Haven","CT",""
20161,"200 ORCHARD ST #402","New Haven","CT",""
20162,"200 ORCHARD ST #403","New Haven","CT",""
20163,"200 ORCHARD ST #404","New Haven","CT",""
20164,"200 ORCHARD ST #405","New Haven","CT",""
20165,"200 ORCHARD ST #406","New Haven","CT",""
20166,"200 ORCHARD ST #407","New Haven","CT",""
20167,"200 ORCHARD ST #408","New Haven","CT",""
20168,"97 SCRANTON ST","New Haven","CT",""
20169,"65 GILBERT AV","New Haven","CT",""
20170,"153 GREENWOOD ST","New Haven","CT",""
20171,"157 GREENWOOD ST","New Haven","CT",""
20172,"161 GREENWOOD ST","New Haven","CT",""
20173,"634 GEORGE ST","New Haven","CT",""
20174,"630 GEORGE ST","New Haven","CT",""
20175,"628 GEORGE ST","New Haven","CT",""
20176,"624 GEORGE ST","New Haven","CT",""
20177,"620 GEORGE ST","New Haven","CT",""
20178,"608 GEORGE ST","New Haven","CT",""
20179,"600 GEORGE ST","New Haven","CT",""
20180,"264 ORCHARD ST","New Haven","CT",""
20181,"260 ORCHARD ST","New Haven","CT",""
20182,"254 ORCHARD ST","New Haven","CT",""
20183,"248 ORCHARD ST","New Haven","CT",""
20184,"43 GILBERT AV","New Haven","CT",""
20185,"47 GILBERT AV","New Haven","CT",""
20186,"53 GILBERT AV","New Haven","CT",""
20187,"55 GILBERT AV","New Haven","CT",""
20188,"59 GILBERT AV","New Haven","CT",""
20189,"203 ORCHARD ST","New Haven","CT",""
20190,"217 ORCHARD ST","New Haven","CT",""
20191,"221 ORCHARD ST","New Haven","CT",""
20192,"225 ORCHARD ST","New Haven","CT",""
20193,"229 ORCHARD ST","New Haven","CT",""
20194,"233 ORCHARD ST","New Haven","CT",""
20195,"20 GILBERT AV","New Haven","CT",""
20196,"16 GILBERT AV","New Haven","CT",""
20197,"14 GILBERT AV","New Haven","CT",""
20198,"10 GILBERT AV","New Haven","CT",""
20199,"6 GILBERT AV","New Haven","CT",""
20200,"2 GILBERT AV","New Haven","CT",""
20201,"20 WAVERLY ST","New Haven","CT",""
20202,"18 WAVERLY ST","New Haven","CT",""
20203,"16 WAVERLY ST","New Haven","CT",""
20204,"247 ORCHARD ST","New Haven","CT",""
20205,"253 ORCHARD ST","New Haven","CT",""
20206,"259 ORCHARD ST","New Haven","CT",""
20207,"598 GEORGE ST","New Haven","CT",""
20208,"596 GEORGE ST","New Haven","CT",""
20209,"594 GEORGE ST","New Haven","CT",""
20210,"590 GEORGE ST","New Haven","CT",""
20211,"578 GEORGE ST","New Haven","CT",""
20212,"574 GEORGE ST","New Haven","CT",""
20213,"5 GILBERT AV","New Haven","CT",""
20214,"7 GILBERT AV","New Haven","CT",""
20215,"7 WAVERLY ST","New Haven","CT",""
20216,NA,"New Haven","CT",""
20217,"2 CONSTANCE B MOTLY ST","New Haven","CT",""
20218,"6 CONSTANCE B MOTLY ST","New Haven","CT",""
20219,"CONSTANCE B MOTLY ST","New Haven","CT",""
20220,"3 WAVERLY ST","New Haven","CT",""
20221,"554 GEORGE ST","New Haven","CT",""
20222,"550 GEORGE ST","New Haven","CT",""
20223,NA,"New Haven","CT",""
20224,"106 DAY ST","New Haven","CT",""
20225,"285 ORCHARD ST","New Haven","CT",""
20226,"289 ORCHARD ST","New Haven","CT",""
20227,"301 ORCHARD ST","New Haven","CT",""
20228,"323 ORCHARD ST","New Haven","CT",""
20229,"323 ORCHARD ST","New Haven","CT",""
20230,"1380 CHAPEL ST","New Haven","CT",""
20231,"1366 CHAPEL ST","New Haven","CT",""
20232,"1360 CHAPEL ST","New Haven","CT",""
20233,"1354 CHAPEL ST","New Haven","CT",""
20234,"1346 CHAPEL ST","New Haven","CT",""
20235,"1342 CHAPEL ST","New Haven","CT",""
20236,"1334 CHAPEL ST","New Haven","CT",""
20237,"1330 CHAPEL ST","New Haven","CT",""
20238,NA,"New Haven","CT",""
20239,"162 DAY ST","New Haven","CT",""
20240,"158 DAY ST","New Haven","CT",""
20241,"152 DAY ST","New Haven","CT",""
20242,"148 DAY ST","New Haven","CT",""
20243,"543 GEORGE ST","New Haven","CT",""
20244,"555 GEORGE ST","New Haven","CT",""
20245,"563 GEORGE ST","New Haven","CT",""
20246,"569 GEORGE ST","New Haven","CT",""
20247,"573 GEORGE ST","New Haven","CT",""
20248,"579 GEORGE ST","New Haven","CT",""
20249,"583 GEORGE ST","New Haven","CT",""
20250,"1409 CHAPEL ST","New Haven","CT",""
20251,"15 BEERS ST","New Haven","CT",""
20252,"17 BEERS ST","New Haven","CT",""
20253,"21 BEERS ST","New Haven","CT",""
20254,"29 BEERS ST","New Haven","CT",""
20255,"33 BEERS ST","New Haven","CT",""
20256,"37 BEERS ST","New Haven","CT",""
20257,"43 BEERS ST","New Haven","CT",""
20258,"49 BEERS ST","New Haven","CT",""
20259,"51 BEERS ST","New Haven","CT",""
20260,"55 BEERS ST","New Haven","CT",""
20261,"59 BEERS ST","New Haven","CT",""
20262,"230 EDGEWOOD AV","New Haven","CT",""
20263,NA,"New Haven","CT",""
20264,"224 EDGEWOOD AV","New Haven","CT",""
20265,"218 EDGEWOOD AV","New Haven","CT",""
20266,"390 ORCHARD ST","New Haven","CT",""
20267,"384 ORCHARD ST","New Haven","CT",""
20268,"378 ORCHARD ST","New Haven","CT",""
20269,"374 ORCHARD ST","New Haven","CT",""
20270,"370 ORCHARD ST","New Haven","CT",""
20271,"366 ORCHARD ST","New Haven","CT",""
20272,"358 ORCHARD ST","New Haven","CT",""
20273,"1389 CHAPEL ST","New Haven","CT",""
20274,"1395 CHAPEL ST","New Haven","CT",""
20275,"1401 CHAPEL ST","New Haven","CT",""
20276,"1403 CHAPEL ST","New Haven","CT",""
20277,"1385 CHAPEL ST","New Haven","CT",""
20278,"353 ORCHARD ST","New Haven","CT",""
20279,"357 ORCHARD ST","New Haven","CT",""
20280,"365 ORCHARD ST","New Haven","CT",""
20281,"381 ORCHARD ST","New Haven","CT",""
20282,"385 ORCHARD ST","New Haven","CT",""
20283,"389 ORCHARD ST","New Haven","CT",""
20284,"393 ORCHARD ST","New Haven","CT",""
20285,"214 EDGEWOOD AV","New Haven","CT",""
20286,"204 EDGEWOOD AV","New Haven","CT",""
20287,"202 EDGEWOOD AV","New Haven","CT",""
20288,"200 EDGEWOOD AV","New Haven","CT",""
20289,"198 EDGEWOOD AV","New Haven","CT",""
20290,"58 KENSINGTON ST","New Haven","CT",""
20291,"54 KENSINGTON ST","New Haven","CT",""
20292,"48 KENSINGTON ST","New Haven","CT",""
20293,"44 KENSINGTON ST","New Haven","CT",""
20294,"40 KENSINGTON ST","New Haven","CT",""
20295,"32 KENSINGTON ST","New Haven","CT",""
20296,"28 KENSINGTON ST","New Haven","CT",""
20297,"24 KENSINGTON ST","New Haven","CT",""
20298,"12 KENSINGTON ST","New Haven","CT",""
20299,"10 KENSINGTON ST","New Haven","CT",""
20300,"1361 CHAPEL ST","New Haven","CT",""
20301,"1363 CHAPEL ST","New Haven","CT",""
20302,"1367 CHAPEL ST","New Haven","CT",""
20303,"1371 CHAPEL ST","New Haven","CT",""
20304,"1375 CHAPEL ST","New Haven","CT",""
20305,"1379 CHAPEL ST","New Haven","CT",""
20306,"1349 CHAPEL ST","New Haven","CT",""
20307,"17 KENSINGTON ST","New Haven","CT",""
20308,"21 KENSINGTON ST","New Haven","CT",""
20309,"25 KENSINGTON ST","New Haven","CT",""
20310,"29 KENSINGTON ST","New Haven","CT",""
20311,"33 KENSINGTON ST","New Haven","CT",""
20312,"37 KENSINGTON ST","New Haven","CT",""
20313,"41 KENSINGTON ST","New Haven","CT",""
20314,"45 KENSINGTON ST","New Haven","CT",""
20315,"49 KENSINGTON ST","New Haven","CT",""
20316,"55 KENSINGTON ST","New Haven","CT",""
20317,"59 KENSINGTON ST","New Haven","CT",""
20318,"166 EDGEWOOD AV","New Haven","CT",""
20319,"164 EDGEWOOD AV","New Haven","CT",""
20320,"162 EDGEWOOD AV","New Haven","CT",""
20321,"206 DAY ST","New Haven","CT",""
20322,"1327 CHAPEL ST","New Haven","CT",""
20323,"1331 CHAPEL ST","New Haven","CT",""
20324,"1335 CHAPEL ST","New Haven","CT",""
20325,"1339 CHAPEL ST","New Haven","CT",""
20326,"1343 CHAPEL ST","New Haven","CT",""
20327,"235 EDGEWOOD AV","New Haven","CT",""
20328,"71 BEERS ST","New Haven","CT",""
20329,"77 BEERS ST","New Haven","CT",""
20330,"81 BEERS ST","New Haven","CT",""
20331,"85 BEERS ST","New Haven","CT",""
20332,"89 BEERS ST","New Haven","CT",""
20333,"93 BEERS ST","New Haven","CT",""
20334,"97 BEERS ST","New Haven","CT",""
20335,"101 BEERS ST","New Haven","CT",""
20336,"105 BEERS ST","New Haven","CT",""
20337,"109 BEERS ST","New Haven","CT",""
20338,"590 ELM ST","New Haven","CT",""
20339,"584 ELM ST","New Haven","CT",""
20340,"580 ELM ST","New Haven","CT",""
20341,"572 ELM ST","New Haven","CT",""
20342,"570 ELM ST","New Haven","CT",""
20343,"456 ORCHARD ST","New Haven","CT",""
20344,"450 ORCHARD ST","New Haven","CT",""
20345,"448 ORCHARD ST","New Haven","CT",""
20346,"444 ORCHARD ST","New Haven","CT",""
20347,"440 ORCHARD ST","New Haven","CT",""
20348,"436 ORCHARD ST","New Haven","CT",""
20349,"432 ORCHARD ST","New Haven","CT",""
20350,"428 ORCHARD ST","New Haven","CT",""
20351,"ORCHARD ST","New Haven","CT",""
20352,"424 ORCHARD ST","New Haven","CT",""
20353,"420 ORCHARD ST","New Haven","CT",""
20354,"414 ORCHARD ST","New Haven","CT",""
20355,"410 ORCHARD ST","New Haven","CT",""
20356,"227 EDGEWOOD AV","New Haven","CT",""
20357,"229 EDGEWOOD AV","New Haven","CT",""
20358,NA,"New Haven","CT",""
20359,"233 EDGEWOOD AV","New Haven","CT",""
20360,"215 EDGEWOOD AV","New Haven","CT",""
20361,NA,"New Haven","CT",""
20362,"ORCHARD ST","New Haven","CT",""
20363,"423 ORCHARD ST","New Haven","CT",""
20364,"435 ORCHARD ST #A-1","New Haven","CT",""
20365,"435 ORCHARD ST #A-2","New Haven","CT",""
20366,"435 ORCHARD ST #A-3","New Haven","CT",""
20367,"435 ORCHARD ST #A-4","New Haven","CT",""
20368,"435 ORCHARD ST #A-5","New Haven","CT",""
20369,"435 ORCHARD ST #B-6","New Haven","CT",""
20370,"435 ORCHARD ST #B-7","New Haven","CT",""
20371,"435 ORCHARD ST #B-8","New Haven","CT",""
20372,"435 ORCHARD ST #B-9","New Haven","CT",""
20373,"437 ORCHARD ST","New Haven","CT",""
20374,"441 ORCHARD ST","New Haven","CT",""
20375,"445 ORCHARD ST","New Haven","CT",""
20376,"449 ORCHARD ST","New Haven","CT",""
20377,"453 ORCHARD ST","New Haven","CT",""
20378,"457 ORCHARD ST","New Haven","CT",""
20379,"461 ORCHARD ST","New Haven","CT",""
20380,"558 ELM ST","New Haven","CT",""
20381,"554 ELM ST","New Haven","CT",""
20382,"544 ELM ST","New Haven","CT",""
20383,"540 ELM ST","New Haven","CT",""
20384,"536 ELM ST","New Haven","CT",""
20385,"530 ELM ST","New Haven","CT",""
20386,"110 KENSINGTON ST","New Haven","CT",""
20387,"106 KENSINGTON ST","New Haven","CT",""
20388,"100 KENSINGTON ST","New Haven","CT",""
20389,"96 KENSINGTON ST","New Haven","CT",""
20390,"92 KENSINGTON ST","New Haven","CT",""
20391,"88 KENSINGTON ST","New Haven","CT",""
20392,"86 KENSINGTON ST","New Haven","CT",""
20393,"84 KENSINGTON ST","New Haven","CT",""
20394,"76 KENSINGTON ST","New Haven","CT",""
20395,"72 KENSINGTON ST","New Haven","CT",""
20396,"66 KENSINGTON ST","New Haven","CT",""
20397,"191 EDGEWOOD AV","New Haven","CT",""
20398,"197 EDGEWOOD AV","New Haven","CT",""
20399,"201 EDGEWOOD AV","New Haven","CT",""
20400,"EDGEWOOD AV","New Haven","CT",""
20401,"203 EDGEWOOD AV","New Haven","CT",""
20402,"EDGEWOOD AV","New Haven","CT",""
20403,"207 EDGEWOOD AV","New Haven","CT",""
20404,"EDGEWOOD AV","New Haven","CT",""
20405,"211 EDGEWOOD AV","New Haven","CT",""
20406,"65 KENSINGTON ST","New Haven","CT",""
20407,"73 KENSINGTON ST","New Haven","CT",""
20408,"79 KENSINGTON ST","New Haven","CT",""
20409,"83 KENSINGTON ST","New Haven","CT",""
20410,"87 KENSINGTON ST","New Haven","CT",""
20411,"91 KENSINGTON ST","New Haven","CT",""
20412,"95 KENSINGTON ST","New Haven","CT",""
20413,"99 KENSINGTON ST","New Haven","CT",""
20414,"103 KENSINGTON ST","New Haven","CT",""
20415,"107 KENSINGTON ST","New Haven","CT",""
20416,"111 KENSINGTON ST","New Haven","CT",""
20417,"522 ELM ST","New Haven","CT",""
20418,"520 ELM ST","New Haven","CT",""
20419,"516 ELM ST","New Haven","CT",""
20420,"512 ELM ST","New Haven","CT",""
20421,"506 ELM ST","New Haven","CT",""
20422,"502 ELM ST","New Haven","CT",""
20423,"496 ELM ST","New Haven","CT",""
20424,"494 ELM ST","New Haven","CT",""
20425,"492 ELM ST","New Haven","CT",""
20426,"32 GARDEN ST","New Haven","CT",""
20427,"30 GARDEN ST","New Haven","CT",""
20428,"28 GARDEN ST","New Haven","CT",""
20429,"26 GARDEN ST","New Haven","CT",""
20430,"22 GARDEN ST","New Haven","CT",""
20431,"18 GARDEN ST","New Haven","CT",""
20432,"14 GARDEN ST","New Haven","CT",""
20433,"10 GARDEN ST","New Haven","CT",""
20434,"8 GARDEN ST","New Haven","CT",""
20435,"6 GARDEN ST","New Haven","CT",""
20436,"4 GARDEN ST","New Haven","CT",""
20437,"2 GARDEN ST","New Haven","CT",""
20438,"157 EDGEWOOD AV","New Haven","CT",""
20439,"161 EDGEWOOD AV","New Haven","CT",""
20440,"167 EDGEWOOD AV","New Haven","CT",""
20441,"171 EDGEWOOD AV","New Haven","CT",""
20442,"177 EDGEWOOD AV","New Haven","CT",""
20443,"730 GEORGE ST","New Haven","CT",""
20444,"708 GEORGE ST","New Haven","CT",""
20445,"706 GEORGE ST","New Haven","CT",""
20446,"114 SHERMAN AV","New Haven","CT",""
20447,"110 SHERMAN AV","New Haven","CT",""
20448,"106 SHERMAN AV","New Haven","CT",""
20449,"104 SHERMAN AV","New Haven","CT",""
20450,"98 SHERMAN AV","New Haven","CT",""
20451,"96 SHERMAN AV","New Haven","CT",""
20452,"145 GILBERT AV","New Haven","CT",""
20453,NA,"New Haven","CT",""
20454,NA,"New Haven","CT",""
20455,"155 GILBERT AV","New Haven","CT",""
20456,"161 GILBERT AV","New Haven","CT",""
20457,"165 GILBERT AV","New Haven","CT",""
20458,"169 GILBERT AV","New Haven","CT",""
20459,"239 WINTHROP AV","New Haven","CT",""
20460,"243 WINTHROP AV","New Haven","CT",""
20461,"111 SHERMAN AV","New Haven","CT",""
20462,"670 GEORGE ST","New Haven","CT",""
20463,"666 GEORGE ST","New Haven","CT",""
20464,"660 GEORGE ST","New Haven","CT",""
20465,"652 GEORGE ST","New Haven","CT",""
20466,"648 GEORGE ST","New Haven","CT",""
20467,"646 GEORGE ST","New Haven","CT",""
20468,"160 GREENWOOD ST","New Haven","CT",""
20469,"158 GREENWOOD ST","New Haven","CT",""
20470,"152 GREENWOOD ST","New Haven","CT",""
20471,"148 GREENWOOD ST","New Haven","CT",""
20472,"85 GILBERT AV","New Haven","CT",""
20473,"89 GILBERT AV","New Haven","CT",""
20474,"95 GILBERT AV","New Haven","CT",""
20475,"101 GILBERT AV","New Haven","CT",""
20476,"97 SHERMAN AV","New Haven","CT",""
20477,"99 SHERMAN AV","New Haven","CT",""
20478,"101 SHERMAN AV","New Haven","CT",""
20479,"105 SHERMAN AV","New Haven","CT",""
20480,"107 SHERMAN AV","New Haven","CT",""
20481,"36 DERBY AV","New Haven","CT",""
20482,"34 BATTER TER","New Haven","CT",""
20483,"28 BATTER TER","New Haven","CT",""
20484,"24 BATTER TER","New Haven","CT",""
20485,"20 BATTER TER","New Haven","CT",""
20486,"14 BATTER TER","New Haven","CT",""
20487,"10 BATTER TER","New Haven","CT",""
20488,"723 GEORGE ST","New Haven","CT",""
20489,"727 GEORGE ST","New Haven","CT",""
20490,"731 GEORGE ST","New Haven","CT",""
20491,"261 WINTHROP AV","New Haven","CT",""
20492,"265 WINTHROP AV","New Haven","CT",""
20493,"267 WINTHROP AV","New Haven","CT",""
20494,"269 WINTHROP AV","New Haven","CT",""
20495,"273 WINTHROP AV","New Haven","CT",""
20496,"14 DERBY AV","New Haven","CT",""
20497,"6 DERBY AV","New Haven","CT",""
20498,"2 DERBY AV","New Haven","CT",""
20499,"1492 CHAPEL ST","New Haven","CT",""
20500,"1488 CHAPEL ST","New Haven","CT",""
20501,"1484 CHAPEL ST","New Haven","CT",""
20502,"1476 CHAPEL ST","New Haven","CT",""
20503,"1470 CHAPEL ST","New Haven","CT",""
20504,"136 SHERMAN AV","New Haven","CT",""
20505,"126 SHERMAN AV","New Haven","CT",""
20506,"120 SHERMAN AV","New Haven","CT",""
20507,"116 SHERMAN AV","New Haven","CT",""
20508,"703 GEORGE ST","New Haven","CT",""
20509,"705 GEORGE ST","New Haven","CT",""
20510,"707 GEORGE ST","New Haven","CT",""
20511,"713 GEORGE ST","New Haven","CT",""
20512,"7 BATTER TER","New Haven","CT",""
20513,"13 BATTER TER","New Haven","CT",""
20514,"17 BATTER TER","New Haven","CT",""
20515,"21 BATTER TER","New Haven","CT",""
20516,"25 BATTER TER","New Haven","CT",""
20517,"31 BATTER TER","New Haven","CT",""
20518,"1450 CHAPEL ST","New Haven","CT",""
20519,"330 ORCHARD ST","New Haven","CT",""
20520,"330 ORCHARD ST","New Haven","CT",""
20521,"629 GEORGE ST","New Haven","CT",""
20522,"629 GEORGE ST","New Haven","CT",""
20523,"WINTHROP AV","New Haven","CT",""
20524,"1485 CHAPEL ST","New Haven","CT",""
20525,"15 HOTCHKISS ST","New Haven","CT",""
20526,"17 HOTCHKISS ST","New Haven","CT",""
20527,"19 HOTCHKISS ST","New Haven","CT",""
20528,"23 HOTCHKISS ST","New Haven","CT",""
20529,"37 HOTCHKISS ST","New Haven","CT",""
20530,"41 HOTCHKISS ST","New Haven","CT",""
20531,"45 HOTCHKISS ST","New Haven","CT",""
20532,"51 HOTCHKISS ST","New Haven","CT",""
20533,"312 EDGEWOOD AV","New Haven","CT",""
20534,"308 EDGEWOOD AV","New Haven","CT",""
20535,"208 SHERMAN AV","New Haven","CT",""
20536,"202 SHERMAN AV","New Haven","CT",""
20537,"198 SHERMAN AV","New Haven","CT",""
20538,"192 SHERMAN AV","New Haven","CT",""
20539,NA,"New Haven","CT",""
20540,"186 SHERMAN AV","New Haven","CT",""
20541,"178 SHERMAN AV","New Haven","CT",""
20542,"174 SHERMAN AV","New Haven","CT",""
20543,"170 SHERMAN AV","New Haven","CT",""
20544,"1471 CHAPEL ST","New Haven","CT",""
20545,"1475 CHAPEL ST","New Haven","CT",""
20546,"1481 CHAPEL ST","New Haven","CT",""
20547,"175 SHERMAN AV","New Haven","CT",""
20548,"SHERMAN AV","New Haven","CT",""
20549,"189 SHERMAN AV #27","New Haven","CT",""
20550,"189 SHERMAN AV #26","New Haven","CT",""
20551,"189 SHERMAN AV #25","New Haven","CT",""
20552,"189 SHERMAN AV #24","New Haven","CT",""
20553,"189 SHERMAN AV #23","New Haven","CT",""
20554,"189 SHERMAN AV #22","New Haven","CT",""
20555,"189 SHERMAN AV #21","New Haven","CT",""
20556,"189 SHERMAN AV #20","New Haven","CT",""
20557,"189 SHERMAN AV #19","New Haven","CT",""
20558,"189 SHERMAN AV #18","New Haven","CT",""
20559,"189 SHERMAN AV #17","New Haven","CT",""
20560,"189 SHERMAN AV #16","New Haven","CT",""
20561,"189 SHERMAN AV #15","New Haven","CT",""
20562,"189 SHERMAN AV #14","New Haven","CT",""
20563,"189 SHERMAN AV #13","New Haven","CT",""
20564,"189 SHERMAN AV #12","New Haven","CT",""
20565,"189 SHERMAN AV #11","New Haven","CT",""
20566,"189 SHERMAN AV #10","New Haven","CT",""
20567,"189 SHERMAN AV #9","New Haven","CT",""
20568,"189 SHERMAN AV #8","New Haven","CT",""
20569,"189 SHERMAN AV #7","New Haven","CT",""
20570,"189 SHERMAN AV #6","New Haven","CT",""
20571,"189 SHERMAN AV #5","New Haven","CT",""
20572,"189 SHERMAN AV #4","New Haven","CT",""
20573,"189 SHERMAN AV #3","New Haven","CT",""
20574,"189 SHERMAN AV #2","New Haven","CT",""
20575,"189 SHERMAN AV #1","New Haven","CT",""
20576,"191 SHERMAN AV","New Haven","CT",""
20577,"195 SHERMAN AV","New Haven","CT",""
20578,"201 SHERMAN AV","New Haven","CT",""
20579,"205 SHERMAN AV","New Haven","CT",""
20580,"209 SHERMAN AV","New Haven","CT",""
20581,"209 SHERMAN AV","New Haven","CT",""
20582,"274 EDGEWOOD AV","New Haven","CT",""
20583,"270 EDGEWOOD AV","New Haven","CT",""
20584,"266 EDGEWOOD AV","New Haven","CT",""
20585,"260 EDGEWOOD AV","New Haven","CT",""
20586,"256 EDGEWOOD AV","New Haven","CT",""
20587,"248 EDGEWOOD AV","New Haven","CT",""
20588,"244 EDGEWOOD AV","New Haven","CT",""
20589,"52 BEERS ST","New Haven","CT",""
20590,"46 BEERS ST","New Haven","CT",""
20591,"42 BEERS ST","New Haven","CT",""
20592,"34 BEERS ST","New Haven","CT",""
20593,"30 BEERS ST","New Haven","CT",""
20594,"1423 CHAPEL ST #B-A","New Haven","CT",""
20595,"1423 CHAPEL ST #1-A","New Haven","CT",""
20596,"1423 CHAPEL ST #1-B","New Haven","CT",""
20597,"1423 CHAPEL ST #2-A","New Haven","CT",""
20598,"1423 CHAPEL ST #2-B","New Haven","CT",""
20599,"1423 CHAPEL ST #2-C","New Haven","CT",""
20600,"1423 CHAPEL ST #3-A","New Haven","CT",""
20601,"1423 CHAPEL ST #3-B","New Haven","CT",""
20602,"1423 CHAPEL ST #3-C","New Haven","CT",""
20603,"1427 CHAPEL ST","New Haven","CT",""
20604,"1435 CHAPEL ST","New Haven","CT",""
20605,"1441 CHAPEL ST","New Haven","CT",""
20606,"1447 CHAPEL ST","New Haven","CT",""
20607,"1455 CHAPEL ST","New Haven","CT",""
20608,"285 EDGEWOOD AV","New Haven","CT",""
20609,"221 SHERMAN AV","New Haven","CT",""
20610,"225 SHERMAN AV","New Haven","CT",""
20611,"227 SHERMAN AV","New Haven","CT",""
20612,"231 SHERMAN AV","New Haven","CT",""
20613,"235 SHERMAN AV","New Haven","CT",""
20614,"239 SHERMAN AV","New Haven","CT",""
20615,"241 SHERMAN AV","New Haven","CT",""
20616,"243 SHERMAN AV","New Haven","CT",""
20617,"251 SHERMAN AV","New Haven","CT",""
20618,"255 SHERMAN AV","New Haven","CT",""
20619,"648 ELM ST","New Haven","CT",""
20620,"642 ELM ST","New Haven","CT",""
20621,"638 ELM ST","New Haven","CT",""
20622,"632 ELM ST","New Haven","CT",""
20623,"50 PLATT ST","New Haven","CT",""
20624,"46 PLATT ST","New Haven","CT",""
20625,"42 PLATT ST","New Haven","CT",""
20626,"32 PLATT ST","New Haven","CT",""
20627,"30 PLATT ST","New Haven","CT",""
20628,"26 PLATT ST","New Haven","CT",""
20629,"20 PLATT ST","New Haven","CT",""
20630,"275 EDGEWOOD AV","New Haven","CT",""
20631,"259 EDGEWOOD AV","New Haven","CT",""
20632,"ELM ST","New Haven","CT",""
20633,"393 WINTHROP AV","New Haven","CT",""
20634,"694 ELM ST","New Haven","CT",""
20635,"688 ELM ST","New Haven","CT",""
20636,"684 ELM ST","New Haven","CT",""
20637,"676 ELM ST","New Haven","CT",""
20638,"674 ELM ST","New Haven","CT",""
20639,"672 ELM ST","New Haven","CT",""
20640,"262 SHERMAN AV","New Haven","CT",""
20641,"258 SHERMAN AV","New Haven","CT",""
20642,"256 SHERMAN AV","New Haven","CT",""
20643,"250 SHERMAN AV","New Haven","CT",""
20644,"248 SHERMAN AV","New Haven","CT",""
20645,"244 SHERMAN AV","New Haven","CT",""
20646,"15 MAPLE ST","New Haven","CT",""
20647,"21 MAPLE ST","New Haven","CT",""
20648,"25 MAPLE ST","New Haven","CT",""
20649,"29 MAPLE ST","New Haven","CT",""
20650,"33 MAPLE ST","New Haven","CT",""
20651,"37 MAPLE ST","New Haven","CT",""
20652,"41 MAPLE ST","New Haven","CT",""
20653,"373 WINTHROP AV","New Haven","CT",""
20654,"375 WINTHROP AV","New Haven","CT",""
20655,"379 WINTHROP AV","New Haven","CT",""
20656,"383 WINTHROP AV","New Haven","CT",""
20657,"385 WINTHROP AV","New Haven","CT",""
20658,"389 WINTHROP AV","New Haven","CT",""
20659,"346 WHALLEY AV","New Haven","CT",""
20660,"336 WHALLEY AV","New Haven","CT",""
20661,"332 WHALLEY AV","New Haven","CT",""
20662,"320 WHALLEY AV","New Haven","CT",""
20663,"WHALLEY AV","New Haven","CT",""
20664,"312 WHALLEY AV","New Haven","CT",""
20665,"292 WHALLEY AV","New Haven","CT",""
20666,"290 SHERMAN AV","New Haven","CT",""
20667,"286 SHERMAN AV","New Haven","CT",""
20668,"282 SHERMAN AV","New Haven","CT",""
20669,"278 SHERMAN AV","New Haven","CT",""
20670,"274 SHERMAN AV","New Haven","CT",""
20671,"268 SHERMAN AV","New Haven","CT",""
20672,"669 ELM ST","New Haven","CT",""
20673,"673 ELM ST","New Haven","CT",""
20674,"677 ELM ST","New Haven","CT",""
20675,"683 ELM ST","New Haven","CT",""
20676,"687 ELM ST","New Haven","CT",""
20677,"691 ELM ST","New Haven","CT",""
20678,"693 ELM ST","New Haven","CT",""
20679,"697 ELM ST","New Haven","CT",""
20680,"701 ELM ST","New Haven","CT",""
20681,"705 ELM ST","New Haven","CT",""
20682,"407 WINTHROP AV","New Haven","CT",""
20683,"711 ELM ST","New Haven","CT",""
20684,"409 WINTHROP AV","New Haven","CT",""
20685,"413 WINTHROP AV","New Haven","CT",""
20686,"417 WINTHROP AV","New Haven","CT",""
20687,"421 WINTHROP AV","New Haven","CT",""
20688,"425 WINTHROP AV","New Haven","CT",""
20689,"280 WHALLEY AV","New Haven","CT",""
20690,"277 SHERMAN AV","New Haven","CT",""
20691,"250 WHALLEY AV","New Haven","CT",""
20692,"242 WHALLEY AV","New Haven","CT",""
20693,"613 ELM ST","New Haven","CT",""
20694,"238 WHALLEY AV","New Haven","CT",""
20695,"226 WHALLEY AV","New Haven","CT",""
20696,NA,"New Haven","CT",""
20697,"220 WHALLEY AV","New Haven","CT",""
20698,"ORCHARD ST","New Haven","CT",""
20699,"214 WHALLEY AV","New Haven","CT",""
20700,"208 WHALLEY AV","New Haven","CT",""
20701,"202 WHALLEY AV","New Haven","CT",""
20702,"508 ORCHARD ST","New Haven","CT",""
20703,"502 ORCHARD ST","New Haven","CT",""
20704,"496 ORCHARD ST","New Haven","CT",""
20705,"490 ORCHARD ST","New Haven","CT",""
20706,"569 ELM ST","New Haven","CT",""
20707,"571 ELM ST","New Haven","CT",""
20708,"577 ELM ST","New Haven","CT",""
20709,"581 ELM ST","New Haven","CT",""
20710,"587 ELM ST","New Haven","CT",""
20711,"591 ELM ST","New Haven","CT",""
20712,"599 ELM ST","New Haven","CT",""
20713,"601 ELM ST","New Haven","CT",""
20714,"607 ELM ST","New Haven","CT",""
20715,"609 ELM ST","New Haven","CT",""
20716,"611 ELM ST","New Haven","CT",""
20717,"617 ELM ST","New Haven","CT",""
20718,"621 ELM ST","New Haven","CT",""
20719,"625 ELM ST","New Haven","CT",""
20720,"631 ELM ST","New Haven","CT",""
20721,"635 ELM ST","New Haven","CT",""
20722,"639 ELM ST","New Haven","CT",""
20723,"271 SHERMAN AV","New Haven","CT",""
20724,"273 SHERMAN AV","New Haven","CT",""
20725,"275 SHERMAN AV","New Haven","CT",""
20726,"285 WHALLEY AV","New Haven","CT",""
20727,"315 SHERMAN AV","New Haven","CT",""
20728,"319 SHERMAN AV","New Haven","CT",""
20729,"323 SHERMAN AV","New Haven","CT",""
20730,"327 SHERMAN AV","New Haven","CT",""
20731,"333 SHERMAN AV","New Haven","CT",""
20732,"335 SHERMAN AV","New Haven","CT",""
20733,"339 SHERMAN AV","New Haven","CT",""
20734,"343 SHERMAN AV","New Haven","CT",""
20735,"347 SHERMAN AV","New Haven","CT",""
20736,"349 SHERMAN AV","New Haven","CT",""
20737,"351 SHERMAN AV","New Haven","CT",""
20738,"355 SHERMAN AV","New Haven","CT",""
20739,"357 SHERMAN AV","New Haven","CT",""
20740,"359 SHERMAN AV","New Haven","CT",""
20741,"361 SHERMAN AV","New Haven","CT",""
20742,"363 SHERMAN AV","New Haven","CT",""
20743,"369 SHERMAN AV","New Haven","CT",""
20744,"371 SHERMAN AV","New Haven","CT",""
20745,"375 SHERMAN AV","New Haven","CT",""
20746,"379 SHERMAN AV","New Haven","CT",""
20747,"383 SHERMAN AV","New Haven","CT",""
20748,"387 SHERMAN AV","New Haven","CT",""
20749,"391 SHERMAN AV","New Haven","CT",""
20750,"395 SHERMAN AV","New Haven","CT",""
20751,"401 SHERMAN AV","New Haven","CT",""
20752,"310 GOFFE ST","New Haven","CT",""
20753,"308 GOFFE ST","New Haven","CT",""
20754,"304 GOFFE ST","New Haven","CT",""
20755,"94 HUDSON ST","New Haven","CT",""
20756,"92 HUDSON ST","New Haven","CT",""
20757,"90 HUDSON ST","New Haven","CT",""
20758,"88 HUDSON ST","New Haven","CT",""
20759,"86 HUDSON ST","New Haven","CT",""
20760,"84 HUDSON ST","New Haven","CT",""
20761,"82 HUDSON ST","New Haven","CT",""
20762,"80 HUDSON ST","New Haven","CT",""
20763,"78 HUDSON ST","New Haven","CT",""
20764,"76 HUDSON ST","New Haven","CT",""
20765,"76 HUDSON ST","New Haven","CT",""
20766,"72 HUDSON ST","New Haven","CT",""
20767,"66 HUDSON ST","New Haven","CT",""
20768,"62 HUDSON ST","New Haven","CT",""
20769,"58 HUDSON ST","New Haven","CT",""
20770,"54 HUDSON ST","New Haven","CT",""
20771,"46 HUDSON ST","New Haven","CT",""
20772,"40 HUDSON ST","New Haven","CT",""
20773,"36 HUDSON ST","New Haven","CT",""
20774,"32 HUDSON ST","New Haven","CT",""
20775,"30 HUDSON ST","New Haven","CT",""
20776,NA,"New Haven","CT",""
20777,"24 HUDSON ST","New Haven","CT",""
20778,NA,"New Haven","CT",""
20779,"18 HUDSON ST","New Haven","CT",""
20780,"10 HUDSON ST","New Haven","CT",""
20781,"271 WHALLEY AV","New Haven","CT",""
20782,"281 WHALLEY AV","New Haven","CT",""
20783,"245 WHALLEY AV","New Haven","CT",""
20784,"280 GOFFE ST","New Haven","CT",""
20785,"223 WHALLEY AV","New Haven","CT",""
20786,NA,"New Haven","CT",""
20787,"27 COUNTY ST","New Haven","CT",""
20788,"31 COUNTY ST","New Haven","CT",""
20789,"35 COUNTY ST","New Haven","CT",""
20790,"39 COUNTY ST","New Haven","CT",""
20791,"45 COUNTY ST","New Haven","CT",""
20792,"53 COUNTY ST","New Haven","CT",""
20793,"57 COUNTY ST","New Haven","CT",""
20794,"63 COUNTY ST","New Haven","CT",""
20795,"67 COUNTY ST","New Haven","CT",""
20796,"69 COUNTY ST","New Haven","CT",""
20797,"71 COUNTY ST","New Haven","CT",""
20798,"75 COUNTY ST","New Haven","CT",""
20799,"254 GOFFE ST","New Haven","CT",""
20800,"244 GOFFE ST #244","New Haven","CT",""
20801,"246 GOFFE ST #246","New Haven","CT",""
20802,"248 GOFFE ST #428","New Haven","CT",""
20803,"250 GOFFE ST #250","New Haven","CT",""
20804,"606 ORCHARD ST #606","New Haven","CT",""
20805,"608 ORCHARD ST #608","New Haven","CT",""
20806,"610 ORCHARD ST #610","New Haven","CT",""
20807,"612 ORCHARD ST #612","New Haven","CT",""
20808,"614 ORCHARD ST #614","New Haven","CT",""
20809,"616 ORCHARD ST #616","New Haven","CT",""
20810,"618 ORCHARD ST #618","New Haven","CT",""
20811,"600 ORCHARD ST","New Haven","CT",""
20812,"596 ORCHARD ST","New Haven","CT",""
20813,"590 ORCHARD ST","New Haven","CT",""
20814,"586 ORCHARD ST","New Haven","CT",""
20815,"580 ORCHARD ST","New Haven","CT",""
20816,"576 ORCHARD ST","New Haven","CT",""
20817,"570 ORCHARD ST","New Haven","CT",""
20818,"566 ORCHARD ST","New Haven","CT",""
20819,"560 ORCHARD ST","New Haven","CT",""
20820,"558 ORCHARD ST","New Haven","CT",""
20821,"554 ORCHARD ST","New Haven","CT",""
20822,NA,"New Haven","CT",""
20823,NA,"New Haven","CT",""
20824,NA,"New Haven","CT",""
20825,"215 WHALLEY AV","New Haven","CT",""
20826,NA,"New Haven","CT",""
20827,NA,"New Haven","CT",""
20828,NA,"New Haven","CT",""
20829,"460 SHERMAN PKWY","New Haven","CT",""
20830,"GOFFE ST","New Haven","CT",""
20831,"223 HENRY ST","New Haven","CT",""
20832,"471 SHERMAN PKWY","New Haven","CT",""
20833,"475 SHERMAN PKWY","New Haven","CT",""
20834,"481 SHERMAN PKWY","New Haven","CT",""
20835,"485 SHERMAN PKWY","New Haven","CT",""
20836,"489 SHERMAN PKWY","New Haven","CT",""
20837,"491 SHERMAN PKWY","New Haven","CT",""
20838,"495 SHERMAN PKWY","New Haven","CT",""
20839,"499 SHERMAN PKWY","New Haven","CT",""
20840,"503 SHERMAN PKWY","New Haven","CT",""
20841,"507 SHERMAN PKWY","New Haven","CT",""
20842,"354 MUNSON ST","New Haven","CT",""
20843,"352 MUNSON ST","New Haven","CT",""
20844,"348 MUNSON ST","New Haven","CT",""
20845,"220 COUNTY ST","New Haven","CT",""
20846,"213 HENRY ST","New Haven","CT",""
20847,"215 HENRY ST","New Haven","CT",""
20848,"217 HENRY ST","New Haven","CT",""
20849,"CRESCENT ST","New Haven","CT",""
20850,"710 SHERMAN PKWY","New Haven","CT",""
20851,"FITCH ST","New Haven","CT",""
20852,"399 CRESCENT ST","New Haven","CT",""
20853,"104 WILLIS ST","New Haven","CT",""
20854,"100 WILLIS ST","New Haven","CT",""
20855,"90 WILLIS ST","New Haven","CT",""
20856,"84 WILLIS ST","New Haven","CT",""
20857,"82 WILLIS ST","New Haven","CT",""
20858,"832 SHERMAN AV","New Haven","CT",""
20859,NA,"New Haven","CT",""
20860,"824 SHERMAN AV","New Haven","CT",""
20861,"580 DIXWELL AV","New Haven","CT",""
20862,"280 WEST HAZEL ST","New Haven","CT",""
20863,"276 WEST HAZEL ST","New Haven","CT",""
20864,"270 WEST HAZEL ST","New Haven","CT",""
20865,"266 WEST HAZEL ST","New Haven","CT",""
20866,"260 WEST HAZEL ST","New Haven","CT",""
20867,"256 WEST HAZEL ST","New Haven","CT",""
20868,"252 WEST HAZEL ST","New Haven","CT",""
20869,"248 WEST HAZEL ST","New Haven","CT",""
20870,"246 WEST HAZEL ST","New Haven","CT",""
20871,"242 WEST HAZEL ST","New Haven","CT",""
20872,"238 WEST HAZEL ST","New Haven","CT",""
20873,"232 WEST HAZEL ST","New Haven","CT",""
20874,"228 WEST HAZEL ST","New Haven","CT",""
20875,"612 DIXWELL AV","New Haven","CT",""
20876,"604 DIXWELL AV","New Haven","CT",""
20877,"608 DIXWELL AV","New Haven","CT",""
20878,"273 WEST HAZEL ST","New Haven","CT",""
20879,"292 WEST IVY ST","New Haven","CT",""
20880,"288 WEST IVY ST","New Haven","CT",""
20881,"282 WEST IVY ST","New Haven","CT",""
20882,"280 WEST IVY ST","New Haven","CT",""
20883,"276 WEST IVY ST","New Haven","CT",""
20884,"272 WEST IVY ST","New Haven","CT",""
20885,"268 WEST IVY ST","New Haven","CT",""
20886,"264 WEST IVY ST","New Haven","CT",""
20887,"262 WEST IVY ST","New Haven","CT",""
20888,"256 WEST IVY ST","New Haven","CT",""
20889,"254 WEST IVY ST","New Haven","CT",""
20890,"250 WEST IVY ST","New Haven","CT",""
20891,"248 WEST IVY ST","New Haven","CT",""
20892,"242 WEST IVY ST","New Haven","CT",""
20893,"238 WEST IVY ST","New Haven","CT",""
20894,"646 DIXWELL AV","New Haven","CT",""
20895,"634 DIXWELL AV","New Haven","CT",""
20896,"632 DIXWELL AV","New Haven","CT",""
20897,"630 DIXWELL AV","New Haven","CT",""
20898,"624 DIXWELL AV","New Haven","CT",""
20899,"620 DIXWELL AV","New Haven","CT",""
20900,"231 WEST HAZEL ST","New Haven","CT",""
20901,"235 WEST HAZEL ST","New Haven","CT",""
20902,"239 WEST HAZEL ST","New Haven","CT",""
20903,"243 WEST HAZEL ST","New Haven","CT",""
20904,"247 WEST HAZEL ST","New Haven","CT",""
20905,"251 WEST HAZEL ST","New Haven","CT",""
20906,"255 WEST HAZEL ST","New Haven","CT",""
20907,"259 WEST HAZEL ST","New Haven","CT",""
20908,"263 WEST HAZEL ST","New Haven","CT",""
20909,"267 WEST HAZEL ST","New Haven","CT",""
20910,"291 WEST IVY ST","New Haven","CT",""
20911,"807 SHERMAN AV","New Haven","CT",""
20912,"664 DIXWELL AV","New Haven","CT",""
20913,"819 SHERMAN AV","New Haven","CT",""
20914,"54 WILLIS ST","New Haven","CT",""
20915,"52 WILLIS ST","New Haven","CT",""
20916,"50 WILLIS ST","New Haven","CT",""
20917,"48 WILLIS ST","New Haven","CT",""
20918,"46 WILLIS ST","New Haven","CT",""
20919,"44 WILLIS ST","New Haven","CT",""
20920,"42 WILLIS ST","New Haven","CT",""
20921,"40 WILLIS ST","New Haven","CT",""
20922,"38 WILLIS ST","New Haven","CT",""
20923,"34 WILLIS ST","New Haven","CT",""
20924,"28 WILLIS ST","New Haven","CT",""
20925,"26 WILLIS ST","New Haven","CT",""
20926,"24 WILLIS ST","New Haven","CT",""
20927,"20 WILLIS ST","New Haven","CT",""
20928,"16 WILLIS ST","New Haven","CT",""
20929,"680 DIXWELL AV","New Haven","CT",""
20930,"672 DIXWELL AV","New Haven","CT",""
20931,"658 DIXWELL AV","New Haven","CT",""
20932,"654 DIXWELL AV","New Haven","CT",""
20933,"650 DIXWELL AV","New Haven","CT",""
20934,"235 WEST IVY ST","New Haven","CT",""
20935,"241 WEST IVY ST","New Haven","CT",""
20936,"247 WEST IVY ST","New Haven","CT",""
20937,"253 WEST IVY ST","New Haven","CT",""
20938,"255 WEST IVY ST","New Haven","CT",""
20939,"257 WEST IVY ST","New Haven","CT",""
20940,"261 WEST IVY ST","New Haven","CT",""
20941,"265 WEST IVY ST","New Haven","CT",""
20942,"269 WEST IVY ST","New Haven","CT",""
20943,"273 WEST IVY ST","New Haven","CT",""
20944,"277 WEST IVY ST","New Haven","CT",""
20945,"281 WEST IVY ST","New Haven","CT",""
20946,"287 WEST IVY ST","New Haven","CT",""
20947,"330 BASSETT ST","New Haven","CT",""
20948,"326 BASSETT ST","New Haven","CT",""
20949,"322 BASSETT ST","New Haven","CT",""
20950,"318 BASSETT ST","New Haven","CT",""
20951,"316 BASSETT ST","New Haven","CT",""
20952,"BASSETT ST","New Haven","CT",""
20953,"314 BASSETT ST","New Haven","CT",""
20954,"310 BASSETT ST","New Haven","CT",""
20955,"71 WILLIS ST","New Haven","CT",""
20956,"75 WILLIS ST","New Haven","CT",""
20957,"79 WILLIS ST","New Haven","CT",""
20958,"83 WILLIS ST","New Haven","CT",""
20959,"87 WILLIS ST","New Haven","CT",""
20960,"91 WILLIS ST","New Haven","CT",""
20961,"95 WILLIS ST","New Haven","CT",""
20962,"65 WILLIS ST","New Haven","CT",""
20963,"300 BASSETT ST","New Haven","CT",""
20964,"296 BASSETT ST","New Haven","CT",""
20965,"294 BASSETT ST","New Haven","CT",""
20966,"290 BASSETT ST","New Haven","CT",""
20967,"284 BASSETT ST","New Haven","CT",""
20968,"280 BASSETT ST","New Haven","CT",""
20969,"276 BASSETT ST","New Haven","CT",""
20970,"272 BASSETT ST","New Haven","CT",""
20971,"270 BASSETT ST","New Haven","CT",""
20972,"264 BASSETT ST","New Haven","CT",""
20973,"262 BASSETT ST","New Haven","CT",""
20974,"258 BASSETT ST","New Haven","CT",""
20975,"254 BASSETT ST","New Haven","CT",""
20976,"248 BASSETT ST","New Haven","CT",""
20977,"704 DIXWELL AV","New Haven","CT",""
20978,"702 DIXWELL AV","New Haven","CT",""
20979,"698 DIXWELL AV","New Haven","CT",""
20980,"696 DIXWELL AV","New Haven","CT",""
20981,"692 DIXWELL AV","New Haven","CT",""
20982,"688 DIXWELL AV","New Haven","CT",""
20983,"11 WILLIS ST","New Haven","CT",""
20984,"15 WILLIS ST","New Haven","CT",""
20985,"19 WILLIS ST","New Haven","CT",""
20986,"21 WILLIS ST","New Haven","CT",""
20987,"25 WILLIS ST","New Haven","CT",""
20988,"29 WILLIS ST","New Haven","CT",""
20989,"31 WILLIS ST","New Haven","CT",""
20990,"35 WILLIS ST","New Haven","CT",""
20991,"39 WILLIS ST","New Haven","CT",""
20992,"43 WILLIS ST","New Haven","CT",""
20993,"45 WILLIS ST","New Haven","CT",""
20994,"49 WILLIS ST","New Haven","CT",""
20995,"53 WILLIS ST","New Haven","CT",""
20996,"55 WILLIS ST","New Haven","CT",""
20997,"57 WILLIS ST","New Haven","CT",""
20998,"61 WILLIS ST","New Haven","CT",""
20999,"335 BASSETT ST","New Haven","CT",""
21000,"94 DORMAN ST","New Haven","CT",""
