"pid","location","city","state","zip"
21001,"90 DORMAN ST","New Haven","CT",""
21002,"86 DORMAN ST","New Haven","CT",""
21003,"82 DORMAN ST","New Haven","CT",""
21004,"76 DORMAN ST","New Haven","CT",""
21005,"70 DORMAN ST","New Haven","CT",""
21006,"311 BASSETT ST","New Haven","CT",""
21007,"317 BASSETT ST","New Haven","CT",""
21008,"323 BASSETT ST","New Haven","CT",""
21009,"327 BASSETT ST","New Haven","CT",""
21010,"331 BASSETT ST","New Haven","CT",""
21011,"867 SHERMAN AV","New Haven","CT",""
21012,"62 DORMAN ST","New Haven","CT",""
21013,"58 DORMAN ST","New Haven","CT",""
21014,"56 DORMAN ST","New Haven","CT",""
21015,"50 DORMAN ST","New Haven","CT",""
21016,"46 DORMAN ST","New Haven","CT",""
21017,"42 DORMAN ST","New Haven","CT",""
21018,"38 DORMAN ST","New Haven","CT",""
21019,"28 DORMAN ST","New Haven","CT",""
21020,"26 DORMAN ST","New Haven","CT",""
21021,"24 DORMAN ST","New Haven","CT",""
21022,"20 DORMAN ST","New Haven","CT",""
21023,"16 DORMAN ST","New Haven","CT",""
21024,"736 DIXWELL AV","New Haven","CT",""
21025,"734 DIXWELL AV","New Haven","CT",""
21026,"716 DIXWELL AV","New Haven","CT",""
21027,"714 DIXWELL AV","New Haven","CT",""
21028,"255 BASSETT ST","New Haven","CT",""
21029,"257 BASSETT ST","New Haven","CT",""
21030,"261 BASSETT ST","New Haven","CT",""
21031,"265 BASSETT ST","New Haven","CT",""
21032,"271 BASSETT ST","New Haven","CT",""
21033,"275 BASSETT ST","New Haven","CT",""
21034,"279 BASSETT ST","New Haven","CT",""
21035,"281 BASSETT ST","New Haven","CT",""
21036,"285 BASSETT ST","New Haven","CT",""
21037,"295 BASSETT ST","New Haven","CT",""
21038,"91 DORMAN ST","New Haven","CT",""
21039,"94 POND ST","New Haven","CT",""
21040,"90 POND ST","New Haven","CT",""
21041,"86 POND ST","New Haven","CT",""
21042,"84 POND ST","New Haven","CT",""
21043,"80 POND ST","New Haven","CT",""
21044,"74 POND ST","New Haven","CT",""
21045,"70 POND ST","New Haven","CT",""
21046,"SHERMAN AV","New Haven","CT",""
21047,"71 DORMAN ST","New Haven","CT",""
21048,"75 DORMAN ST","New Haven","CT",""
21049,"79 DORMAN ST","New Haven","CT",""
21050,"85 DORMAN ST","New Haven","CT",""
21051,"89 DORMAN ST","New Haven","CT",""
21052,"59 DORMAN ST","New Haven","CT",""
21053,"55 DORMAN ST","New Haven","CT",""
21054,"64 POND ST","New Haven","CT",""
21055,"62 POND ST","New Haven","CT",""
21056,"58 POND ST","New Haven","CT",""
21057,"54 POND ST","New Haven","CT",""
21058,"50 POND ST","New Haven","CT",""
21059,"48 POND ST","New Haven","CT",""
21060,"44 POND ST","New Haven","CT",""
21061,"38 POND ST","New Haven","CT",""
21062,"34 POND ST","New Haven","CT",""
21063,"28 POND ST","New Haven","CT",""
21064,"24 POND ST","New Haven","CT",""
21065,"18 POND ST","New Haven","CT",""
21066,"16 POND ST","New Haven","CT",""
21067,"768 DIXWELL AV","New Haven","CT",""
21068,"762 DIXWELL AV","New Haven","CT",""
21069,"758 DIXWELL AV","New Haven","CT",""
21070,"752 DIXWELL AV","New Haven","CT",""
21071,"748 DIXWELL AV","New Haven","CT",""
21072,"744 DIXWELL AV","New Haven","CT",""
21073,"740 DIXWELL AV","New Haven","CT",""
21074,"11 DORMAN ST","New Haven","CT",""
21075,"15 DORMAN ST","New Haven","CT",""
21076,"19 DORMAN ST","New Haven","CT",""
21077,"23 DORMAN ST","New Haven","CT",""
21078,"29 DORMAN ST","New Haven","CT",""
21079,"33 DORMAN ST","New Haven","CT",""
21080,"37 DORMAN ST","New Haven","CT",""
21081,"43 DORMAN ST","New Haven","CT",""
21082,"45 DORMAN ST","New Haven","CT",""
21083,"51 DORMAN ST","New Haven","CT",""
21084,"93 POND ST","New Haven","CT",""
21085,"94 ELIZABETH ST","New Haven","CT",""
21086,"92 ELIZABETH ST","New Haven","CT",""
21087,"84 ELIZABETH ST","New Haven","CT",""
21088,"80 ELIZABETH ST","New Haven","CT",""
21089,"944 SHERMAN AV","New Haven","CT",""
21090,"69 POND ST","New Haven","CT",""
21091,"71 POND ST","New Haven","CT",""
21092,"77 POND ST","New Haven","CT",""
21093,"85 POND ST","New Haven","CT",""
21094,"91 POND ST","New Haven","CT",""
21095,"63 POND ST","New Haven","CT",""
21096,"945 SHERMAN AV","New Haven","CT",""
21097,"54 ELIZABETH ST","New Haven","CT",""
21098,"46 ELIZABETH ST","New Haven","CT",""
21099,"42 ELIZABETH ST","New Haven","CT",""
21100,"38 ELIZABETH ST","New Haven","CT",""
21101,"32 ELIZABETH ST","New Haven","CT",""
21102,"ELIZABETH ST","New Haven","CT",""
21103,"20 ELIZABETH ST","New Haven","CT",""
21104,"786 DIXWELL AV","New Haven","CT",""
21105,"782 DIXWELL AV","New Haven","CT",""
21106,"19 POND ST","New Haven","CT",""
21107,"21 POND ST","New Haven","CT",""
21108,"23 POND ST","New Haven","CT",""
21109,"27 POND ST","New Haven","CT",""
21110,"37 POND ST","New Haven","CT",""
21111,"41 POND ST","New Haven","CT",""
21112,"47 POND ST","New Haven","CT",""
21113,"51 POND ST","New Haven","CT",""
21114,"55 POND ST","New Haven","CT",""
21115,"95 ELIZABETH ST","New Haven","CT",""
21116,"96 CHERRY ANN ST","New Haven","CT",""
21117,"90 CHERRY ANN ST","New Haven","CT",""
21118,"84 CHERRY ANN ST","New Haven","CT",""
21119,"82 CHERRY ANN ST","New Haven","CT",""
21120,"78 CHERRY ANN ST","New Haven","CT",""
21121,"970 SHERMAN AV","New Haven","CT",""
21122,"69 ELIZABETH ST","New Haven","CT",""
21123,"73 ELIZABETH ST","New Haven","CT",""
21124,"79 ELIZABETH ST","New Haven","CT",""
21125,"83 ELIZABETH ST","New Haven","CT",""
21126,"87 ELIZABETH ST","New Haven","CT",""
21127,"65 ELIZABETH ST","New Haven","CT",""
21128,"963 SHERMAN AV","New Haven","CT",""
21129,"967 SHERMAN AV","New Haven","CT",""
21130,"971 SHERMAN AV","New Haven","CT",""
21131,"52 CHERRY ANN ST","New Haven","CT",""
21132,"50 CHERRY ANN ST","New Haven","CT",""
21133,"48 CHERRY ANN ST","New Haven","CT",""
21134,"44 CHERRY ANN ST","New Haven","CT",""
21135,"26 CHERRY ANN ST","New Haven","CT",""
21136,"22 CHERRY ANN ST","New Haven","CT",""
21137,"10 CHERRY ANN ST","New Haven","CT",""
21138,"DIXWELL AV","New Haven","CT",""
21139,"808 DIXWELL AV","New Haven","CT",""
21140,"794 DIXWELL AV","New Haven","CT",""
21141,"13 ELIZABETH ST","New Haven","CT",""
21142,"17 ELIZABETH ST","New Haven","CT",""
21143,"21 ELIZABETH ST","New Haven","CT",""
21144,"25 ELIZABETH ST","New Haven","CT",""
21145,"29 ELIZABETH ST","New Haven","CT",""
21146,"33 ELIZABETH ST","New Haven","CT",""
21147,"37 ELIZABETH ST","New Haven","CT",""
21148,"41 ELIZABETH ST","New Haven","CT",""
21149,"47 ELIZABETH ST","New Haven","CT",""
21150,"49 ELIZABETH ST","New Haven","CT",""
21151,"53 ELIZABETH ST","New Haven","CT",""
21152,"59 ELIZABETH ST","New Haven","CT",""
21153,"4 PRESCOTT ST","New Haven","CT",""
21154,"26 PRESCOTT ST","New Haven","CT",""
21155,"157 CHERRY ANN ST","New Haven","CT",""
21156,"151 CHERRY ANN ST","New Haven","CT",""
21157,"149 CHERRY ANN ST #19","New Haven","CT",""
21158,"147 CHERRY ANN ST #20","New Haven","CT",""
21159,"145 CHERRY ANN ST #21","New Haven","CT",""
21160,"145 CHERRY ANN ST #22","New Haven","CT",""
21161,"138 CHERRY ANN ST","New Haven","CT",""
21162,"130 CHERRY ANN ST","New Haven","CT",""
21163,"122 CHERRY ANN ST","New Haven","CT",""
21164,"118 CHERRY ANN ST","New Haven","CT",""
21165,"104 CHERRY ANN ST","New Haven","CT",""
21166,"150 FOURNIER ST","New Haven","CT",""
21167,"WILLIS ST","New Haven","CT",""
21168,"1759 ELLA T GRASSO BLVD","New Haven","CT",""
21169,"1765 ELLA T GRASSO BLVD","New Haven","CT",""
21170,"1771 ELLA T GRASSO BLVD","New Haven","CT",""
21171,"1777 ELLA T GRASSO BLVD","New Haven","CT",""
21172,"1781 ELLA T GRASSO BLVD","New Haven","CT",""
21173,"1789 ELLA T GRASSO BLVD","New Haven","CT",""
21174,"1795 ELLA T GRASSO BLVD","New Haven","CT",""
21175,"1801 ELLA T GRASSO BLVD","New Haven","CT",""
21176,"1805 ELLA T GRASSO BLVD","New Haven","CT",""
21177,"1809 ELLA T GRASSO BLVD","New Haven","CT",""
21178,"1815 ELLA T GRASSO BLVD","New Haven","CT",""
21179,"1823 ELLA T GRASSO BLVD","New Haven","CT",""
21180,"1829 ELLA T GRASSO BLVD","New Haven","CT",""
21181,"1835 ELLA T GRASSO BLVD","New Haven","CT",""
21182,"1841 ELLA T GRASSO BLVD","New Haven","CT",""
21183,"1847 ELLA T GRASSO BLVD","New Haven","CT",""
21184,"1855 ELLA T GRASSO BLVD","New Haven","CT",""
21185,"1861 ELLA T GRASSO BLVD","New Haven","CT",""
21186,"1867 ELLA T GRASSO BLVD","New Haven","CT",""
21187,"1875 ELLA T GRASSO BLVD","New Haven","CT",""
21188,"1889 ELLA T GRASSO BLVD","New Haven","CT",""
21189,"530 BELLEVUE RD","New Haven","CT",""
21190,"520 BELLEVUE RD","New Haven","CT",""
21191,"510 BELLEVUE RD","New Haven","CT",""
21192,"BELLEVUE RD","New Haven","CT",""
21193,"480 BELLEVUE RD","New Haven","CT",""
21194,"466 BELLEVUE RD","New Haven","CT",""
21195,"456 BELLEVUE RD","New Haven","CT",""
21196,"444 BELLEVUE RD","New Haven","CT",""
21197,"430 BELLEVUE RD","New Haven","CT",""
21198,"410 BELLEVUE RD","New Haven","CT",""
21199,"400 BELLEVUE RD","New Haven","CT",""
21200,"390 BELLEVUE RD","New Haven","CT",""
21201,"380 BELLEVUE RD","New Haven","CT",""
21202,"370 BELLEVUE RD","New Haven","CT",""
21203,"360 BELLEVUE RD","New Haven","CT",""
21204,"350 BELLEVUE RD","New Haven","CT",""
21205,"340 BELLEVUE RD","New Haven","CT",""
21206,"330 BELLEVUE RD","New Haven","CT",""
21207,"320 BELLEVUE RD","New Haven","CT",""
21208,"310 BELLEVUE RD","New Haven","CT",""
21209,"300 BELLEVUE RD","New Haven","CT",""
21210,"290 BELLEVUE RD","New Haven","CT",""
21211,"285 BELLEVUE RD","New Haven","CT",""
21212,"295 BELLEVUE RD","New Haven","CT",""
21213,"305 BELLEVUE RD","New Haven","CT",""
21214,"315 BELLEVUE RD","New Haven","CT",""
21215,"329 BELLEVUE RD","New Haven","CT",""
21216,"355 BELLEVUE RD","New Haven","CT",""
21217,"365 BELLEVUE RD","New Haven","CT",""
21218,"375 BELLEVUE RD","New Haven","CT",""
21219,"385 BELLEVUE RD","New Haven","CT",""
21220,"401 BELLEVUE RD","New Haven","CT",""
21221,"415 BELLEVUE RD","New Haven","CT",""
21222,"425 BELLEVUE RD","New Haven","CT",""
21223,"435 BELLEVUE RD","New Haven","CT",""
21224,"445 BELLEVUE RD","New Haven","CT",""
21225,"455 BELLEVUE RD","New Haven","CT",""
21226,"471 BELLEVUE RD","New Haven","CT",""
21227,"481 BELLEVUE RD","New Haven","CT",""
21228,"BELLEVUE RD","New Haven","CT",""
21229,"505 BELLEVUE RD","New Haven","CT",""
21230,"360 CRESCENT ST","New Haven","CT",""
21231,"260 COLONY RD","New Haven","CT",""
21232,"250 COLONY RD","New Haven","CT",""
21233,"246 COLONY RD","New Haven","CT",""
21234,"240 COLONY RD","New Haven","CT",""
21235,"234 COLONY RD","New Haven","CT",""
21236,"228 COLONY RD","New Haven","CT",""
21237,"222 COLONY RD","New Haven","CT",""
21238,"216 COLONY RD","New Haven","CT",""
21239,"210 COLONY RD","New Haven","CT",""
21240,"204 COLONY RD","New Haven","CT",""
21241,"196 COLONY RD","New Haven","CT",""
21242,"192 COLONY RD","New Haven","CT",""
21243,"186 COLONY RD","New Haven","CT",""
21244,"180 COLONY RD","New Haven","CT",""
21245,"172 COLONY RD","New Haven","CT",""
21246,"168 COLONY RD","New Haven","CT",""
21247,"160 COLONY RD","New Haven","CT",""
21248,"156 COLONY RD","New Haven","CT",""
21249,"150 COLONY RD","New Haven","CT",""
21250,"142 COLONY RD","New Haven","CT",""
21251,"139 COLONY RD","New Haven","CT",""
21252,"147 COLONY RD","New Haven","CT",""
21253,"155 COLONY RD","New Haven","CT",""
21254,"161 COLONY RD","New Haven","CT",""
21255,"165 COLONY RD","New Haven","CT",""
21256,"175 COLONY RD","New Haven","CT",""
21257,"183 COLONY RD","New Haven","CT",""
21258,"189 COLONY RD","New Haven","CT",""
21259,"195 COLONY RD","New Haven","CT",""
21260,"201 COLONY RD","New Haven","CT",""
21261,"207 COLONY RD","New Haven","CT",""
21262,"215 COLONY RD","New Haven","CT",""
21263,"219 COLONY RD","New Haven","CT",""
21264,"225 COLONY RD","New Haven","CT",""
21265,"231 COLONY RD","New Haven","CT",""
21266,"237 COLONY RD","New Haven","CT",""
21267,"245 COLONY RD","New Haven","CT",""
21268,"249 COLONY RD","New Haven","CT",""
21269,"255 COLONY RD","New Haven","CT",""
21270,"670 ELLSWORTH AV","New Haven","CT",""
21271,"666 ELLSWORTH AV","New Haven","CT",""
21272,"660 ELLSWORTH AV","New Haven","CT",""
21273,"650 ELLSWORTH AV","New Haven","CT",""
21274,"636 ELLSWORTH AV","New Haven","CT",""
21275,"620 ELLSWORTH AV","New Haven","CT",""
21276,"610 ELLSWORTH AV","New Haven","CT",""
21277,"606 ELLSWORTH AV","New Haven","CT",""
21278,"600 ELLSWORTH AV","New Haven","CT",""
21279,"590 ELLSWORTH AV","New Haven","CT",""
21280,"580 ELLSWORTH AV","New Haven","CT",""
21281,"97 DYER ST","New Haven","CT",""
21282,"WINTHROP AV","New Haven","CT",""
21283,"105 GLEN RD","New Haven","CT",""
21284,"531 ELLSWORTH AV","New Haven","CT",""
21285,"535 ELLSWORTH AV","New Haven","CT",""
21286,"545 ELLSWORTH AV","New Haven","CT",""
21287,"551 ELLSWORTH AV","New Haven","CT",""
21288,"557 ELLSWORTH AV","New Haven","CT",""
21289,"502 NORTON PKWY","New Haven","CT",""
21290,"494 NORTON PKWY","New Haven","CT",""
21291,"488 NORTON PKWY","New Haven","CT",""
21292,"484 NORTON PKWY","New Haven","CT",""
21293,"476 NORTON PKWY","New Haven","CT",""
21294,"470 NORTON PKWY","New Haven","CT",""
21295,"469 NORTON PKWY","New Haven","CT",""
21296,"475 NORTON PKWY","New Haven","CT",""
21297,"479 NORTON PKWY","New Haven","CT",""
21298,"483 NORTON PKWY","New Haven","CT",""
21299,"489 NORTON PKWY","New Haven","CT",""
21300,"495 NORTON PKWY","New Haven","CT",""
21301,"499 NORTON PKWY","New Haven","CT",""
21302,"503 NORTON PKWY","New Haven","CT",""
21303,"10 DYER ST","New Haven","CT",""
21304,"150 CRESCENT ST","New Haven","CT",""
21305,"142 CRESCENT ST","New Haven","CT",""
21306,"134 CRESCENT ST","New Haven","CT",""
21307,"128 CRESCENT ST","New Haven","CT",""
21308,"124 CRESCENT ST","New Haven","CT",""
21309,"120 CRESCENT ST","New Haven","CT",""
21310,"690 WINTHROP AV","New Haven","CT",""
21311,"25 GLEN RD","New Haven","CT",""
21312,"35 GLEN RD","New Haven","CT",""
21313,"39 GLEN RD","New Haven","CT",""
21314,"45 GLEN RD","New Haven","CT",""
21315,"49 GLEN RD","New Haven","CT",""
21316,"565 ELLSWORTH AV","New Haven","CT",""
21317,"573 ELLSWORTH AV","New Haven","CT",""
21318,"577 ELLSWORTH AV","New Haven","CT",""
21319,"585 ELLSWORTH AV","New Haven","CT",""
21320,"591 ELLSWORTH AV","New Haven","CT",""
21321,"595 ELLSWORTH AV","New Haven","CT",""
21322,"605 ELLSWORTH AV","New Haven","CT",""
21323,"615 ELLSWORTH AV","New Haven","CT",""
21324,"623 ELLSWORTH AV","New Haven","CT",""
21325,"625 ELLSWORTH AV","New Haven","CT",""
21326,"635 ELLSWORTH AV","New Haven","CT",""
21327,"645 ELLSWORTH AV","New Haven","CT",""
21328,"655 ELLSWORTH AV","New Haven","CT",""
21329,"665 ELLSWORTH AV","New Haven","CT",""
21330,"276 CRESCENT ST","New Haven","CT",""
21331,"270 CRESCENT ST","New Haven","CT",""
21332,"262 CRESCENT ST","New Haven","CT",""
21333,"256 CRESCENT ST","New Haven","CT",""
21334,"250 CRESCENT ST","New Haven","CT",""
21335,"242 CRESCENT ST","New Haven","CT",""
21336,"234 CRESCENT ST","New Haven","CT",""
21337,"566 NORTON PKWY","New Haven","CT",""
21338,"560 NORTON PKWY","New Haven","CT",""
21339,"554 NORTON PKWY","New Haven","CT",""
21340,"550 NORTON PKWY","New Haven","CT",""
21341,"544 NORTON PKWY","New Haven","CT",""
21342,"536 NORTON PKWY","New Haven","CT",""
21343,"530 NORTON PKWY","New Haven","CT",""
21344,"524 NORTON PKWY","New Haven","CT",""
21345,"514 NORTON PKWY","New Haven","CT",""
21346,"510 NORTON PKWY","New Haven","CT",""
21347,"506 NORTON PKWY","New Haven","CT",""
21348,"47 DYER ST","New Haven","CT",""
21349,"51 DYER ST","New Haven","CT",""
21350,"57 DYER ST","New Haven","CT",""
21351,"505 NORTON PKWY","New Haven","CT",""
21352,"517 NORTON PKWY","New Haven","CT",""
21353,"523 NORTON PKWY","New Haven","CT",""
21354,"535 NORTON PKWY","New Haven","CT",""
21355,"1579 ELLA T GRASSO BLVD","New Haven","CT",""
21356,"1585 ELLA T GRASSO BLVD","New Haven","CT",""
21357,"1593 ELLA T GRASSO BLVD","New Haven","CT",""
21358,"1599 ELLA T GRASSO BLVD","New Haven","CT",""
21359,"214 GOFFE TER","New Haven","CT",""
21360,"210 GOFFE TER","New Haven","CT",""
21361,"204 GOFFE TER","New Haven","CT",""
21362,"198 GOFFE TER","New Haven","CT",""
21363,"192 GOFFE TER","New Haven","CT",""
21364,"186 GOFFE TER","New Haven","CT",""
21365,"180 GOFFE TER","New Haven","CT",""
21366,"174 GOFFE TER","New Haven","CT",""
21367,"170 GOFFE TER","New Haven","CT",""
21368,"166 GOFFE TER","New Haven","CT",""
21369,"160 GOFFE TER","New Haven","CT",""
21370,"156 GOFFE TER","New Haven","CT",""
21371,"150 GOFFE TER","New Haven","CT",""
21372,"144 GOFFE TER","New Haven","CT",""
21373,"438 ELLSWORTH AV","New Haven","CT",""
21374,"432 ELLSWORTH AV","New Haven","CT",""
21375,"426 ELLSWORTH AV","New Haven","CT",""
21376,"420 ELLSWORTH AV","New Haven","CT",""
21377,"35 ANITA ST","New Haven","CT",""
21378,"55 ANITA ST","New Haven","CT",""
21379,"69 ANITA ST","New Haven","CT",""
21380,"83 ANITA ST","New Haven","CT",""
21381,"95 ANITA ST","New Haven","CT",""
21382,"105 ANITA ST","New Haven","CT",""
21383,"119 ANITA ST","New Haven","CT",""
21384,"131 ANITA ST","New Haven","CT",""
21385,"145 ANITA ST","New Haven","CT",""
21386,"1619 ELLA T GRASSO BLVD","New Haven","CT",""
21387,"1625 ELLA T GRASSO BLVD","New Haven","CT",""
21388,"1631 ELLA T GRASSO BLVD","New Haven","CT",""
21389,"1637 ELLA T GRASSO BLVD","New Haven","CT",""
21390,"1643 ELLA T GRASSO BLVD","New Haven","CT",""
21391,"1647 ELLA T GRASSO BLVD","New Haven","CT",""
21392,"1655 ELLA T GRASSO BLVD","New Haven","CT",""
21393,"1661 ELLA T GRASSO BLVD","New Haven","CT",""
21394,"1665 ELLA T GRASSO BLVD","New Haven","CT",""
21395,"1673 ELLA T GRASSO BLVD","New Haven","CT",""
21396,"1679 ELLA T GRASSO BLVD","New Haven","CT",""
21397,"1687 ELLA T GRASSO BLVD","New Haven","CT",""
21398,"1695 ELLA T GRASSO BLVD","New Haven","CT",""
21399,"200 GLEN RD","New Haven","CT",""
21400,"170 BELLEVUE RD","New Haven","CT",""
21401,"156 BELLEVUE RD","New Haven","CT",""
21402,"140 BELLEVUE RD","New Haven","CT",""
21403,"130 BELLEVUE RD","New Haven","CT",""
21404,"120 BELLEVUE RD","New Haven","CT",""
21405,"110 BELLEVUE RD","New Haven","CT",""
21406,"100 BELLEVUE RD","New Haven","CT",""
21407,"86 BELLEVUE RD","New Haven","CT",""
21408,"74 BELLEVUE RD","New Haven","CT",""
21409,"60 BELLEVUE RD","New Haven","CT",""
21410,"50 BELLEVUE RD","New Haven","CT",""
21411,"40 BELLEVUE RD","New Haven","CT",""
21412,"30 BELLEVUE RD","New Haven","CT",""
21413,"20 BELLEVUE RD","New Haven","CT",""
21414,"10 BELLEVUE RD","New Haven","CT",""
21415,"7 BELLEVUE RD","New Haven","CT",""
21416,"21 BELLEVUE RD","New Haven","CT",""
21417,"35 BELLEVUE RD","New Haven","CT",""
21418,"47 BELLEVUE RD","New Haven","CT",""
21419,"59 BELLEVUE RD","New Haven","CT",""
21420,"75 BELLEVUE RD","New Haven","CT",""
21421,"85 BELLEVUE RD","New Haven","CT",""
21422,"95 BELLEVUE RD","New Haven","CT",""
21423,"105 BELLEVUE RD","New Haven","CT",""
21424,"121 BELLEVUE RD","New Haven","CT",""
21425,"135 BELLEVUE RD","New Haven","CT",""
21426,"143 BELLEVUE RD","New Haven","CT",""
21427,"155 BELLEVUE RD","New Haven","CT",""
21428,"165 BELLEVUE RD","New Haven","CT",""
21429,"84 COLONY RD","New Haven","CT",""
21430,"78 COLONY RD","New Haven","CT",""
21431,"72 COLONY RD","New Haven","CT",""
21432,"66 COLONY RD","New Haven","CT",""
21433,"60 COLONY RD","New Haven","CT",""
21434,"52 COLONY RD","New Haven","CT",""
21435,"46 COLONY RD","New Haven","CT",""
21436,"40 COLONY RD","New Haven","CT",""
21437,"34 COLONY RD","New Haven","CT",""
21438,"24 COLONY RD","New Haven","CT",""
21439,"20 COLONY RD","New Haven","CT",""
21440,"16 COLONY RD","New Haven","CT",""
21441,"4 COLONY RD","New Haven","CT",""
21442,"5 COLONY RD","New Haven","CT",""
21443,"11 COLONY RD","New Haven","CT",""
21444,"19 COLONY RD","New Haven","CT",""
21445,"25 COLONY RD","New Haven","CT",""
21446,"35 COLONY RD","New Haven","CT",""
21447,"39 COLONY RD","New Haven","CT",""
21448,"480 ELLSWORTH AV","New Haven","CT",""
21449,"470 ELLSWORTH AV","New Haven","CT",""
21450,"460 ELLSWORTH AV","New Haven","CT",""
21451,"456 ELLSWORTH AV","New Haven","CT",""
21452,"450 ELLSWORTH AV","New Haven","CT",""
21453,"444 ELLSWORTH AV","New Haven","CT",""
21454,"51 COLONY RD","New Haven","CT",""
21455,"59 COLONY RD","New Haven","CT",""
21456,"65 COLONY RD","New Haven","CT",""
21457,"69 COLONY RD","New Haven","CT",""
21458,"79 COLONY RD","New Haven","CT",""
21459,"85 COLONY RD","New Haven","CT",""
21460,"516 ELLSWORTH AV","New Haven","CT",""
21461,"510 ELLSWORTH AV","New Haven","CT",""
21462,"500 ELLSWORTH AV","New Haven","CT",""
21463,"494 ELLSWORTH AV","New Haven","CT",""
21464,"488 ELLSWORTH AV","New Haven","CT",""
21465,NA,"New Haven","CT",""
21466,"1721 ELLA T GRASSO BLVD","New Haven","CT",""
21467,"1729 ELLA T GRASSO BLVD","New Haven","CT",""
21468,"1735 ELLA T GRASSO BLVD","New Haven","CT",""
21469,"1745 ELLA T GRASSO BLVD","New Haven","CT",""
21470,"150 DYER ST","New Haven","CT",""
21471,"240 BELLEVUE RD","New Haven","CT",""
21472,"226 BELLEVUE RD","New Haven","CT",""
21473,"210 BELLEVUE RD","New Haven","CT",""
21474,"194 BELLEVUE RD","New Haven","CT",""
21475,"195 BELLEVUE RD","New Haven","CT",""
21476,"205 BELLEVUE RD","New Haven","CT",""
21477,"215 BELLEVUE RD","New Haven","CT",""
21478,"225 BELLEVUE RD","New Haven","CT",""
21479,"235 BELLEVUE RD","New Haven","CT",""
21480,"245 BELLEVUE RD","New Haven","CT",""
21481,"134 DYER ST","New Haven","CT",""
21482,"130 COLONY RD","New Haven","CT",""
21483,"120 COLONY RD","New Haven","CT",""
21484,"114 COLONY RD","New Haven","CT",""
21485,"108 COLONY RD","New Haven","CT",""
21486,"100 COLONY RD","New Haven","CT",""
21487,"96 COLONY RD","New Haven","CT",""
21488,"145 GLEN RD","New Haven","CT",""
21489,"101 COLONY RD","New Haven","CT",""
21490,"109 COLONY RD","New Haven","CT",""
21491,"115 COLONY RD","New Haven","CT",""
21492,"123 COLONY RD","New Haven","CT",""
21493,"131 COLONY RD","New Haven","CT",""
21494,"558 ELLSWORTH AV","New Haven","CT",""
21495,"550 ELLSWORTH AV","New Haven","CT",""
21496,"544 ELLSWORTH AV","New Haven","CT",""
21497,"536 ELLSWORTH AV","New Haven","CT",""
21498,"530 ELLSWORTH AV","New Haven","CT",""
21499,"526 ELLSWORTH AV","New Haven","CT",""
21500,"475 ELLSWORTH AV","New Haven","CT",""
21501,"426 NORTON PKWY","New Haven","CT",""
21502,"420 NORTON PKWY","New Haven","CT",""
21503,"416 NORTON PKWY","New Haven","CT",""
21504,"412 NORTON PKWY","New Haven","CT",""
21505,"408 NORTON PKWY","New Haven","CT",""
21506,"400 NORTON PKWY","New Haven","CT",""
21507,"396 NORTON PKWY","New Haven","CT",""
21508,"390 NORTON PKWY","New Haven","CT",""
21509,"99 GOFFE TER","New Haven","CT",""
21510,"445 ELLSWORTH AV","New Haven","CT",""
21511,"453 ELLSWORTH AV","New Haven","CT",""
21512,"459 ELLSWORTH AV","New Haven","CT",""
21513,"467 ELLSWORTH AV","New Haven","CT",""
21514,"425 NORTON PKWY","New Haven","CT",""
21515,"628 WINTHROP AV","New Haven","CT",""
21516,"620 WINTHROP AV","New Haven","CT",""
21517,"616 WINTHROP AV","New Haven","CT",""
21518,"608 WINTHROP AV","New Haven","CT",""
21519,"604 WINTHROP AV","New Haven","CT",""
21520,"600 WINTHROP AV","New Haven","CT",""
21521,"596 WINTHROP AV","New Haven","CT",""
21522,"590 WINTHROP AV","New Haven","CT",""
21523,"389 NORTON PKWY","New Haven","CT",""
21524,"395 NORTON PKWY","New Haven","CT",""
21525,"399 NORTON PKWY","New Haven","CT",""
21526,"405 NORTON PKWY","New Haven","CT",""
21527,"409 NORTON PKWY","New Haven","CT",""
21528,"419 NORTON PKWY","New Haven","CT",""
21529,"MORELAND RD","New Haven","CT",""
21530,"629 WINTHROP AV","New Haven","CT",""
21531,"42 CRESCENT ST","New Haven","CT",""
21532,"36 CRESCENT ST","New Haven","CT",""
21533,"30 CRESCENT ST","New Haven","CT",""
21534,"26 CRESCENT ST","New Haven","CT",""
21535,"20 CRESCENT ST","New Haven","CT",""
21536,"16 CRESCENT ST","New Haven","CT",""
21537,"10 CRESCENT ST","New Haven","CT",""
21538,"2 CRESCENT ST","New Haven","CT",""
21539,"15 GOFFE TER","New Haven","CT",""
21540,"591 WINTHROP AV","New Haven","CT",""
21541,"603 WINTHROP AV","New Haven","CT",""
21542,"607 WINTHROP AV","New Haven","CT",""
21543,"615 WINTHROP AV","New Haven","CT",""
21544,"619 WINTHROP AV","New Haven","CT",""
21545,"625 WINTHROP AV","New Haven","CT",""
21546,"517 ELLSWORTH AV","New Haven","CT",""
21547,"90 GLEN RD","New Haven","CT",""
21548,"464 NORTON PKWY","New Haven","CT",""
21549,"458 NORTON PKWY","New Haven","CT",""
21550,"450 NORTON PKWY","New Haven","CT",""
21551,"446 NORTON PKWY","New Haven","CT",""
21552,"440 NORTON PKWY","New Haven","CT",""
21553,"432 NORTON PKWY","New Haven","CT",""
21554,"495 ELLSWORTH AV","New Haven","CT",""
21555,"505 ELLSWORTH AV","New Haven","CT",""
21556,NA,"New Haven","CT",""
21557,"511 ELLSWORTH AV","New Haven","CT",""
21558,"463 NORTON PKWY","New Haven","CT",""
21559,"48 GLEN RD","New Haven","CT",""
21560,"44 GLEN RD","New Haven","CT",""
21561,"38 GLEN RD","New Haven","CT",""
21562,"674 WINTHROP AV","New Haven","CT",""
21563,"670 WINTHROP AV","New Haven","CT",""
21564,"666 WINTHROP AV","New Haven","CT",""
21565,"662 WINTHROP AV","New Haven","CT",""
21566,"656 WINTHROP AV","New Haven","CT",""
21567,"652 WINTHROP AV","New Haven","CT",""
21568,"644 WINTHROP AV","New Haven","CT",""
21569,"640 WINTHROP AV","New Haven","CT",""
21570,"45 MORELAND RD","New Haven","CT",""
21571,"429 NORTON PKWY","New Haven","CT",""
21572,"435 NORTON PKWY","New Haven","CT",""
21573,"443 NORTON PKWY","New Haven","CT",""
21574,"449 NORTON PKWY","New Haven","CT",""
21575,"451 NORTON PKWY","New Haven","CT",""
21576,"457 NORTON PKWY","New Haven","CT",""
21577,"10 GLEN RD","New Haven","CT",""
21578,"667 WINTHROP AV","New Haven","CT",""
21579,"663 WINTHROP AV","New Haven","CT",""
21580,"659 WINTHROP AV","New Haven","CT",""
21581,"655 WINTHROP AV","New Haven","CT",""
21582,"649 WINTHROP AV","New Haven","CT",""
21583,"645 WINTHROP AV","New Haven","CT",""
21584,"19 MORELAND RD","New Haven","CT",""
21585,"52 CRESCENT ST","New Haven","CT",""
21586,"60 CRESCENT ST","New Haven","CT",""
21587,"66 CRESCENT ST","New Haven","CT",""
21588,"383 WHALLEY AV","New Haven","CT",""
21589,"263 NORTON ST","New Haven","CT",""
21590,"265 NORTON ST","New Haven","CT",""
21591,"269 NORTON ST","New Haven","CT",""
21592,"273 NORTON ST","New Haven","CT",""
21593,"279 NORTON ST","New Haven","CT",""
21594,"283 NORTON ST","New Haven","CT",""
21595,"287 NORTON ST","New Haven","CT",""
21596,"299 NORTON ST","New Haven","CT",""
21597,"303 NORTON ST","New Haven","CT",""
21598,"309 NORTON ST","New Haven","CT",""
21599,"313 NORTON ST","New Haven","CT",""
21600,"319 NORTON ST","New Haven","CT",""
21601,"323 NORTON ST","New Haven","CT",""
21602,"325 NORTON ST","New Haven","CT",""
21603,"329 NORTON ST","New Haven","CT",""
21604,"335 NORTON ST","New Haven","CT",""
21605,"341 NORTON ST","New Haven","CT",""
21606,"345 NORTON ST","New Haven","CT",""
21607,"349 NORTON ST","New Haven","CT",""
21608,"353 NORTON ST","New Haven","CT",""
21609,"355 NORTON ST","New Haven","CT",""
21610,"359 NORTON ST","New Haven","CT",""
21611,"363 NORTON ST","New Haven","CT",""
21612,"367 NORTON ST","New Haven","CT",""
21613,"371 NORTON ST","New Haven","CT",""
21614,"375 NORTON ST","New Haven","CT",""
21615,"379 NORTON ST","New Haven","CT",""
21616,"383 NORTON ST","New Haven","CT",""
21617,"60 GOFFE TER","New Haven","CT",""
21618,"56 GOFFE TER","New Haven","CT",""
21619,"52 GOFFE TER","New Haven","CT",""
21620,"46 GOFFE TER","New Haven","CT",""
21621,"578 WINTHROP AV","New Haven","CT",""
21622,"576 WINTHROP AV","New Haven","CT",""
21623,"574 WINTHROP AV","New Haven","CT",""
21624,"572 WINTHROP AV","New Haven","CT",""
21625,"570 WINTHROP AV","New Haven","CT",""
21626,"566 WINTHROP AV","New Haven","CT",""
21627,"562 WINTHROP AV","New Haven","CT",""
21628,"560 WINTHROP AV","New Haven","CT",""
21629,"558 WINTHROP AV","New Haven","CT",""
21630,"556 WINTHROP AV","New Haven","CT",""
21631,"554 WINTHROP AV","New Haven","CT",""
21632,"552 WINTHROP AV","New Haven","CT",""
21633,"548 WINTHROP AV","New Haven","CT",""
21634,"530 WINTHROP AV","New Haven","CT",""
21635,"526 WINTHROP AV","New Haven","CT",""
21636,"522 WINTHROP AV","New Haven","CT",""
21637,"520 WINTHROP AV","New Haven","CT",""
21638,"514 WINTHROP AV","New Haven","CT",""
21639,"510 WINTHROP AV","New Haven","CT",""
21640,"WINTHROP AV","New Haven","CT",""
21641,"504 WINTHROP AV","New Haven","CT",""
21642,"500 WINTHROP AV","New Haven","CT",""
21643,"498 WINTHROP AV","New Haven","CT",""
21644,"494 WINTHROP AV","New Haven","CT",""
21645,"480 WINTHROP AV","New Haven","CT",""
21646,"478 WINTHROP AV","New Haven","CT",""
21647,"476 WINTHROP AV","New Haven","CT",""
21648,"474 WINTHROP AV","New Haven","CT",""
21649,"472 WINTHROP AV","New Haven","CT",""
21650,NA,"New Haven","CT",""
21651,"355 WHALLEY AV","New Haven","CT",""
21652,"357 WHALLEY AV","New Haven","CT",""
21653,"365 WHALLEY AV","New Haven","CT",""
21654,"379 WHALLEY AV","New Haven","CT",""
21655,"347 WHALLEY AV","New Haven","CT",""
21656,NA,"New Haven","CT",""
21657,"469 WINTHROP AV","New Haven","CT",""
21658,"473 WINTHROP AV","New Haven","CT",""
21659,"475 WINTHROP AV","New Haven","CT",""
21660,"479 WINTHROP AV","New Haven","CT",""
21661,"483 WINTHROP AV","New Haven","CT",""
21662,"493 WINTHROP AV","New Haven","CT",""
21663,"495 WINTHROP AV","New Haven","CT",""
21664,"497 WINTHROP AV","New Haven","CT",""
21665,"499 WINTHROP AV","New Haven","CT",""
21666,"509 WINTHROP AV","New Haven","CT",""
21667,"511 WINTHROP AV","New Haven","CT",""
21668,"513 WINTHROP AV","New Haven","CT",""
21669,"515 WINTHROP AV","New Haven","CT",""
21670,"62 CARMEL ST","New Haven","CT",""
21671,"58 CARMEL ST","New Haven","CT",""
21672,"54 CARMEL ST","New Haven","CT",""
21673,"50 CARMEL ST","New Haven","CT",""
21674,"46 CARMEL ST","New Haven","CT",""
21675,"42 CARMEL ST","New Haven","CT",""
21676,"38 CARMEL ST","New Haven","CT",""
21677,"34 CARMEL ST","New Haven","CT",""
21678,"32 CARMEL ST","New Haven","CT",""
21679,"26 CARMEL ST","New Haven","CT",""
21680,"22 CARMEL ST","New Haven","CT",""
21681,"20 CARMEL ST","New Haven","CT",""
21682,"323 WHALLEY AV","New Haven","CT",""
21683,"327 WHALLEY AV","New Haven","CT",""
21684,"335 WHALLEY AV","New Haven","CT",""
21685,"339 WHALLEY AV","New Haven","CT",""
21686,"345 WHALLEY AV","New Haven","CT",""
21687,"311 WHALLEY AV","New Haven","CT",""
21688,"9 CARMEL ST","New Haven","CT",""
21689,"15 CARMEL ST","New Haven","CT",""
21690,"19 CARMEL ST","New Haven","CT",""
21691,"23 CARMEL ST","New Haven","CT",""
21692,"25 CARMEL ST","New Haven","CT",""
21693,"31 CARMEL ST","New Haven","CT",""
21694,"33 CARMEL ST","New Haven","CT",""
21695,"35 CARMEL ST","New Haven","CT",""
21696,"47 CARMEL ST","New Haven","CT",""
21697,"49 CARMEL ST","New Haven","CT",""
21698,"51 CARMEL ST","New Haven","CT",""
21699,"53 CARMEL ST","New Haven","CT",""
21700,"55 CARMEL ST","New Haven","CT",""
21701,"57 CARMEL ST","New Haven","CT",""
21702,"61 CARMEL ST","New Haven","CT",""
21703,"354 SHERMAN AV","New Haven","CT",""
21704,"350 SHERMAN AV","New Haven","CT",""
21705,"346 SHERMAN AV","New Haven","CT",""
21706,"342 SHERMAN AV","New Haven","CT",""
21707,"338 SHERMAN AV","New Haven","CT",""
21708,"334 SHERMAN AV","New Haven","CT",""
21709,"330 SHERMAN AV","New Haven","CT",""
21710,"326 SHERMAN AV","New Haven","CT",""
21711,"322 SHERMAN AV","New Haven","CT",""
21712,NA,"New Haven","CT",""
21713,"299 WHALLEY AV","New Haven","CT",""
21714,"305 WHALLEY AV","New Haven","CT",""
21715,"523 WINTHROP AV","New Haven","CT",""
21716,"525 WINTHROP AV","New Haven","CT",""
21717,"527 WINTHROP AV","New Haven","CT",""
21718,"529 WINTHROP AV","New Haven","CT",""
21719,"551 WINTHROP AV","New Haven","CT",""
21720,"553 WINTHROP AV","New Haven","CT",""
21721,"555 WINTHROP AV","New Haven","CT",""
21722,"557 WINTHROP AV","New Haven","CT",""
21723,"559 WINTHROP AV","New Haven","CT",""
21724,"561 WINTHROP AV","New Haven","CT",""
21725,"563 WINTHROP AV","New Haven","CT",""
21726,"565 WINTHROP AV","New Haven","CT",""
21727,"567 WINTHROP AV","New Haven","CT",""
21728,"569 WINTHROP AV","New Haven","CT",""
21729,"571 WINTHROP AV","New Haven","CT",""
21730,"573 WINTHROP AV","New Haven","CT",""
21731,"575 WINTHROP AV","New Haven","CT",""
21732,"577 WINTHROP AV","New Haven","CT",""
21733,"126 CARMEL ST","New Haven","CT",""
21734,"124 CARMEL ST","New Haven","CT",""
21735,"120 CARMEL ST","New Haven","CT",""
21736,"118 CARMEL ST","New Haven","CT",""
21737,"116 CARMEL ST","New Haven","CT",""
21738,"112 CARMEL ST","New Haven","CT",""
21739,"106 CARMEL ST","New Haven","CT",""
21740,"102 CARMEL ST","New Haven","CT",""
21741,"98 CARMEL ST","New Haven","CT",""
21742,"96 CARMEL ST","New Haven","CT",""
21743,"92 CARMEL ST","New Haven","CT",""
21744,"88 CARMEL ST","New Haven","CT",""
21745,"84 CARMEL ST","New Haven","CT",""
21746,"80 CARMEL ST","New Haven","CT",""
21747,"76 CARMEL ST","New Haven","CT",""
21748,"72 CARMEL ST","New Haven","CT",""
21749,"66 CARMEL ST","New Haven","CT",""
21750,"37 PERCIVAL ST","New Haven","CT",""
21751,"63 CARMEL ST","New Haven","CT",""
21752,"65 CARMEL ST","New Haven","CT",""
21753,"67 CARMEL ST","New Haven","CT",""
21754,"69 CARMEL ST","New Haven","CT",""
21755,"77 CARMEL ST","New Haven","CT",""
21756,"81 CARMEL ST","New Haven","CT",""
21757,"85 CARMEL ST","New Haven","CT",""
21758,"91 CARMEL ST","New Haven","CT",""
21759,"97 CARMEL ST","New Haven","CT",""
21760,"99 CARMEL ST","New Haven","CT",""
21761,"105 CARMEL ST","New Haven","CT",""
21762,"107 CARMEL ST","New Haven","CT",""
21763,"111 CARMEL ST","New Haven","CT",""
21764,"115 CARMEL ST","New Haven","CT",""
21765,"119 CARMEL ST","New Haven","CT",""
21766,"123 CARMEL ST","New Haven","CT",""
21767,"350 GOFFE ST","New Haven","CT",""
21768,"402 SHERMAN AV","New Haven","CT",""
21769,"394 SHERMAN AV","New Haven","CT",""
21770,"390 SHERMAN AV","New Haven","CT",""
21771,"384 SHERMAN AV","New Haven","CT",""
21772,"380 SHERMAN AV","New Haven","CT",""
21773,"376 SHERMAN AV","New Haven","CT",""
21774,"372 SHERMAN AV","New Haven","CT",""
21775,"368 SHERMAN AV","New Haven","CT",""
21776,"364 SHERMAN AV","New Haven","CT",""
21777,"360 SHERMAN AV","New Haven","CT",""
21778,"423 WHALLEY AV","New Haven","CT",""
21779,"323 ELLSWORTH AV","New Haven","CT",""
21780,"329 ELLSWORTH AV","New Haven","CT",""
21781,"333 ELLSWORTH AV","New Haven","CT",""
21782,"339 ELLSWORTH AV","New Haven","CT",""
21783,"341 ELLSWORTH AV","New Haven","CT",""
21784,"345 ELLSWORTH AV","New Haven","CT",""
21785,"351 ELLSWORTH AV","New Haven","CT",""
21786,"357 ELLSWORTH AV","New Haven","CT",""
21787,"363 ELLSWORTH AV","New Haven","CT",""
21788,"367 ELLSWORTH AV","New Haven","CT",""
21789,"371 ELLSWORTH AV","New Haven","CT",""
21790,"377 ELLSWORTH AV","New Haven","CT",""
21791,"381 ELLSWORTH AV","New Haven","CT",""
21792,"387 ELLSWORTH AV","New Haven","CT",""
21793,"391 ELLSWORTH AV","New Haven","CT",""
21794,"395 ELLSWORTH AV","New Haven","CT",""
21795,"399 ELLSWORTH AV","New Haven","CT",""
21796,"405 ELLSWORTH AV","New Haven","CT",""
21797,"409 ELLSWORTH AV","New Haven","CT",""
21798,"411 ELLSWORTH AV","New Haven","CT",""
21799,"415 ELLSWORTH AV","New Haven","CT",""
21800,"423 ELLSWORTH AV","New Haven","CT",""
21801,"425 ELLSWORTH AV","New Haven","CT",""
21802,"429 ELLSWORTH AV","New Haven","CT",""
21803,"433 ELLSWORTH AV","New Haven","CT",""
21804,"439 ELLSWORTH AV","New Haven","CT",""
21805,"106 GOFFE TER","New Haven","CT",""
21806,"104 GOFFE TER","New Haven","CT",""
21807,"102 GOFFE TER","New Haven","CT",""
21808,"96 GOFFE TER","New Haven","CT",""
21809,"384 NORTON ST","New Haven","CT",""
21810,"380 NORTON ST","New Haven","CT",""
21811,"376 NORTON ST","New Haven","CT",""
21812,"372 NORTON ST","New Haven","CT",""
21813,"368 NORTON ST","New Haven","CT",""
21814,"354 NORTON ST","New Haven","CT",""
21815,"350 NORTON ST","New Haven","CT",""
21816,"346 NORTON ST","New Haven","CT",""
21817,"344 NORTON ST","New Haven","CT",""
21818,"342 NORTON ST","New Haven","CT",""
21819,"340 NORTON ST","New Haven","CT",""
21820,"336 NORTON ST","New Haven","CT",""
21821,"332 NORTON ST","New Haven","CT",""
21822,"330 NORTON ST","New Haven","CT",""
21823,"318 NORTON ST","New Haven","CT",""
21824,"314 NORTON ST","New Haven","CT",""
21825,"308 NORTON ST","New Haven","CT",""
21826,"298 NORTON ST","New Haven","CT",""
21827,"294 NORTON ST","New Haven","CT",""
21828,"292 NORTON ST","New Haven","CT",""
21829,"286 NORTON ST","New Haven","CT",""
21830,"280 NORTON ST","New Haven","CT",""
21831,"395 WHALLEY AV","New Haven","CT",""
21832,"399 WHALLEY AV","New Haven","CT",""
21833,"413 WHALLEY AV","New Haven","CT",""
21834,"1495 ELLA T GRASSO BLVD","New Haven","CT",""
21835,NA,"New Haven","CT",""
21836,NA,"New Haven","CT",""
21837,"1509 ELLA T GRASSO BLVD","New Haven","CT",""
21838,"1519 ELLA T GRASSO BLVD","New Haven","CT",""
21839,"1525 ELLA T GRASSO BLVD","New Haven","CT",""
21840,"1529 ELLA T GRASSO BLVD","New Haven","CT",""
21841,"1535 ELLA T GRASSO BLVD","New Haven","CT",""
21842,"1541 ELLA T GRASSO BLVD","New Haven","CT",""
21843,"1551 ELLA T GRASSO BLVD","New Haven","CT",""
21844,"1555 ELLA T GRASSO BLVD","New Haven","CT",""
21845,"1559 ELLA T GRASSO BLVD","New Haven","CT",""
21846,"1563 ELLA T GRASSO BLVD","New Haven","CT",""
21847,"1569 ELLA T GRASSO BLVD","New Haven","CT",""
21848,"136 ANITA ST","New Haven","CT",""
21849,"118 ANITA ST","New Haven","CT",""
21850,"92 ANITA ST","New Haven","CT",""
21851,"80 ANITA ST","New Haven","CT",""
21852,"70 ANITA ST","New Haven","CT",""
21853,"50 ANITA ST","New Haven","CT",""
21854,"40 ANITA ST","New Haven","CT",""
21855,"36 ANITA ST","New Haven","CT",""
21856,"410 ELLSWORTH AV","New Haven","CT",""
21857,"406 ELLSWORTH AV","New Haven","CT",""
21858,"400 ELLSWORTH AV","New Haven","CT",""
21859,"396 ELLSWORTH AV","New Haven","CT",""
21860,"390 ELLSWORTH AV","New Haven","CT",""
21861,"384 ELLSWORTH AV","New Haven","CT",""
21862,"378 ELLSWORTH AV","New Haven","CT",""
21863,"372 ELLSWORTH AV","New Haven","CT",""
21864,"368 ELLSWORTH AV","New Haven","CT",""
21865,"364 ELLSWORTH AV","New Haven","CT",""
21866,"358 ELLSWORTH AV","New Haven","CT",""
21867,"354 ELLSWORTH AV","New Haven","CT",""
21868,"435 WHALLEY AV","New Haven","CT",""
21869,"457 WHALLEY AV","New Haven","CT",""
21870,"461 WHALLEY AV","New Haven","CT",""
21871,"473 WHALLEY AV","New Haven","CT",""
21872,"463 WHALLEY AV #A","New Haven","CT",""
21873,"463 WHALLEY AV #B","New Haven","CT",""
21874,"463 WHALLEY AV #C","New Haven","CT",""
21875,"463 WHALLEY AV #D","New Haven","CT",""
21876,"463 WHALLEY AV #E","New Haven","CT",""
21877,"463 WHALLEY AV #F","New Haven","CT",""
21878,"463 WHALLEY AV #G","New Haven","CT",""
21879,"463 WHALLEY AV #H","New Haven","CT",""
21880,"463 WHALLEY AV #I","New Haven","CT",""
21881,"463 WHALLEY AV #J","New Haven","CT",""
21882,"463 WHALLEY AV #K","New Haven","CT",""
21883,"463 WHALLEY AV #L","New Haven","CT",""
21884,"463 WHALLEY AV #M","New Haven","CT",""
21885,"463 WHALLEY AV #N","New Haven","CT",""
21886,"463 WHALLEY AV #O","New Haven","CT",""
21887,"463 WHALLEY AV #P","New Haven","CT",""
21888,"463 WHALLEY AV #Q","New Haven","CT",""
21889,"463 WHALLEY AV #R","New Haven","CT",""
21890,"463 WHALLEY AV #S","New Haven","CT",""
21891,"463 WHALLEY AV #T","New Haven","CT",""
21892,"465 WHALLEY AV #A","New Haven","CT",""
21893,"465 WHALLEY AV #B","New Haven","CT",""
21894,"465 WHALLEY AV #C","New Haven","CT",""
21895,"465 WHALLEY AV #D","New Haven","CT",""
21896,"465 WHALLEY AV #E","New Haven","CT",""
21897,"465 WHALLEY AV #F","New Haven","CT",""
21898,"465 WHALLEY AV #G","New Haven","CT",""
21899,"465 WHALLEY AV #H","New Haven","CT",""
21900,"465 WHALLEY AV #I","New Haven","CT",""
21901,"465 WHALLEY AV #J","New Haven","CT",""
21902,"465 WHALLEY AV #K","New Haven","CT",""
21903,"465 WHALLEY AV #L","New Haven","CT",""
21904,"465 WHALLEY AV #M","New Haven","CT",""
21905,"465 WHALLEY AV #N","New Haven","CT",""
21906,"465 WHALLEY AV #O","New Haven","CT",""
21907,"465 WHALLEY AV #P","New Haven","CT",""
21908,"467 WHALLEY AV #A","New Haven","CT",""
21909,"467 WHALLEY AV #B","New Haven","CT",""
21910,"467 WHALLEY AV #C","New Haven","CT",""
21911,"467 WHALLEY AV #D","New Haven","CT",""
21912,"467 WHALLEY AV #E","New Haven","CT",""
21913,"467 WHALLEY AV #F","New Haven","CT",""
21914,"467 WHALLEY AV #G","New Haven","CT",""
21915,"467 WHALLEY AV #H","New Haven","CT",""
21916,"467 WHALLEY AV #I","New Haven","CT",""
21917,"467 WHALLEY AV #J","New Haven","CT",""
21918,"467 WHALLEY AV #K","New Haven","CT",""
21919,"467 WHALLEY AV #L","New Haven","CT",""
21920,"467 WHALLEY AV #M","New Haven","CT",""
21921,"467 WHALLEY AV #N","New Haven","CT",""
21922,"467 WHALLEY AV #O","New Haven","CT",""
21923,"467 WHALLEY AV #P","New Haven","CT",""
21924,"467 WHALLEY AV #Q","New Haven","CT",""
21925,"467 WHALLEY AV #R","New Haven","CT",""
21926,"467 WHALLEY AV #S","New Haven","CT",""
21927,"467 WHALLEY AV #T","New Haven","CT",""
21928,"471 WHALLEY AV #A","New Haven","CT",""
21929,"471 WHALLEY AV #B","New Haven","CT",""
21930,"471 WHALLEY AV #C","New Haven","CT",""
21931,"471 WHALLEY AV #D","New Haven","CT",""
21932,"471 WHALLEY AV #E","New Haven","CT",""
21933,"471 WHALLEY AV #F","New Haven","CT",""
21934,"471 WHALLEY AV #G","New Haven","CT",""
21935,"471 WHALLEY AV #H","New Haven","CT",""
21936,"471 WHALLEY AV #I","New Haven","CT",""
21937,"471 WHALLEY AV #J","New Haven","CT",""
21938,"471 WHALLEY AV #K","New Haven","CT",""
21939,"471 WHALLEY AV #L","New Haven","CT",""
21940,"471 WHALLEY AV #M","New Haven","CT",""
21941,"471 WHALLEY AV #N","New Haven","CT",""
21942,"471 WHALLEY AV #O","New Haven","CT",""
21943,"471 WHALLEY AV #P","New Haven","CT",""
21944,"471 WHALLEY AV #Q","New Haven","CT",""
21945,"471 WHALLEY AV #R","New Haven","CT",""
21946,"471 WHALLEY AV #S","New Haven","CT",""
21947,"471 WHALLEY AV #T","New Haven","CT",""
21948,"471 WHALLEY AV #U","New Haven","CT",""
21949,"471 WHALLEY AV #V","New Haven","CT",""
21950,"469 WHALLEY AV #A","New Haven","CT",""
21951,"469 WHALLEY AV #B","New Haven","CT",""
21952,"469 WHALLEY AV #C","New Haven","CT",""
21953,"469 WHALLEY AV #D","New Haven","CT",""
21954,"469 WHALLEY AV #E","New Haven","CT",""
21955,"469 WHALLEY AV #F","New Haven","CT",""
21956,"463 WHALLEY AV #GAR7","New Haven","CT",""
21957,"844 ELM ST","New Haven","CT",""
21958,"840 ELM ST","New Haven","CT",""
21959,"834 ELM ST","New Haven","CT",""
21960,"830 ELM ST","New Haven","CT",""
21961,"826 ELM ST","New Haven","CT",""
21962,"820 ELM ST","New Haven","CT",""
21963,"816 ELM ST","New Haven","CT",""
21964,"808 ELM ST","New Haven","CT",""
21965,"200 ELLSWORTH AV","New Haven","CT",""
21966,"196 ELLSWORTH AV","New Haven","CT",""
21967,"190 ELLSWORTH AV","New Haven","CT",""
21968,"186 ELLSWORTH AV","New Haven","CT",""
21969,"155 MAPLE ST","New Haven","CT",""
21970,"159 MAPLE ST","New Haven","CT",""
21971,"165 MAPLE ST","New Haven","CT",""
21972,"169 MAPLE ST","New Haven","CT",""
21973,"175 MAPLE ST","New Haven","CT",""
21974,"1397 ELLA T GRASSO BLVD","New Haven","CT",""
21975,"1401 ELLA T GRASSO BLVD","New Haven","CT",""
21976,"796 ELM ST","New Haven","CT",""
21977,"792 ELM ST","New Haven","CT",""
21978,"790 ELM ST","New Haven","CT",""
21979,"788 ELM ST","New Haven","CT",""
21980,"786 ELM ST","New Haven","CT",""
21981,NA,"New Haven","CT",""
21982,"784 ELM ST","New Haven","CT",""
21983,"196 NORTON ST","New Haven","CT",""
21984,"196 NORTON ST","New Haven","CT",""
21985,"192 NORTON ST","New Haven","CT",""
21986,"186 NORTON ST","New Haven","CT",""
21987,"182 NORTON ST","New Haven","CT",""
21988,"176 NORTON ST","New Haven","CT",""
21989,"170 NORTON ST","New Haven","CT",""
21990,"166 NORTON ST","New Haven","CT",""
21991,"115 MAPLE ST","New Haven","CT",""
21992,"117 MAPLE ST","New Haven","CT",""
21993,"119 MAPLE ST","New Haven","CT",""
21994,"123 MAPLE ST","New Haven","CT",""
21995,"131 MAPLE ST","New Haven","CT",""
21996,"133 MAPLE ST","New Haven","CT",""
21997,"195 ELLSWORTH AV","New Haven","CT",""
21998,"201 ELLSWORTH AV","New Haven","CT",""
21999,"748 ELM ST","New Haven","CT",""
22000,"746 ELM ST","New Haven","CT",""
