"pid","location","city","state","zip"
13001,"436 ORANGE ST","New Haven","CT",""
13002,"37 TRUMBULL ST","New Haven","CT",""
13003,"41 TRUMBULL ST","New Haven","CT",""
13004,"43 TRUMBULL ST","New Haven","CT",""
13005,NA,"New Haven","CT",""
13006,"95 AUDUBON ST #1","New Haven","CT",""
13007,"95 AUDUBON ST #2","New Haven","CT",""
13008,"95 AUDUBON ST #3","New Haven","CT",""
13009,"95 AUDUBON ST #4","New Haven","CT",""
13010,"95 AUDUBON ST #5","New Haven","CT",""
13011,"95 AUDUBON ST #6","New Haven","CT",""
13012,"95 AUDUBON ST #7","New Haven","CT",""
13013,"95 AUDUBON ST #8","New Haven","CT",""
13014,"95 AUDUBON ST #9","New Haven","CT",""
13015,"95 AUDUBON ST #10","New Haven","CT",""
13016,"95 AUDUBON ST #11","New Haven","CT",""
13017,"95 AUDUBON ST #12","New Haven","CT",""
13018,"95 AUDUBON ST #13","New Haven","CT",""
13019,"95 AUDUBON ST #14","New Haven","CT",""
13020,"95 AUDUBON ST #15","New Haven","CT",""
13021,"95 AUDUBON ST #16","New Haven","CT",""
13022,"95 AUDUBON ST #17","New Haven","CT",""
13023,"95 AUDUBON ST #18","New Haven","CT",""
13024,"95 AUDUBON ST #19","New Haven","CT",""
13025,"95 AUDUBON ST #20","New Haven","CT",""
13026,"95 AUDUBON ST #21","New Haven","CT",""
13027,"95 AUDUBON ST #22","New Haven","CT",""
13028,"95 AUDUBON ST #23","New Haven","CT",""
13029,"95 AUDUBON ST #24","New Haven","CT",""
13030,"95 AUDUBON ST #25","New Haven","CT",""
13031,"95 AUDUBON ST #26","New Haven","CT",""
13032,"95 AUDUBON ST #27","New Haven","CT",""
13033,"95 AUDUBON ST #28","New Haven","CT",""
13034,"95 AUDUBON ST #29","New Haven","CT",""
13035,"95 AUDUBON ST #30","New Haven","CT",""
13036,"95 AUDUBON ST #31","New Haven","CT",""
13037,"95 AUDUBON ST #32","New Haven","CT",""
13038,"95 AUDUBON ST #33","New Haven","CT",""
13039,"95 AUDUBON ST #34","New Haven","CT",""
13040,"95 AUDUBON ST #35","New Haven","CT",""
13041,"95 AUDUBON ST #36","New Haven","CT",""
13042,"95 AUDUBON ST #37","New Haven","CT",""
13043,"95 AUDUBON ST #38","New Haven","CT",""
13044,"95 AUDUBON ST #39","New Haven","CT",""
13045,"95 AUDUBON ST #40","New Haven","CT",""
13046,"95 AUDUBON ST #41","New Haven","CT",""
13047,"95 AUDUBON ST #42","New Haven","CT",""
13048,"95 AUDUBON ST #43","New Haven","CT",""
13049,"95 AUDUBON ST #44","New Haven","CT",""
13050,"95 AUDUBON ST #45","New Haven","CT",""
13051,"95 AUDUBON ST #46","New Haven","CT",""
13052,"95 AUDUBON ST #47","New Haven","CT",""
13053,"95 AUDUBON ST #48","New Haven","CT",""
13054,"95 AUDUBON ST #49","New Haven","CT",""
13055,"95 AUDUBON ST #50","New Haven","CT",""
13056,"95 AUDUBON ST #51","New Haven","CT",""
13057,"95 AUDUBON ST #52","New Haven","CT",""
13058,"95 AUDUBON ST #53","New Haven","CT",""
13059,"95 AUDUBON ST #54","New Haven","CT",""
13060,"95 AUDUBON ST #55","New Haven","CT",""
13061,"95 AUDUBON ST #56","New Haven","CT",""
13062,"95 AUDUBON ST #57","New Haven","CT",""
13063,"95 AUDUBON ST #58","New Haven","CT",""
13064,"95 AUDUBON ST #59","New Haven","CT",""
13065,"95 AUDUBON ST #60","New Haven","CT",""
13066,"95 AUDUBON ST #61","New Haven","CT",""
13067,"95 AUDUBON ST #C-1","New Haven","CT",""
13068,"95 AUDUBON ST #C-2","New Haven","CT",""
13069,"95 AUDUBON ST #C-3","New Haven","CT",""
13070,"95 AUDUBON ST #C-4","New Haven","CT",""
13071,"95 AUDUBON ST #C-5","New Haven","CT",""
13072,"95 AUDUBON ST","New Haven","CT",""
13073,"67 WHITNEY AV","New Haven","CT",""
13074,"71 WHITNEY AV","New Haven","CT",""
13075,"75 WHITNEY AV","New Haven","CT",""
13076,"85 WHITNEY AV","New Haven","CT",""
13077,"68 TRUMBULL ST","New Haven","CT",""
13078,"66 TRUMBULL ST","New Haven","CT",""
13079,"64 TRUMBULL ST","New Haven","CT",""
13080,NA,"New Haven","CT",""
13081,"60 TRUMBULL ST","New Haven","CT",""
13082,"58 TRUMBULL ST","New Haven","CT",""
13083,"54 TRUMBULL ST","New Haven","CT",""
13084,"52 TRUMBULL ST","New Haven","CT",""
13085,"LINCOLN ST","New Haven","CT",""
13086,"LINCOLN ST","New Haven","CT",""
13087,"50 TRUMBULL ST","New Haven","CT",""
13088,"2 LINCOLN ST","New Haven","CT",""
13089,"1 LINCOLN ST","New Haven","CT",""
13090,"LINCOLN ST","New Haven","CT",""
13091,"46 TRUMBULL ST","New Haven","CT",""
13092,"44 TRUMBULL ST","New Haven","CT",""
13093,"42 TRUMBULL ST","New Haven","CT",""
13094,"40 TRUMBULL ST","New Haven","CT",""
13095,"38 TRUMBULL ST","New Haven","CT",""
13096,NA,"New Haven","CT",""
13097,"9 LINCOLN ST","New Haven","CT",""
13098,"406 ORANGE ST","New Haven","CT",""
13099,"3 LINCOLN ST","New Haven","CT",""
13100,"400 ORANGE ST","New Haven","CT",""
13101,"396 ORANGE ST","New Haven","CT",""
13102,"392 ORANGE ST","New Haven","CT",""
13103,"388 ORANGE ST","New Haven","CT",""
13104,"380 ORANGE ST","New Haven","CT",""
13105,"69 AUDUBON ST","New Haven","CT",""
13106,"73 AUDUBON ST","New Haven","CT",""
13107,"81 AUDUBON ST","New Haven","CT",""
13108,"181 ORANGE ST","New Haven","CT",""
13109,"189 ORANGE ST","New Haven","CT",""
13110,"205 ORANGE ST","New Haven","CT",""
13111,"44 ELM ST","New Haven","CT",""
13112,"40 ELM ST","New Haven","CT",""
13113,"32 ELM ST","New Haven","CT",""
13114,"26 ELM ST","New Haven","CT",""
13115,"432 STATE ST","New Haven","CT",""
13116,"ELM ST","New Haven","CT",""
13117,"8 ELM ST","New Haven","CT",""
13118,"ORANGE ST","New Haven","CT",""
13119,"32 ELM ST","New Haven","CT",""
13120,"418 STATE ST","New Haven","CT",""
13121,"107 COURT ST","New Haven","CT",""
13122,"109 COURT ST","New Haven","CT",""
13123,"115 COURT ST","New Haven","CT",""
13124,"123 COURT ST","New Haven","CT",""
13125,"47 ELM ST #1","New Haven","CT",""
13126,"47 ELM ST #2","New Haven","CT",""
13127,"47 ELM ST #3","New Haven","CT",""
13128,"47 ELM ST #4","New Haven","CT",""
13129,"47 ELM ST #5","New Haven","CT",""
13130,"47 ELM ST #6","New Haven","CT",""
13131,"47 ELM ST #7","New Haven","CT",""
13132,"47 ELM ST #8","New Haven","CT",""
13133,"47 ELM ST #9","New Haven","CT",""
13134,"47 ELM ST #10","New Haven","CT",""
13135,"261 ORANGE ST","New Haven","CT",""
13136,"265 ORANGE ST","New Haven","CT",""
13137,"267 ORANGE ST","New Haven","CT",""
13138,"269 ORANGE ST","New Haven","CT",""
13139,"275 ORANGE ST","New Haven","CT",""
13140,"STATE ST","New Haven","CT",""
13141,"283 ORANGE ST","New Haven","CT",""
13142,"22 WALL ST","New Haven","CT",""
13143,"10 WALL ST","New Haven","CT",""
13144,"566 STATE ST","New Haven","CT",""
13145,"532 STATE ST","New Haven","CT",""
13146,"522 STATE ST","New Haven","CT",""
13147,"510 STATE ST","New Haven","CT",""
13148,"506 STATE ST","New Haven","CT",""
13149,"7 ELM ST","New Haven","CT",""
13150,"19 ELM ST","New Haven","CT",""
13151,"27 ELM ST","New Haven","CT",""
13152,"35 ELM ST","New Haven","CT",""
13153,"39 ELM ST","New Haven","CT",""
13154,"41 ELM ST","New Haven","CT",""
13155,"43 ELM ST","New Haven","CT",""
13156,"ELM ST","New Haven","CT",""
13157,"26 GROVE ST","New Haven","CT",""
13158,"26 GROVE ST","New Haven","CT",""
13159,"417 STATE ST","New Haven","CT",""
13160,"1000 GRAND AV","New Haven","CT",""
13161,"120 OLIVE ST","New Haven","CT",""
13162,"960 GRAND AV","New Haven","CT",""
13163,"98 OLIVE ST","New Haven","CT",""
13164,"92 OLIVE ST","New Haven","CT",""
13165,"999 GRAND AV","New Haven","CT",""
13166,"999 GRAND AV","New Haven","CT",""
13167,"170 OLIVE ST","New Haven","CT",""
13168,"943 GRAND AV","New Haven","CT",""
13169,"953 GRAND AV","New Haven","CT",""
13170,"GRAND AV","New Haven","CT",""
13171,"1 STATE ST","New Haven","CT",""
13172,"167 WATER ST","New Haven","CT",""
13173,"37 UNION ST","New Haven","CT",""
13174,"34 FAIR ST","New Haven","CT",""
13175,"87 UNION ST","New Haven","CT",""
13176,"680 CHAPEL ST","New Haven","CT",""
13177,"630 CHAPEL ST","New Haven","CT",""
13178,"20 FAIR ST","New Haven","CT",""
13179,"10 OLIVE ST","New Haven","CT",""
13180,"145 WATER ST","New Haven","CT",""
13181,"155 WATER ST","New Haven","CT",""
13182,"159 WATER ST","New Haven","CT",""
13183,"183 STATE ST","New Haven","CT",""
13184,"59 FAIR ST","New Haven","CT",""
13185,"253 STATE ST","New Haven","CT",""
13186,"698 CHAPEL ST","New Haven","CT",""
13187,"CROWN ST","New Haven","CT",""
13188,"STATE ST","New Haven","CT",""
13189,"COURT ST","New Haven","CT",""
13190,"78 OLIVE ST","New Haven","CT",""
13191,NA,"New Haven","CT",""
13192,NA,"New Haven","CT",""
13193,"88 OLIVE ST","New Haven","CT",""
13194,"673 CHAPEL ST","New Haven","CT",""
13195,NA,"New Haven","CT",""
13196,NA,"New Haven","CT",""
13197,"721 CHAPEL ST","New Haven","CT",""
13198,"152 WATER ST","New Haven","CT",""
13199,"50 BREWERY ST","New Haven","CT",""
13200,"BREWERY ST","New Haven","CT",""
13201,"FOOD TERMINAL PLZ","New Haven","CT",""
13202,"106 FOOD TERMINAL PLZ","New Haven","CT",""
13203,"108 FOOD TERMINAL PLZ","New Haven","CT",""
13204,"110 FOOD TERMINAL PLZ","New Haven","CT",""
13205,"120 FOOD TERMINAL PLZ","New Haven","CT",""
13206,"180 FOOD TERMINAL PLZ","New Haven","CT",""
13207,"1 BREWERY ST","New Haven","CT",""
13208,"SARGENT DR","New Haven","CT",""
13209,"10 BREWERY ST","New Haven","CT",""
13210,"BREWERY ST","New Haven","CT",""
13211,"100 SARGENT DR","New Haven","CT",""
13212,"150 SARGENT DR","New Haven","CT",""
13213,"SARGENT DR","New Haven","CT",""
13214,"SARGENT DR","New Haven","CT",""
13215,"200 SARGENT DR","New Haven","CT",""
13216,"SARGENT DR","New Haven","CT",""
13217,"104 FOOD TERMINAL PLZ","New Haven","CT",""
13218,"400 SARGENT DR","New Haven","CT",""
13219,"17 SEA ST","New Haven","CT",""
13220,"49 HOWARD AV","New Haven","CT",""
13221,"80 SEA ST","New Haven","CT",""
13222,"74 SEA ST","New Haven","CT",""
13223,"70 SEA ST","New Haven","CT",""
13224,"68 SEA ST","New Haven","CT",""
13225,"60 SEA ST","New Haven","CT",""
13226,"58 SEA ST","New Haven","CT",""
13227,"54 SEA ST","New Haven","CT",""
13228,"40 SEA ST","New Haven","CT",""
13229,"34 SEA ST","New Haven","CT",""
13230,"33 SOUTH WATER ST","New Haven","CT",""
13231,"37 SOUTH WATER ST","New Haven","CT",""
13232,"43 SOUTH WATER ST","New Haven","CT",""
13233,"47 SOUTH WATER ST","New Haven","CT",""
13234,"51 SOUTH WATER ST","New Haven","CT",""
13235,"57 SOUTH WATER ST","New Haven","CT",""
13236,"SOUTH WATER ST","New Haven","CT",""
13237,"61 SOUTH WATER ST","New Haven","CT",""
13238,"65 SOUTH WATER ST","New Haven","CT",""
13239,"67 SOUTH WATER ST","New Haven","CT",""
13240,"73 SOUTH WATER ST","New Haven","CT",""
13241,"81 SOUTH WATER ST","New Haven","CT",""
13242,"19 HOWARD AV","New Haven","CT",""
13243,"27 HOWARD AV","New Haven","CT",""
13244,"HOWARD AV","New Haven","CT",""
13245,"33 HOWARD AV","New Haven","CT",""
13246,"35 HOWARD AV","New Haven","CT",""
13247,"41 HOWARD AV","New Haven","CT",""
13248,"45 HOWARD AV","New Haven","CT",""
13249,NA,"New Haven","CT",""
13250,"2 HARBOUR CLOSE #E31","New Haven","CT",""
13251,"4 HARBOUR CLOSE #E30","New Haven","CT",""
13252,"6 HARBOUR CLOSE #E36","New Haven","CT",""
13253,"8 HARBOUR CLOSE #E37","New Haven","CT",""
13254,"10 HARBOUR CLOSE #E35","New Haven","CT",""
13255,"12 HARBOUR CLOSE #E34","New Haven","CT",""
13256,"14 HARBOUR CLOSE #E29","New Haven","CT",""
13257,"16 HARBOUR CLOSE #D-26","New Haven","CT",""
13258,"18 HARBOUR CLOSE #E32","New Haven","CT",""
13259,"20 HARBOUR CLOSE #E-33","New Haven","CT",""
13260,"22 HARBOUR CLOSE #D-28","New Haven","CT",""
13261,"24 HARBOUR CLOSE #D-27","New Haven","CT",""
13262,"26 HARBOUR CLOSE #D-25","New Haven","CT",""
13263,"1 HARBOUR CLOSE #A-1","New Haven","CT",""
13264,"3 HARBOUR CLOSE #A-3","New Haven","CT",""
13265,"5 HARBOUR CLOSE #A-5","New Haven","CT",""
13266,"7 HARBOUR CLOSE #A-7","New Haven","CT",""
13267,"9 HARBOUR CLOSE #A-9","New Haven","CT",""
13268,"11 HARBOUR CLOSE #A-11","New Haven","CT",""
13269,"13 HARBOUR CLOSE #A-13","New Haven","CT",""
13270,"15 HARBOUR CLOSE #A-15","New Haven","CT",""
13271,"17 HARBOUR CLOSE #A-17","New Haven","CT",""
13272,"19 HARBOUR CLOSE #A-19","New Haven","CT",""
13273,"21 HARBOUR CLOSE #A-21","New Haven","CT",""
13274,"23 HARBOUR CLOSE #A-23","New Haven","CT",""
13275,"25 HARBOUR CLOSE #A-25","New Haven","CT",""
13276,"27 HARBOUR CLOSE #A-27","New Haven","CT",""
13277,"29 HARBOUR CLOSE #A-29","New Haven","CT",""
13278,"31 HARBOUR CLOSE #A-31","New Haven","CT",""
13279,"33 HARBOUR CLOSE #A-33","New Haven","CT",""
13280,"35 HARBOUR CLOSE #A-35","New Haven","CT",""
13281,"37 HARBOUR CLOSE #A-37","New Haven","CT",""
13282,"39 HARBOUR CLOSE #A-39","New Haven","CT",""
13283,"41 HARBOUR CLOSE #A-41","New Haven","CT",""
13284,"43 HARBOUR CLOSE #A-43","New Haven","CT",""
13285,"45 HARBOUR CLOSE #A-45","New Haven","CT",""
13286,"47 HARBOUR CLOSE #B-47","New Haven","CT",""
13287,"49 HARBOUR CLOSE #B-49","New Haven","CT",""
13288,"51 HARBOUR CLOSE #B-51","New Haven","CT",""
13289,"53 HARBOUR CLOSE #B-53","New Haven","CT",""
13290,"55 HARBOUR CLOSE #B-55","New Haven","CT",""
13291,"57 HARBOUR CLOSE #B-57","New Haven","CT",""
13292,"59 HARBOUR CLOSE #B-59","New Haven","CT",""
13293,"61 HARBOUR CLOSE #B-61","New Haven","CT",""
13294,"63 HARBOUR CLOSE #B-63","New Haven","CT",""
13295,"65 HARBOUR CLOSE #B-65","New Haven","CT",""
13296,"67 HARBOUR CLOSE #B-67","New Haven","CT",""
13297,"69 HARBOUR CLOSE #B-69","New Haven","CT",""
13298,"71 HARBOUR CLOSE #B-71","New Haven","CT",""
13299,"73 HARBOUR CLOSE #B-73","New Haven","CT",""
13300,"75 HARBOUR CLOSE #B-75","New Haven","CT",""
13301,"77 HARBOUR CLOSE #B-77","New Haven","CT",""
13302,"79 HARBOUR CLOSE #B-79","New Haven","CT",""
13303,"83 HARBOUR CLOSE #C-83","New Haven","CT",""
13304,"85 HARBOUR CLOSE #C-85","New Haven","CT",""
13305,"87 HARBOUR CLOSE #C-87","New Haven","CT",""
13306,"89 HARBOUR CLOSE #C-89","New Haven","CT",""
13307,"91 HARBOUR CLOSE #C-91","New Haven","CT",""
13308,"93 HARBOUR CLOSE #C-93","New Haven","CT",""
13309,"95 HARBOUR CLOSE #C-95","New Haven","CT",""
13310,"97 HARBOUR CLOSE #C-97","New Haven","CT",""
13311,"99 HARBOUR CLOSE #C-99","New Haven","CT",""
13312,"101 HARBOUR CLOSE #C101","New Haven","CT",""
13313,"103 HARBOUR CLOSE #C103","New Haven","CT",""
13314,"105 HARBOUR CLOSE #C105","New Haven","CT",""
13315,"107 HARBOUR CLOSE #C107","New Haven","CT",""
13316,"109 HARBOUR CLOSE #C109","New Haven","CT",""
13317,"111 HARBOUR CLOSE #C111","New Haven","CT",""
13318,"113 HARBOUR CLOSE #C113","New Haven","CT",""
13319,"115 HARBOUR CLOSE #C115","New Haven","CT",""
13320,"117 HARBOUR CLOSE #C117","New Haven","CT",""
13321,"119 HARBOUR CLOSE #C119","New Haven","CT",""
13322,"121 HARBOUR CLOSE #C121","New Haven","CT",""
13323,"123 HARBOUR CLOSE #C123","New Haven","CT",""
13324,"125 HARBOUR CLOSE #C125","New Haven","CT",""
13325,"110 SEA ST","New Haven","CT",""
13326,"104 SEA ST","New Haven","CT",""
13327,"SEA ST","New Haven","CT",""
13328,"52 HOWARD AV","New Haven","CT",""
13329,"48 HOWARD AV","New Haven","CT",""
13330,"44 HOWARD AV","New Haven","CT",""
13331,"36 HOWARD AV","New Haven","CT",""
13332,"32 HOWARD AV","New Haven","CT",""
13333,"28 HOWARD AV","New Haven","CT",""
13334,"24 HOWARD AV","New Haven","CT",""
13335,"20 HOWARD AV","New Haven","CT",""
13336,"99 SOUTH WATER ST","New Haven","CT",""
13337,"103 SOUTH WATER ST","New Haven","CT",""
13338,"107 SOUTH WATER ST","New Haven","CT",""
13339,"109 SOUTH WATER ST","New Haven","CT",""
13340,"115 SOUTH WATER ST","New Haven","CT",""
13341,"119 SOUTH WATER ST","New Haven","CT",""
13342,NA,"New Haven","CT",""
13343,NA,"New Haven","CT",""
13344,"98 SOUTH WATER ST","New Haven","CT",""
13345,"110 SOUTH WATER ST","New Haven","CT",""
13346,"120 SOUTH WATER ST","New Haven","CT",""
13347,"100 SOUTH WATER ST","New Haven","CT",""
13348,"82 SOUTH WATER ST","New Haven","CT",""
13349,NA,"New Haven","CT",""
13350,NA,"New Haven","CT",""
13351,NA,"New Haven","CT",""
13352,NA,"New Haven","CT",""
13353,NA,"New Haven","CT",""
13354,"24 SOUTH WATER ST","New Haven","CT",""
13355,"40 SOUTH WATER ST","New Haven","CT",""
13356,NA,"New Haven","CT",""
13357,"127 HARBOUR CLOSE #C127","New Haven","CT",""
13358,"129 HARBOUR CLOSE #C129","New Haven","CT",""
13359,"131 HARBOUR CLOSE #C131","New Haven","CT",""
13360,"133 HARBOUR CLOSE #C133","New Haven","CT",""
13361,"95 HOWARD AV","New Haven","CT",""
13362,"46 SIXTH ST","New Haven","CT",""
13363,"44 SIXTH ST","New Haven","CT",""
13364,"34 SIXTH ST","New Haven","CT",""
13365,"30 HALLOCK AV","New Haven","CT",""
13366,"28 HALLOCK AV","New Haven","CT",""
13367,"26 HALLOCK AV","New Haven","CT",""
13368,"22 HALLOCK AV","New Haven","CT",""
13369,"16 HALLOCK AV","New Haven","CT",""
13370,"14 HALLOCK AV","New Haven","CT",""
13371,"63 SEA ST","New Haven","CT",""
13372,"71 SEA ST","New Haven","CT",""
13373,"73 SEA ST","New Haven","CT",""
13374,"75 SEA ST","New Haven","CT",""
13375,"63 HOWARD AV","New Haven","CT",""
13376,"67 HOWARD AV","New Haven","CT",""
13377,"71 HOWARD AV","New Haven","CT",""
13378,"75 HOWARD AV","New Haven","CT",""
13379,"79 HOWARD AV","New Haven","CT",""
13380,"83 HOWARD AV","New Haven","CT",""
13381,"90 SIXTH ST","New Haven","CT",""
13382,"84 SIXTH ST","New Haven","CT",""
13383,"82 SIXTH ST","New Haven","CT",""
13384,"78 SIXTH ST","New Haven","CT",""
13385,"72 SIXTH ST","New Haven","CT",""
13386,"96 HOWARD AV","New Haven","CT",""
13387,"90 HOWARD AV","New Haven","CT",""
13388,"86 HOWARD AV","New Haven","CT",""
13389,"82 HOWARD AV","New Haven","CT",""
13390,"78 HOWARD AV","New Haven","CT",""
13391,"72 HOWARD AV","New Haven","CT",""
13392,"68 HOWARD AV","New Haven","CT",""
13393,"66 HOWARD AV","New Haven","CT",""
13394,"109 SEA ST","New Haven","CT",""
13395,"111 SEA ST","New Haven","CT",""
13396,"115 SEA ST","New Haven","CT",""
13397,"89 GREENWICH AV","New Haven","CT",""
13398,"97 GREENWICH AV","New Haven","CT",""
13399,"105 GREENWICH AV","New Haven","CT",""
13400,"109 GREENWICH AV","New Haven","CT",""
13401,"115 GREENWICH AV","New Haven","CT",""
13402,"88 GREENWICH AV","New Haven","CT",""
13403,"94 GREENWICH AV","New Haven","CT",""
13404,"100 GREENWICH AV","New Haven","CT",""
13405,"106 GREENWICH AV","New Haven","CT",""
13406,"110 GREENWICH AV","New Haven","CT",""
13407,"116 GREENWICH AV","New Haven","CT",""
13408,"120 GREENWICH AV","New Haven","CT",""
13409,"124 GREENWICH AV","New Haven","CT",""
13410,"128 GREENWICH AV","New Haven","CT",""
13411,"134 GREENWICH AV","New Haven","CT",""
13412,"138 GREENWICH AV","New Haven","CT",""
13413,"142 GREENWICH AV","New Haven","CT",""
13414,"146 GREENWICH AV","New Haven","CT",""
13415,"148 GREENWICH AV","New Haven","CT",""
13416,"HOWARD AV","New Haven","CT",""
13417,"HOWARD AV","New Haven","CT",""
13418,"189 GREENWICH AV","New Haven","CT",""
13419,"183 GREENWICH AV","New Haven","CT",""
13420,"179 GREENWICH AV","New Haven","CT",""
13421,"74 FIFTH ST","New Haven","CT",""
13422,"70 FIFTH ST","New Haven","CT",""
13423,"142 HOWARD AV","New Haven","CT",""
13424,"HOWARD AV","New Haven","CT",""
13425,"108 HOWARD AV","New Haven","CT",""
13426,"104 HOWARD AV","New Haven","CT",""
13427,"75 SIXTH ST","New Haven","CT",""
13428,"141 GREENWICH AV","New Haven","CT",""
13429,"145 GREENWICH AV","New Haven","CT",""
13430,"149 GREENWICH AV","New Haven","CT",""
13431,"GREENWICH AV","New Haven","CT",""
13432,"190 GREENWICH AV","New Haven","CT",""
13433,"188 GREENWICH AV","New Haven","CT",""
13434,"HALLOCK AV","New Haven","CT",""
13435,"15 HALLOCK AV","New Haven","CT",""
13436,"21 SEA ST","New Haven","CT",""
13437,"19 SEA ST","New Haven","CT",""
13438,"15 HALLOCK AV","New Haven","CT",""
13439,"25 SEA ST","New Haven","CT",""
13440,"29 SEA ST","New Haven","CT",""
13441,"37 SEA ST","New Haven","CT",""
13442,"39 SEA ST","New Haven","CT",""
13443,"53 SEA ST","New Haven","CT",""
13444,"57 SEA ST","New Haven","CT",""
13445,"2 SARGENT DR","New Haven","CT",""
13446,"113 HALLOCK AV","New Haven","CT",""
13447,"117 HALLOCK AV","New Haven","CT",""
13448,"121 HALLOCK AV","New Haven","CT",""
13449,"125 HALLOCK AV","New Haven","CT",""
13450,"135 HALLOCK AV","New Haven","CT",""
13451,"149 HALLOCK AV","New Haven","CT",""
13452,"159 HALLOCK AV","New Haven","CT",""
13453,"165 HALLOCK AV","New Haven","CT",""
13454,"169 HALLOCK AV","New Haven","CT",""
13455,"173 HALLOCK AV","New Haven","CT",""
13456,"175 HALLOCK AV","New Haven","CT",""
13457,"40 SARGENT DR","New Haven","CT",""
13458,"60 SARGENT DR","New Haven","CT",""
13459,"1 LONG WHARF DR","New Haven","CT",""
13460,"LONG WHARF DR","New Haven","CT",""
13461,"3 LONG WHARF DR","New Haven","CT",""
13462,"1 LONG WHARF DR","New Haven","CT",""
13463,"1 LONG WHARF DR","New Haven","CT",""
13464,NA,"New Haven","CT",""
13465,NA,"New Haven","CT",""
13466,"1 LONG WHARF DR","New Haven","CT",""
13467,"1 LONG WHARF DR","New Haven","CT",""
13468,"HALLOCK AV","New Haven","CT",""
13469,"90 SARGENT DR","New Haven","CT",""
13470,"SARGENT DR","New Haven","CT",""
13471,"SARGENT DR","New Haven","CT",""
13472,"SARGENT DR","New Haven","CT",""
13473,"93 CEDAR ST","New Haven","CT",""
13474,"97 CEDAR ST","New Haven","CT",""
13475,"99 CEDAR ST","New Haven","CT",""
13476,"103 CEDAR ST","New Haven","CT",""
13477,"105 CEDAR ST","New Haven","CT",""
13478,"48 SPRING ST","New Haven","CT",""
13479,"46 SPRING ST","New Haven","CT",""
13480,"40 SPRING ST","New Haven","CT",""
13481,"91 CEDAR ST","New Haven","CT",""
13482,"102 FOOD TERMINAL PLZ","New Haven","CT",""
13483,"FOOD TERMINAL PLZ","New Haven","CT",""
13484,"51 LIBERTY ST","New Haven","CT",""
13485,"CARLISLE ST","New Haven","CT",""
13486,"104 CARLISLE ST","New Haven","CT",""
13487,"CARLISLE ST","New Haven","CT",""
13488,"98 CARLISLE ST","New Haven","CT",""
13489,"96 CARLISLE ST","New Haven","CT",""
13490,"94 CARLISLE ST","New Haven","CT",""
13491,"90 CARLISLE ST","New Haven","CT",""
13492,"88 CARLISLE ST","New Haven","CT",""
13493,"189 UNION AV","New Haven","CT",""
13494,"235 UNION AV","New Haven","CT",""
13495,"219 UNION AV","New Haven","CT",""
13496,"19 LIBERTY ST","New Haven","CT",""
13497,"25 LIBERTY ST","New Haven","CT",""
13498,"29 LIBERTY ST","New Haven","CT",""
13499,"27 LIBERTY ST","New Haven","CT",""
13500,"31 LIBERTY ST","New Haven","CT",""
13501,"45 LIBERTY ST","New Haven","CT",""
13502,"152 PORTSEA ST","New Haven","CT",""
13503,"LIBERTY ST","New Haven","CT",""
13504,"146 PORTSEA ST","New Haven","CT",""
13505,"142 PORTSEA ST","New Haven","CT",""
13506,"140 PORTSEA ST","New Haven","CT",""
13507,"136 PORTSEA ST","New Haven","CT",""
13508,"134 PORTSEA ST","New Haven","CT",""
13509,"132 PORTSEA ST","New Haven","CT",""
13510,"130 PORTSEA ST","New Haven","CT",""
13511,"128 PORTSEA ST","New Haven","CT",""
13512,"PORTSEA ST","New Haven","CT",""
13513,"14 LOOP RD","New Haven","CT",""
13514,"81 CARLISLE ST","New Haven","CT",""
13515,"87 CARLISLE ST","New Haven","CT",""
13516,"89 CARLISLE ST","New Haven","CT",""
13517,"93 CARLISLE ST","New Haven","CT",""
13518,"95 CARLISLE ST","New Haven","CT",""
13519,"97 CARLISLE ST","New Haven","CT",""
13520,"101 CARLISLE ST","New Haven","CT",""
13521,"105 CARLISLE ST","New Haven","CT",""
13522,"57 LIBERTY ST","New Haven","CT",""
13523,"59 LIBERTY ST","New Haven","CT",""
13524,"61 LIBERTY ST","New Haven","CT",""
13525,"63 LIBERTY ST","New Haven","CT",""
13526,"169 UNION AV","New Haven","CT",""
13527,"UNION AV","New Haven","CT",""
13528,"UNION AV","New Haven","CT",""
13529,"UNION AV","New Haven","CT",""
13530,"170 UNION AV","New Haven","CT",""
13531,"94 COLUMBUS AV","New Haven","CT",""
13532,"89 UNION AV","New Haven","CT",""
13533,"49 UNION AV","New Haven","CT",""
13534,"54 MEADOW ST #1","New Haven","CT",""
13535,"54 MEADOW ST #1A","New Haven","CT",""
13536,"54 MEADOW ST #1B","New Haven","CT",""
13537,"54 MEADOW ST","New Haven","CT",""
13538,"54 MEADOW ST #6","New Haven","CT",""
13539,"54 MEADOW ST #7","New Haven","CT",""
13540,"54 MEADOW ST #8","New Haven","CT",""
13541,"54 MEADOW ST #9A","New Haven","CT",""
13542,"54 MEADOW ST #9B","New Haven","CT",""
13543,"54 MEADOW ST #11","New Haven","CT",""
13544,"1 UNION AV","New Haven","CT",""
13545,"78 MEADOW ST","New Haven","CT",""
13546,"91 COLUMBUS AV","New Haven","CT",""
13547,"86 SOUTH ORANGE ST","New Haven","CT",""
13548,"1 TOWER LA","New Haven","CT",""
13549,"18 TOWER LA","New Haven","CT",""
13550,"9 TOWER LA","New Haven","CT",""
13551,"CHURCH ST SOUTH","New Haven","CT",""
13552,"CHURCH ST SOUTH","New Haven","CT",""
13553,"TOWER LA","New Haven","CT",""
13554,"2 CHURCH ST SOUTH","New Haven","CT",""
13555,"3 CHURCH ST","New Haven","CT",""
13556,NA,"New Haven","CT",""
13557,"SOUTH ORANGE ST","New Haven","CT",""
13558,"CHURCH ST","New Haven","CT",""
13559,"275 SOUTH ORANGE ST","New Haven","CT",""
13560,"1 CHURCH ST","New Haven","CT",""
13561,"81 GEORGE ST","New Haven","CT",""
13562,"27 CHURCH ST","New Haven","CT",""
13563,"CROWN ST","New Haven","CT",""
13564,"35 CHURCH ST","New Haven","CT",""
13565,NA,"New Haven","CT",""
13566,"110 CROWN ST","New Haven","CT",""
13567,"100 CROWN ST","New Haven","CT",""
13568,"92 CROWN ST","New Haven","CT",""
13569,"86 CROWN ST","New Haven","CT",""
13570,"44 SOUTH ORANGE ST","New Haven","CT",""
13571,"CROWN ST","New Haven","CT",""
13572,"ORANGE ST","New Haven","CT",""
13573,"10 ORANGE ST","New Haven","CT",""
13574,"8 ORANGE ST","New Haven","CT",""
13575,"75 GEORGE ST","New Haven","CT",""
13576,"53 GEORGE ST","New Haven","CT",""
13577,"7 ORANGE ST","New Haven","CT",""
13578,"11 ORANGE ST","New Haven","CT",""
13579,"15 ORANGE ST #222","New Haven","CT",""
13580,"15 ORANGE ST #217","New Haven","CT",""
13581,"15 ORANGE ST #311","New Haven","CT",""
13582,"15 ORANGE ST #312","New Haven","CT",""
13583,"15 ORANGE ST #405","New Haven","CT",""
13584,"15 ORANGE ST #406","New Haven","CT",""
13585,"15 ORANGE ST #407","New Haven","CT",""
13586,"15 ORANGE ST #408","New Haven","CT",""
13587,"21 ORANGE ST #220","New Haven","CT",""
13588,"21 ORANGE ST #213","New Haven","CT",""
13589,NA,"New Haven","CT",""
13590,"21 ORANGE ST #215","New Haven","CT",""
13591,"21 ORANGE ST #216","New Haven","CT",""
13592,"21 ORANGE ST #309","New Haven","CT",""
13593,"21 ORANGE ST #310","New Haven","CT",""
13594,"21 ORANGE ST #401","New Haven","CT",""
13595,"21 ORANGE ST #402","New Haven","CT",""
13596,"21 ORANGE ST #403","New Haven","CT",""
13597,"21 ORANGE ST #404","New Haven","CT",""
13598,"15 ORANGE ST #218","New Haven","CT",""
13599,"15 ORANGE ST #219","New Haven","CT",""
13600,"15 ORANGE ST #221","New Haven","CT",""
13601,"15 ORANGE ST #223","New Haven","CT",""
13602,"50 CROWN ST","New Haven","CT",""
13603,NA,"New Haven","CT",""
13604,NA,"New Haven","CT",""
13605,"26 CROWN ST","New Haven","CT",""
13606,"232 STATE ST","New Haven","CT",""
13607,"STATE ST","New Haven","CT",""
13608,"214 STATE ST","New Haven","CT",""
13609,"204 STATE ST","New Haven","CT",""
13610,"196 STATE ST","New Haven","CT",""
13611,"192 STATE ST","New Haven","CT",""
13612,"25 GEORGE ST","New Haven","CT",""
13613,"19 GEORGE ST","New Haven","CT",""
13614,"31 GEORGE ST","New Haven","CT",""
13615,"39 GEORGE ST","New Haven","CT",""
13616,NA,"New Haven","CT",""
13617,NA,"New Haven","CT",""
13618,"91 CHURCH ST","New Haven","CT",""
13619,"852 CHAPEL ST","New Haven","CT",""
13620,NA,"New Haven","CT",""
13621,"848 CHAPEL ST","New Haven","CT",""
13622,"842 CHAPEL ST","New Haven","CT",""
13623,NA,"New Haven","CT",""
13624,NA,"New Haven","CT",""
13625,"812 CHAPEL ST","New Haven","CT",""
13626,"808 CHAPEL ST","New Haven","CT",""
13627,"108 ORANGE ST","New Haven","CT",""
13628,"96 ORANGE ST","New Haven","CT",""
13629,"84 ORANGE ST","New Haven","CT",""
13630,"37 CENTER ST","New Haven","CT",""
13631,"45 ORANGE ST","New Haven","CT",""
13632,"55 ORANGE ST","New Haven","CT",""
13633,"61 ORANGE ST","New Haven","CT",""
13634,"83 ORANGE ST","New Haven","CT",""
13635,"99 ORANGE ST","New Haven","CT",""
13636,"804 CHAPEL ST","New Haven","CT",""
13637,"800 CHAPEL ST","New Haven","CT",""
13638,"788 CHAPEL ST","New Haven","CT",""
13639,"786 CHAPEL ST","New Haven","CT",""
13640,"782 CHAPEL ST","New Haven","CT",""
13641,"770 CHAPEL ST","New Haven","CT",""
13642,"760 CHAPEL ST","New Haven","CT",""
13643,"756 CHAPEL ST","New Haven","CT",""
13644,"754 CHAPEL ST","New Haven","CT",""
13645,"742 CHAPEL ST","New Haven","CT",""
13646,"300 STATE ST","New Haven","CT",""
13647,"294 STATE ST","New Haven","CT",""
13648,"266 STATE ST","New Haven","CT",""
13649,"260 STATE ST","New Haven","CT",""
13650,"254 STATE ST","New Haven","CT",""
13651,"248 STATE ST","New Haven","CT",""
13652,"15 CROWN ST","New Haven","CT",""
13653,"270 STATE ST","New Haven","CT",""
13654,"29 CROWN ST","New Haven","CT",""
13655,"35 CROWN ST","New Haven","CT",""
13656,"47 CROWN ST","New Haven","CT",""
13657,"CROWN ST","New Haven","CT",""
13658,"51 CROWN ST","New Haven","CT",""
13659,"51 CROWN ST","New Haven","CT",""
13660,"123 CHURCH ST","New Haven","CT",""
13661,"129 CHURCH ST","New Haven","CT",""
13662,"145 CHURCH ST","New Haven","CT",""
13663,"152 ORANGE ST","New Haven","CT",""
13664,"152 ORANGE ST","New Haven","CT",""
13665,"ORANGE ST","New Haven","CT",""
13666,"140 ORANGE ST","New Haven","CT",""
13667,"138 ORANGE ST","New Haven","CT",""
13668,"809 CHAPEL ST","New Haven","CT",""
13669,"813 CHAPEL ST","New Haven","CT",""
13670,"827 CHAPEL ST","New Haven","CT",""
13671,"831 CHAPEL ST","New Haven","CT",""
13672,"837 CHAPEL ST","New Haven","CT",""
13673,"841 CHAPEL ST","New Haven","CT",""
13674,NA,"New Haven","CT",""
13675,NA,"New Haven","CT",""
13676,"849 CHAPEL ST","New Haven","CT",""
13677,"851 CHAPEL ST","New Haven","CT",""
13678,NA,"New Haven","CT",""
13679,"135 ORANGE ST","New Haven","CT",""
13680,"145 ORANGE ST","New Haven","CT",""
13681,"157 ORANGE ST","New Haven","CT",""
13682,"163 ORANGE ST","New Haven","CT",""
13683,NA,"New Haven","CT",""
13684,"COURT ST","New Haven","CT",""
13685,"116 COURT ST","New Haven","CT",""
13686,"400 STATE ST","New Haven","CT",""
13687,"9 PITKIN ST","New Haven","CT",""
13688,"9 PITKIN ST","New Haven","CT",""
13689,"45 CHURCH ST","New Haven","CT",""
13690,"55 CHURCH ST","New Haven","CT",""
13691,"50 ORANGE ST","New Haven","CT",""
13692,"265 COLLEGE ST","New Haven","CT",""
13693,"123 COLLEGE ST","New Haven","CT",""
13694,"230 GEORGE ST","New Haven","CT",""
13695,"230 GEORGE ST","New Haven","CT",""
13696,"218 GEORGE ST","New Haven","CT",""
13697,"200 GEORGE ST","New Haven","CT",""
13698,"40 TEMPLE ST","New Haven","CT",""
13699,"21 TEMPLE ST","New Haven","CT",""
13700,NA,"New Haven","CT",""
13701,"2 CHURCH ST","New Haven","CT",""
13702,NA,"New Haven","CT",""
13703,NA,"New Haven","CT",""
13704,NA,"New Haven","CT",""
13705,"177 COLLEGE ST","New Haven","CT",""
13706,NA,"New Haven","CT",""
13707,NA,"New Haven","CT",""
13708,"216 CROWN ST #BSMT","New Haven","CT",""
13709,"216 CROWN ST #-1A","New Haven","CT",""
13710,"216 CROWN ST #1-B","New Haven","CT",""
13711,"216 CROWN ST #-1C","New Haven","CT",""
13712,"216 CROWN ST #2-A","New Haven","CT",""
13713,"216 CROWN ST #2B","New Haven","CT",""
13714,"216 CROWN ST #3-A","New Haven","CT",""
13715,"216 CROWN ST #-4A","New Haven","CT",""
13716,"216 CROWN ST #-5A","New Haven","CT",""
13717,"216 CROWN ST #-5B","New Haven","CT",""
13718,"216 CROWN ST #-6A","New Haven","CT",""
13719,"212 CROWN ST","New Haven","CT",""
13720,"208 CROWN ST","New Haven","CT",""
13721,"204 CROWN ST","New Haven","CT",""
13722,"196 CROWN ST #1","New Haven","CT",""
13723,"196 CROWN ST #2","New Haven","CT",""
13724,"196 CROWN ST #3","New Haven","CT",""
13725,"196 CROWN ST #K","New Haven","CT",""
13726,"196 CROWN ST #L","New Haven","CT",""
13727,"196 CROWN ST #2A","New Haven","CT",""
13728,"196 CROWN ST #2B","New Haven","CT",""
13729,"196 CROWN ST #2C","New Haven","CT",""
13730,"196 CROWN ST #2D","New Haven","CT",""
13731,"196 CROWN ST #2E","New Haven","CT",""
13732,"196 CROWN ST #2F","New Haven","CT",""
13733,"196 CROWN ST #2G","New Haven","CT",""
13734,"196 CROWN ST #2H","New Haven","CT",""
13735,"196 CROWN ST #2I","New Haven","CT",""
13736,"196 CROWN ST #2J","New Haven","CT",""
13737,"196 CROWN ST #3A","New Haven","CT",""
13738,"196 CROWN ST #3B","New Haven","CT",""
13739,"196 CROWN ST #3C","New Haven","CT",""
13740,"196 CROWN ST #3D","New Haven","CT",""
13741,"196 CROWN ST #3E","New Haven","CT",""
13742,"196 CROWN ST #3F","New Haven","CT",""
13743,"196 CROWN ST #3G","New Haven","CT",""
13744,"196 CROWN ST #3H","New Haven","CT",""
13745,"196 CROWN ST #3I","New Haven","CT",""
13746,"196 CROWN ST #3J","New Haven","CT",""
13747,"196 CROWN ST #4A","New Haven","CT",""
13748,"196 CROWN ST #4B","New Haven","CT",""
13749,"196 CROWN ST #4C","New Haven","CT",""
13750,"196 CROWN ST #4D","New Haven","CT",""
13751,"196 CROWN ST #4E","New Haven","CT",""
13752,"196 CROWN ST #4F","New Haven","CT",""
13753,"196 CROWN ST #4G","New Haven","CT",""
13754,"196 CROWN ST #4H","New Haven","CT",""
13755,"196 CROWN ST #4I","New Haven","CT",""
13756,"196 CROWN ST #4J","New Haven","CT",""
13757,"196 CROWN ST #5A","New Haven","CT",""
13758,"196 CROWN ST #5B","New Haven","CT",""
13759,"196 CROWN ST #5C","New Haven","CT",""
13760,"196 CROWN ST #5D","New Haven","CT",""
13761,"196 CROWN ST #5E","New Haven","CT",""
13762,"196 CROWN ST #5F","New Haven","CT",""
13763,"196 CROWN ST #5G","New Haven","CT",""
13764,"196 CROWN ST #5H","New Haven","CT",""
13765,"196 CROWN ST #5I","New Haven","CT",""
13766,"196 CROWN ST #5J","New Haven","CT",""
13767,"80 TEMPLE ST","New Haven","CT",""
13768,"229 GEORGE ST","New Haven","CT",""
13769,"245 GEORGE ST","New Haven","CT",""
13770,NA,"New Haven","CT",""
13771,"20 CHURCH ST","New Haven","CT",""
13772,"213 CROWN ST","New Haven","CT",""
13773,NA,"New Haven","CT",""
13774,"239 COLLEGE ST","New Haven","CT",""
13775,"265 COLLEGE ST","New Haven","CT",""
13776,"239 COLLEGE ST","New Haven","CT",""
13777,NA,"New Haven","CT",""
13778,"986 CHAPEL ST","New Haven","CT",""
13779,"976 CHAPEL ST","New Haven","CT",""
13780,"968 CHAPEL ST","New Haven","CT",""
13781,"CHAPEL ST","New Haven","CT",""
13782,"966 CHAPEL ST","New Haven","CT",""
13783,"962 CHAPEL ST","New Haven","CT",""
13784,"954 CHAPEL ST","New Haven","CT",""
13785,"950 CHAPEL ST","New Haven","CT",""
13786,"926 CHAPEL ST","New Haven","CT",""
13787,"160 TEMPLE ST","New Haven","CT",""
13788,"148 TEMPLE ST","New Haven","CT",""
13789,"142 TEMPLE ST","New Haven","CT",""
13790,"124 TEMPLE ST","New Haven","CT",""
13791,"181 CROWN ST","New Haven","CT",""
13792,"155 TEMPLE ST","New Haven","CT",""
13793,"900 CHAPEL ST","New Haven","CT",""
13794,NA,"New Haven","CT",""
13795,"CHAPEL ST","New Haven","CT",""
13796,NA,"New Haven","CT",""
13797,"46 CHURCH ST","New Haven","CT",""
13798,"CHAPEL ST","New Haven","CT",""
13799,"230 TEMPLE ST","New Haven","CT",""
13800,"250 TEMPLE ST","New Haven","CT",""
13801,"270 TEMPLE ST","New Haven","CT",""
13802,"CHURCH ST","New Haven","CT",""
13803,NA,"New Haven","CT",""
13804,"195 CHURCH ST","New Haven","CT",""
13805,"191 CHURCH ST","New Haven","CT",""
13806,"80 ELM ST","New Haven","CT",""
13807,"200 ORANGE ST","New Haven","CT",""
13808,"157 CHURCH ST","New Haven","CT",""
13809,"165 CHURCH ST","New Haven","CT",""
13810,"175 CHURCH ST","New Haven","CT",""
13811,"175 CHURCH ST","New Haven","CT",""
13812,"175 CHURCH ST","New Haven","CT",""
13813,"469 COLLEGE ST","New Haven","CT",""
13814,"90 WALL ST","New Haven","CT",""
13815,"90 WALL ST","New Haven","CT",""
13816,"86 WALL ST","New Haven","CT",""
13817,"86 WALL ST","New Haven","CT",""
13818,"82 WALL ST","New Haven","CT",""
13819,"82 WALL ST","New Haven","CT",""
13820,"80 WALL ST","New Haven","CT",""
13821,"78 WALL ST","New Haven","CT",""
13822,"76 WALL ST","New Haven","CT",""
13823,"74 WALL ST","New Haven","CT",""
13824,"328 TEMPLE ST","New Haven","CT",""
13825,"320 TEMPLE ST","New Haven","CT",""
13826,"310 TEMPLE ST","New Haven","CT",""
13827,"302 TEMPLE ST","New Haven","CT",""
13828,"294 TEMPLE ST","New Haven","CT",""
13829,"143 ELM ST","New Haven","CT",""
13830,"149 ELM ST","New Haven","CT",""
13831,"155 ELM ST","New Haven","CT",""
13832,"165 ELM ST","New Haven","CT",""
13833,"175 ELM ST","New Haven","CT",""
13834,"427 COLLEGE ST","New Haven","CT",""
13835,NA,"New Haven","CT",""
13836,"451 COLLEGE ST","New Haven","CT",""
13837,"459 COLLEGE ST","New Haven","CT",""
13838,"323 TEMPLE ST","New Haven","CT",""
13839,"58 WALL ST","New Haven","CT",""
13840,"54 WALL ST","New Haven","CT",""
13841,"234 CHURCH ST","New Haven","CT",""
13842,"230 CHURCH ST","New Haven","CT",""
13843,"226 CHURCH ST","New Haven","CT",""
13844,"121 ELM ST","New Haven","CT",""
13845,"133 ELM ST","New Haven","CT",""
13846,"311 TEMPLE ST","New Haven","CT",""
13847,"227 CHURCH ST","New Haven","CT",""
13848,"36 WALL ST","New Haven","CT",""
13849,"292 ORANGE ST","New Haven","CT",""
13850,"284 ORANGE ST","New Haven","CT",""
13851,"284 ORANGE ST","New Haven","CT",""
13852,"280 ORANGE ST","New Haven","CT",""
13853,"ORANGE ST","New Haven","CT",""
13854,"278 ORANGE ST","New Haven","CT",""
13855,"250 ORANGE ST","New Haven","CT",""
13856,"59 ELM ST","New Haven","CT",""
13857,"71 ELM ST","New Haven","CT",""
13858,"205 CHURCH ST","New Haven","CT",""
13859,"209 CHURCH ST","New Haven","CT",""
13860,"215 CHURCH ST","New Haven","CT",""
13861,"221 CHURCH ST","New Haven","CT",""
13862,"509 COLLEGE ST","New Haven","CT",""
13863,"497 COLLEGE ST","New Haven","CT",""
13864,"483 COLLEGE ST","New Haven","CT",""
13865,"493 COLLEGE ST","New Haven","CT",""
13866,"347 TEMPLE ST","New Haven","CT",""
13867,"258 CHURCH ST","New Haven","CT",""
13868,"250 CHURCH ST","New Haven","CT",""
13869,"246 CHURCH ST","New Haven","CT",""
13870,"CHURCH ST","New Haven","CT",""
13871,"236 CHURCH ST","New Haven","CT",""
13872,"310 ORANGE ST","New Haven","CT",""
13873,"237 CHURCH ST","New Haven","CT",""
13874,"265 CHURCH ST #1","New Haven","CT",""
13875,"265 CHURCH ST #2","New Haven","CT",""
13876,"265 CHURCH ST #3","New Haven","CT",""
13877,"173 GROVE ST","New Haven","CT",""
13878,"21 PROSPECT ST","New Haven","CT",""
13879,"24 HILLHOUSE AV","New Haven","CT",""
13880,"HILLHOUSE AV","New Haven","CT",""
13881,"12 HILLHOUSE AV","New Haven","CT",""
13882,"10 HILLHOUSE AV","New Haven","CT",""
13883,"2 HILLHOUSE AV","New Haven","CT",""
13884,"HILLHOUSE AV","New Haven","CT",""
13885,"131 GROVE ST","New Haven","CT",""
13886,"5 HILLHOUSE AV","New Haven","CT",""
13887,"9 HILLHOUSE AV","New Haven","CT",""
13888,"15 HILLHOUSE AV","New Haven","CT",""
13889,"HILLHOUSE AV","New Haven","CT",""
13890,"17 HILLHOUSE AV","New Haven","CT",""
13891,"HILLHOUSE AV","New Haven","CT",""
13892,"88 TRUMBULL ST","New Haven","CT",""
13893,"84 TRUMBULL ST","New Haven","CT",""
13894,NA,"New Haven","CT",""
13895,"442 TEMPLE ST","New Haven","CT",""
13896,"432 TEMPLE ST","New Haven","CT",""
13897,"420 TEMPLE ST","New Haven","CT",""
13898,NA,"New Haven","CT",""
13899,"91 TRUMBULL ST","New Haven","CT",""
13900,"135 PROSPECT ST","New Haven","CT",""
13901,"46 HILLHOUSE AV","New Haven","CT",""
13902,"38 HILLHOUSE AV","New Haven","CT",""
13903,"34 HILLHOUSE AV","New Haven","CT",""
13904,"30 HILLHOUSE AV","New Haven","CT",""
13905,"28 HILLHOUSE AV","New Haven","CT",""
13906,"87 TRUMBULL ST","New Haven","CT",""
13907,"89 TRUMBULL ST","New Haven","CT",""
13908,"27 HILLHOUSE AV","New Haven","CT",""
13909,"31 HILLHOUSE AV","New Haven","CT",""
13910,"37 HILLHOUSE AV","New Haven","CT",""
13911,"43 HILLHOUSE AV","New Haven","CT",""
13912,"47 HILLHOUSE AV","New Haven","CT",""
13913,"51 HILLHOUSE AV","New Haven","CT",""
13914,"55 HILLHOUSE AV","New Haven","CT",""
13915,"158 WHITNEY AV","New Haven","CT",""
13916,"122 WHITNEY AV","New Haven","CT",""
13917,"114 WHITNEY AV","New Haven","CT",""
13918,"110 WHITNEY AV","New Haven","CT",""
13919,"79 TRUMBULL ST","New Haven","CT",""
13920,"83 TRUMBULL ST","New Haven","CT",""
13921,"85 TRUMBULL ST","New Haven","CT",""
13922,"165 PROSPECT ST","New Haven","CT",""
13923,"PROSPECT ST","New Haven","CT",""
13924,"223 PROSPECT ST","New Haven","CT",""
13925,"243 PROSPECT ST","New Haven","CT",""
13926,"285 PROSPECT ST","New Haven","CT",""
13927,"301 PROSPECT ST","New Haven","CT",""
13928,"EDWARDS ST","New Haven","CT",""
13929,"360 EDWARDS ST","New Haven","CT",""
13930,"340 EDWARDS ST","New Haven","CT",""
13931,"320 EDWARDS ST","New Haven","CT",""
13932,"256 WHITNEY AV","New Haven","CT",""
13933,"180 WHITNEY AV","New Haven","CT",""
13934,"260 WHITNEY AV","New Haven","CT",""
13935,"21 SACHEM ST","New Haven","CT",""
13936,"101 WINCHESTER AV","New Haven","CT",""
13937,"107 WINCHESTER AV","New Haven","CT",""
13938,"113 WINCHESTER AV","New Haven","CT",""
13939,"117 WINCHESTER AV","New Haven","CT",""
13940,"123 WINCHESTER AV","New Haven","CT",""
13941,"127 WINCHESTER AV","New Haven","CT",""
13942,"139 WINCHESTER AV","New Haven","CT",""
13943,"143 WINCHESTER AV","New Haven","CT",""
13944,"149 WINCHESTER AV","New Haven","CT",""
13945,"153 WINCHESTER AV","New Haven","CT",""
13946,"157 WINCHESTER AV","New Haven","CT",""
13947,"34 WOODLAND ST","New Haven","CT",""
13948,"30 WOODLAND ST","New Haven","CT",""
13949,"26 WOODLAND ST","New Haven","CT",""
13950,"22 WOODLAND ST","New Haven","CT",""
13951,"16 WOODLAND ST","New Haven","CT",""
13952,NA,"New Haven","CT",""
13953,"142 MANSFIELD ST","New Haven","CT",""
13954,NA,"New Haven","CT",""
13955,"134 MANSFIELD ST","New Haven","CT",""
13956,"130 MANSFIELD ST","New Haven","CT",""
13957,"126 MANSFIELD ST","New Haven","CT",""
13958,"122 MANSFIELD ST","New Haven","CT",""
13959,"116 MANSFIELD ST","New Haven","CT",""
13960,"17 COMPTON ST","New Haven","CT",""
13961,"21 COMPTON ST #21A","New Haven","CT",""
13962,"21 COMPTON ST #21B","New Haven","CT",""
13963,"21 COMPTON ST #21C","New Haven","CT",""
13964,"21 COMPTON ST #21D","New Haven","CT",""
13965,"21 COMPTON ST #21E","New Haven","CT",""
13966,"21 COMPTON ST #21F","New Haven","CT",""
13967,"23 COMPTON ST #23A","New Haven","CT",""
13968,"23 COMPTON ST #23B","New Haven","CT",""
13969,"23 COMPTON ST #23C","New Haven","CT",""
13970,"23 COMPTON ST #23D","New Haven","CT",""
13971,"23 COMPTON ST #23E","New Haven","CT",""
13972,"200 PROSPECT ST","New Haven","CT",""
13973,NA,"New Haven","CT",""
13974,"79 MANSFIELD ST","New Haven","CT",""
13975,"83 MANSFIELD ST","New Haven","CT",""
13976,"91 MANSFIELD ST","New Haven","CT",""
13977,"93 MANSFIELD ST","New Haven","CT",""
13978,"97 MANSFIELD ST","New Haven","CT",""
13979,NA,"New Haven","CT",""
13980,"105 MANSFIELD ST","New Haven","CT",""
13981,"107 MANSFIELD ST","New Haven","CT",""
13982,"109 MANSFIELD ST","New Haven","CT",""
13983,NA,"New Haven","CT",""
13984,NA,"New Haven","CT",""
13985,NA,"New Haven","CT",""
13986,NA,"New Haven","CT",""
13987,NA,"New Haven","CT",""
13988,"151 MANSFIELD ST","New Haven","CT",""
13989,"153 MANSFIELD ST","New Haven","CT",""
13990,"155 MANSFIELD ST","New Haven","CT",""
13991,"159 MANSFIELD ST","New Haven","CT",""
13992,"163 MANSFIELD ST","New Haven","CT",""
13993,"171 MANSFIELD ST","New Haven","CT",""
13994,"173 MANSFIELD ST","New Haven","CT",""
13995,"173 MANSFIELD ST","New Haven","CT",""
13996,"179 MANSFIELD ST","New Haven","CT",""
13997,"181 MANSFIELD ST","New Haven","CT",""
13998,"185 MANSFIELD ST","New Haven","CT",""
13999,"MANSFIELD ST","New Haven","CT",""
14000,"187 MANSFIELD ST","New Haven","CT",""
