"pid","location","city","state","zip"
8001,"94 EXCHANGE ST","New Haven","CT",""
8002,"90 EXCHANGE ST","New Haven","CT",""
8003,"86 EXCHANGE ST","New Haven","CT",""
8004,"84 EXCHANGE ST","New Haven","CT",""
8005,"80 EXCHANGE ST","New Haven","CT",""
8006,"76 EXCHANGE ST","New Haven","CT",""
8007,"118 GRAND AV","New Haven","CT",""
8008,"GRAND AV","New Haven","CT",""
8009,"116 EAST PEARL ST","New Haven","CT",""
8010,"112 EAST PEARL ST","New Haven","CT",""
8011,"108 EAST PEARL ST","New Haven","CT",""
8012,"102 EAST PEARL ST","New Haven","CT",""
8013,"75 EXCHANGE ST","New Haven","CT",""
8014,"79 EXCHANGE ST","New Haven","CT",""
8015,"81 EXCHANGE ST","New Haven","CT",""
8016,"83 EXCHANGE ST","New Haven","CT",""
8017,"91 EXCHANGE ST","New Haven","CT",""
8018,"164 GRAND AV","New Haven","CT",""
8019,"182 GRAND AV","New Haven","CT",""
8020,"127 EXCHANGE ST","New Haven","CT",""
8021,"131 EXCHANGE ST","New Haven","CT",""
8022,"137 EXCHANGE ST","New Haven","CT",""
8023,"141 EXCHANGE ST","New Haven","CT",""
8024,"287 FERRY ST","New Haven","CT",""
8025,"184 GRAND AV","New Haven","CT",""
8026,"325 FERRY ST","New Haven","CT",""
8027,"291 FERRY ST","New Haven","CT",""
8028,"132 GRAND AV","New Haven","CT",""
8029,"126 GRAND AV","New Haven","CT",""
8030,"RIVER ST","New Haven","CT",""
8031,"24 RIVER ST","New Haven","CT",""
8032,"RIVER ST","New Haven","CT",""
8033,"2 RIVER ST","New Haven","CT",""
8034,"17 FRONT ST","New Haven","CT",""
8035,"39 FRONT ST","New Haven","CT",""
8036,"59 FRONT ST","New Haven","CT",""
8037,"69 FRONT ST","New Haven","CT",""
8038,"19 RIVER ST","New Haven","CT",""
8039,"RIVER ST","New Haven","CT",""
8040,"EAST PEARL ST","New Haven","CT",""
8041,"23 EAST PEARL ST","New Haven","CT",""
8042,"37 EAST PEARL ST","New Haven","CT",""
8043,"43 EAST PEARL ST","New Haven","CT",""
8044,NA,"New Haven","CT",""
8045,"47 EAST PEARL ST","New Haven","CT",""
8046,"51 EAST PEARL ST","New Haven","CT",""
8047,"55 EAST PEARL ST","New Haven","CT",""
8048,"32 CHAMBERS ST","New Haven","CT",""
8049,"22 FRONT ST","New Haven","CT",""
8050,"20 FRONT ST #A","New Haven","CT",""
8051,"16 FRONT ST #B","New Haven","CT",""
8052,"12 FRONT ST #C","New Haven","CT",""
8053,"8 FRONT ST #D","New Haven","CT",""
8054,"4 FRONT ST #E","New Haven","CT",""
8055,"18 FRONT ST #F","New Haven","CT",""
8056,"14 FRONT ST #G","New Haven","CT",""
8057,"10 FRONT ST #H","New Haven","CT",""
8058,"6 FRONT ST #I","New Haven","CT",""
8059,"2 FRONT ST #J","New Haven","CT",""
8060,"6 FRONT ST #GAR","New Haven","CT",""
8061,"46 FRONT ST","New Haven","CT",""
8062,"38 FRONT ST","New Haven","CT",""
8063,"1 FRONT ST #001","New Haven","CT",""
8064,"1 FRONT ST #003","New Haven","CT",""
8065,"1 FRONT ST #007","New Haven","CT",""
8066,"1 FRONT ST #011","New Haven","CT",""
8067,"1 FRONT ST #013","New Haven","CT",""
8068,"1 FRONT ST #015","New Haven","CT",""
8069,"1 FRONT ST #101","New Haven","CT",""
8070,"1 FRONT ST #102","New Haven","CT",""
8071,"1 FRONT ST #103","New Haven","CT",""
8072,"1 FRONT ST #104","New Haven","CT",""
8073,NA,"New Haven","CT",""
8074,"1 FRONT ST #106","New Haven","CT",""
8075,"1 FRONT ST #107","New Haven","CT",""
8076,"1 FRONT ST #108","New Haven","CT",""
8077,"1 FRONT ST #109","New Haven","CT",""
8078,"1 FRONT ST #110","New Haven","CT",""
8079,"1 FRONT ST #111","New Haven","CT",""
8080,"1 FRONT ST #112","New Haven","CT",""
8081,"1 FRONT ST #113","New Haven","CT",""
8082,"1 FRONT ST #114","New Haven","CT",""
8083,"1 FRONT ST #115","New Haven","CT",""
8084,"1 FRONT ST #116","New Haven","CT",""
8085,"1 FRONT ST #200","New Haven","CT",""
8086,"1 FRONT ST #201","New Haven","CT",""
8087,"1 FRONT ST #202","New Haven","CT",""
8088,"1 FRONT ST #203","New Haven","CT",""
8089,"1 FRONT ST #204","New Haven","CT",""
8090,"142 RIVER ST","New Haven","CT",""
8091,"100 RIVER ST","New Haven","CT",""
8092,"90 RIVER ST","New Haven","CT",""
8093,"46 RIVER ST","New Haven","CT",""
8094,"36 RIVER ST","New Haven","CT",""
8095,"56 RIVER ST","New Haven","CT",""
8096,"196 CHAPEL ST","New Haven","CT",""
8097,"184 CHAPEL ST","New Haven","CT",""
8098,"178 CHAPEL ST","New Haven","CT",""
8099,"168 CHAPEL ST","New Haven","CT",""
8100,"76 BLATCHLEY AV","New Haven","CT",""
8101,"143 RIVER ST","New Haven","CT",""
8102,"166 CHAPEL ST","New Haven","CT",""
8103,"136 CHAPEL ST","New Haven","CT",""
8104,"112 CHAPEL ST","New Haven","CT",""
8105,"128 CHAPEL ST","New Haven","CT",""
8106,"75 POPLAR ST","New Haven","CT",""
8107,"100 CHAPEL ST","New Haven","CT",""
8108,"98 CHAPEL ST","New Haven","CT",""
8109,"96 CHAPEL ST","New Haven","CT",""
8110,"92 CHAPEL ST","New Haven","CT",""
8111,"76 CHAPEL ST","New Haven","CT",""
8112,"72 CHAPEL ST","New Haven","CT",""
8113,"70 CHAPEL ST","New Haven","CT",""
8114,"68 CHAPEL ST","New Haven","CT",""
8115,"158 FERRY ST","New Haven","CT",""
8116,"154 FERRY ST","New Haven","CT",""
8117,"150 FERRY ST","New Haven","CT",""
8118,"43 RIVER ST","New Haven","CT",""
8119,"RIVER ST","New Haven","CT",""
8120,"69 POPLAR ST","New Haven","CT",""
8121,"116 POPLAR ST","New Haven","CT",""
8122,"112 POPLAR ST","New Haven","CT",""
8123,"108 POPLAR ST","New Haven","CT",""
8124,"104 POPLAR ST","New Haven","CT",""
8125,"102 POPLAR ST","New Haven","CT",""
8126,"111 CHAPEL ST","New Haven","CT",""
8127,"CHAPEL ST","New Haven","CT",""
8128,"115 CHAPEL ST","New Haven","CT",""
8129,"119 CHAPEL ST","New Haven","CT",""
8130,"123 CHAPEL ST","New Haven","CT",""
8131,NA,"New Haven","CT",""
8132,"129 CHAPEL ST","New Haven","CT",""
8133,"131 CHAPEL ST","New Haven","CT",""
8134,"137 CHAPEL ST","New Haven","CT",""
8135,"149 CHAPEL ST","New Haven","CT",""
8136,"151 CHAPEL ST","New Haven","CT",""
8137,"153 CHAPEL ST","New Haven","CT",""
8138,"155 CHAPEL ST","New Haven","CT",""
8139,"157 CHAPEL ST","New Haven","CT",""
8140,"159 CHAPEL ST","New Haven","CT",""
8141,"163 CHAPEL ST","New Haven","CT",""
8142,"107 BLATCHLEY AV","New Haven","CT",""
8143,"115 BLATCHLEY AV","New Haven","CT",""
8144,"BLATCHLEY AV","New Haven","CT",""
8145,"88 SALTONSTALL AV","New Haven","CT",""
8146,"84 SALTONSTALL AV","New Haven","CT",""
8147,"80 SALTONSTALL AV","New Haven","CT",""
8148,"74 SALTONSTALL AV","New Haven","CT",""
8149,"70 SALTONSTALL AV","New Haven","CT",""
8150,"66 SALTONSTALL AV","New Haven","CT",""
8151,"62 SALTONSTALL AV","New Haven","CT",""
8152,"58 SALTONSTALL AV","New Haven","CT",""
8153,"192 FERRY ST","New Haven","CT",""
8154,"12 SALTONSTALL AV","New Haven","CT",""
8155,"186 FERRY ST","New Haven","CT",""
8156,"170 FERRY ST","New Haven","CT",""
8157,"174 FERRY ST","New Haven","CT",""
8158,"178 FERRY ST","New Haven","CT",""
8159,"182 FERRY ST","New Haven","CT",""
8160,"73 CHAPEL ST","New Haven","CT",""
8161,"79 CHAPEL ST","New Haven","CT",""
8162,"85 CHAPEL ST","New Haven","CT",""
8163,"87 CHAPEL ST","New Haven","CT",""
8164,"93 CHAPEL ST","New Haven","CT",""
8165,"105 CHAPEL ST","New Haven","CT",""
8166,"109 CHAPEL ST","New Haven","CT",""
8167,"103 POPLAR ST","New Haven","CT",""
8168,"105 POPLAR ST","New Haven","CT",""
8169,"109 POPLAR ST","New Haven","CT",""
8170,"113 POPLAR ST","New Haven","CT",""
8171,"117 POPLAR ST","New Haven","CT",""
8172,"38 SALTONSTALL AV","New Haven","CT",""
8173,"34 SALTONSTALL AV","New Haven","CT",""
8174,"30 SALTONSTALL AV","New Haven","CT",""
8175,"26 SALTONSTALL AV","New Haven","CT",""
8176,"22 SALTONSTALL AV","New Haven","CT",""
8177,"16 SALTONSTALL AV","New Haven","CT",""
8178,"14 SALTONSTALL AV","New Haven","CT",""
8179,"78 WOLCOTT ST","New Haven","CT",""
8180,"34 RICHARD ST","New Haven","CT",""
8181,"30 RICHARD ST","New Haven","CT",""
8182,"26 RICHARD ST","New Haven","CT",""
8183,"22 RICHARD ST","New Haven","CT",""
8184,"81 SALTONSTALL AV","New Haven","CT",""
8185,"85 SALTONSTALL AV","New Haven","CT",""
8186,"89 SALTONSTALL AV","New Haven","CT",""
8187,"93 SALTONSTALL AV","New Haven","CT",""
8188,NA,"New Haven","CT",""
8189,"127 BLATCHLEY AV","New Haven","CT",""
8190,"131 BLATCHLEY AV","New Haven","CT",""
8191,"135 BLATCHLEY AV","New Haven","CT",""
8192,"137 BLATCHLEY AV","New Haven","CT",""
8193,"141 BLATCHLEY AV","New Haven","CT",""
8194,"145 BLATCHLEY AV","New Haven","CT",""
8195,"149 BLATCHLEY AV","New Haven","CT",""
8196,"153 BLATCHLEY AV","New Haven","CT",""
8197,"157 BLATCHLEY AV","New Haven","CT",""
8198,"159 BLATCHLEY AV","New Haven","CT",""
8199,NA,"New Haven","CT",""
8200,"86 WOLCOTT ST","New Haven","CT",""
8201,"82 WOLCOTT ST","New Haven","CT",""
8202,"48 WOLCOTT ST","New Haven","CT",""
8203,"156 POPLAR ST","New Haven","CT",""
8204,"152 POPLAR ST","New Haven","CT",""
8205,"148 POPLAR ST","New Haven","CT",""
8206,"144 POPLAR ST","New Haven","CT",""
8207,"142 POPLAR ST","New Haven","CT",""
8208,"138 POPLAR ST","New Haven","CT",""
8209,"134 POPLAR ST","New Haven","CT",""
8210,"128 POPLAR ST","New Haven","CT",""
8211,"65 SALTONSTALL AV","New Haven","CT",""
8212,"67 SALTONSTALL AV","New Haven","CT",""
8213,"71 SALTONSTALL AV","New Haven","CT",""
8214,"7 RICHARD ST","New Haven","CT",""
8215,"11 RICHARD ST","New Haven","CT",""
8216,"15 RICHARD ST","New Haven","CT",""
8217,"19 RICHARD ST","New Haven","CT",""
8218,"29 RICHARD ST","New Haven","CT",""
8219,"31 RICHARD ST","New Haven","CT",""
8220,"70 WOLCOTT ST","New Haven","CT",""
8221,"66 WOLCOTT ST","New Haven","CT",""
8222,"62 WOLCOTT ST","New Haven","CT",""
8223,"58 WOLCOTT ST","New Haven","CT",""
8224,"230 FERRY ST","New Haven","CT",""
8225,"224 FERRY ST","New Haven","CT",""
8226,"220 FERRY ST","New Haven","CT",""
8227,"212 FERRY ST","New Haven","CT",""
8228,"208 FERRY ST","New Haven","CT",""
8229,"204 FERRY ST","New Haven","CT",""
8230,"200 FERRY ST","New Haven","CT",""
8231,"9 SALTONSTALL AV","New Haven","CT",""
8232,"13 SALTONSTALL AV","New Haven","CT",""
8233,"25 SALTONSTALL AV","New Haven","CT",""
8234,"31 SALTONSTALL AV","New Haven","CT",""
8235,"35 SALTONSTALL AV","New Haven","CT",""
8236,"125 POPLAR ST","New Haven","CT",""
8237,"129 POPLAR ST","New Haven","CT",""
8238,"133 POPLAR ST","New Haven","CT",""
8239,"135 POPLAR ST","New Haven","CT",""
8240,"139 POPLAR ST","New Haven","CT",""
8241,"143 POPLAR ST","New Haven","CT",""
8242,"147 POPLAR ST","New Haven","CT",""
8243,"151 POPLAR ST","New Haven","CT",""
8244,"155 POPLAR ST","New Haven","CT",""
8245,"42 WOLCOTT ST","New Haven","CT",""
8246,"34 WOLCOTT ST","New Haven","CT",""
8247,"30 WOLCOTT ST","New Haven","CT",""
8248,"22 WOLCOTT ST","New Haven","CT",""
8249,"18 WOLCOTT ST","New Haven","CT",""
8250,"14 WOLCOTT ST","New Haven","CT",""
8251,"10 WOLCOTT ST","New Haven","CT",""
8252,"6 WOLCOTT ST","New Haven","CT",""
8253,"202 EXCHANGE ST","New Haven","CT",""
8254,"188 POPLAR ST","New Haven","CT",""
8255,"184 POPLAR ST","New Haven","CT",""
8256,"180 POPLAR ST","New Haven","CT",""
8257,"172 POPLAR ST","New Haven","CT",""
8258,"61 WOLCOTT ST","New Haven","CT",""
8259,"65 WOLCOTT ST","New Haven","CT",""
8260,"69 WOLCOTT ST","New Haven","CT",""
8261,"73 WOLCOTT ST","New Haven","CT",""
8262,"77 WOLCOTT ST","New Haven","CT",""
8263,"81 WOLCOTT ST","New Haven","CT",""
8264,"85 WOLCOTT ST","New Haven","CT",""
8265,"89 WOLCOTT ST","New Haven","CT",""
8266,"93 WOLCOTT ST","New Haven","CT",""
8267,"161 BLATCHLEY AV","New Haven","CT",""
8268,"169 BLATCHLEY AV","New Haven","CT",""
8269,"173 BLATCHLEY AV","New Haven","CT",""
8270,"179 BLATCHLEY AV","New Haven","CT",""
8271,"183 BLATCHLEY AV","New Haven","CT",""
8272,"185 BLATCHLEY AV","New Haven","CT",""
8273,NA,"New Haven","CT",""
8274,NA,"New Haven","CT",""
8275,NA,"New Haven","CT",""
8276,NA,"New Haven","CT",""
8277,NA,"New Haven","CT",""
8278,NA,"New Haven","CT",""
8279,NA,"New Haven","CT",""
8280,"240 EXCHANGE ST","New Haven","CT",""
8281,"234 EXCHANGE ST","New Haven","CT",""
8282,"230 EXCHANGE ST","New Haven","CT",""
8283,"224 EXCHANGE ST","New Haven","CT",""
8284,"220 EXCHANGE ST","New Haven","CT",""
8285,"216 EXCHANGE ST","New Haven","CT",""
8286,"212 EXCHANGE ST","New Haven","CT",""
8287,"210 EXCHANGE ST","New Haven","CT",""
8288,"206 EXCHANGE ST","New Haven","CT",""
8289,"282 FERRY ST","New Haven","CT",""
8290,"268 FERRY ST","New Haven","CT",""
8291,"264 FERRY ST","New Haven","CT",""
8292,"260 FERRY ST","New Haven","CT",""
8293,"258 FERRY ST","New Haven","CT",""
8294,"254 FERRY ST","New Haven","CT",""
8295,"248 FERRY ST","New Haven","CT",""
8296,"7 WOLCOTT ST","New Haven","CT",""
8297,"15 WOLCOTT ST","New Haven","CT",""
8298,"21 WOLCOTT ST","New Haven","CT",""
8299,"25 WOLCOTT ST","New Haven","CT",""
8300,"29 WOLCOTT ST","New Haven","CT",""
8301,"33 WOLCOTT ST","New Haven","CT",""
8302,"41 WOLCOTT ST","New Haven","CT",""
8303,"181 POPLAR ST","New Haven","CT",""
8304,"185 POPLAR ST","New Haven","CT",""
8305,"189 POPLAR ST","New Haven","CT",""
8306,"198 EXCHANGE ST","New Haven","CT",""
8307,"192 EXCHANGE ST","New Haven","CT",""
8308,"186 EXCHANGE ST","New Haven","CT",""
8309,"180 EXCHANGE ST","New Haven","CT",""
8310,"174 EXCHANGE ST","New Haven","CT",""
8311,"168 EXCHANGE ST","New Haven","CT",""
8312,"213 EXCHANGE ST","New Haven","CT",""
8313,"217 EXCHANGE ST","New Haven","CT",""
8314,"221 EXCHANGE ST","New Haven","CT",""
8315,"225 EXCHANGE ST","New Haven","CT",""
8316,"229 EXCHANGE ST","New Haven","CT",""
8317,"233 EXCHANGE ST","New Haven","CT",""
8318,"237 EXCHANGE ST","New Haven","CT",""
8319,"241 EXCHANGE ST","New Haven","CT",""
8320,"197 BLATCHLEY AV","New Haven","CT",""
8321,"201 BLATCHLEY AV","New Haven","CT",""
8322,"205 BLATCHLEY AV","New Haven","CT",""
8323,"209 BLATCHLEY AV","New Haven","CT",""
8324,"213 BLATCHLEY AV","New Haven","CT",""
8325,"28 WOOLSEY ST","New Haven","CT",""
8326,"26 WOOLSEY ST","New Haven","CT",""
8327,"24 WOOLSEY ST","New Haven","CT",""
8328,"22 WOOLSEY ST","New Haven","CT",""
8329,"20 WOOLSEY ST","New Haven","CT",""
8330,"18 WOOLSEY ST","New Haven","CT",""
8331,"16 WOOLSEY ST","New Haven","CT",""
8332,"12 WOOLSEY ST","New Haven","CT",""
8333,"10 WOOLSEY ST","New Haven","CT",""
8334,"8 WOOLSEY ST","New Haven","CT",""
8335,"226 POPLAR ST","New Haven","CT",""
8336,"220 POPLAR ST","New Haven","CT",""
8337,"214 POPLAR ST","New Haven","CT",""
8338,"208 POPLAR ST","New Haven","CT",""
8339,"230 GRAND AV","New Haven","CT",""
8340,"308 FERRY ST","New Haven","CT",""
8341,"304 FERRY ST","New Haven","CT",""
8342,"298 FERRY ST","New Haven","CT",""
8343,"292 FERRY ST","New Haven","CT",""
8344,"286 FERRY ST","New Haven","CT",""
8345,"173 EXCHANGE ST","New Haven","CT",""
8346,"179 EXCHANGE ST","New Haven","CT",""
8347,"183 EXCHANGE ST","New Haven","CT",""
8348,"187 EXCHANGE ST","New Haven","CT",""
8349,"191 EXCHANGE ST","New Haven","CT",""
8350,"195 EXCHANGE ST","New Haven","CT",""
8351,"197 EXCHANGE ST","New Haven","CT",""
8352,"217 POPLAR ST","New Haven","CT",""
8353,"223 POPLAR ST","New Haven","CT",""
8354,"229 POPLAR ST","New Haven","CT",""
8355,"233 POPLAR ST","New Haven","CT",""
8356,"240 GRAND AV","New Haven","CT",""
8357,"250 GRAND AV","New Haven","CT",""
8358,"244 POPLAR ST","New Haven","CT",""
8359,"238 POPLAR ST","New Haven","CT",""
8360,"232 POPLAR ST","New Haven","CT",""
8361,"7 WOOLSEY ST","New Haven","CT",""
8362,"11 WOOLSEY ST","New Haven","CT",""
8363,"13 WOOLSEY ST","New Haven","CT",""
8364,"15 WOOLSEY ST","New Haven","CT",""
8365,"19 WOOLSEY ST","New Haven","CT",""
8366,"23 WOOLSEY ST","New Haven","CT",""
8367,"25 WOOLSEY ST","New Haven","CT",""
8368,"27 WOOLSEY ST","New Haven","CT",""
8369,"219 BLATCHLEY AV","New Haven","CT",""
8370,"225 BLATCHLEY AV","New Haven","CT",""
8371,"229 BLATCHLEY AV","New Haven","CT",""
8372,"296 GRAND AV","New Haven","CT",""
8373,"233 BLATCHLEY AV","New Haven","CT",""
8374,"290 GRAND AV","New Haven","CT",""
8375,"286 GRAND AV","New Haven","CT",""
8376,"284 GRAND AV","New Haven","CT",""
8377,"280 GRAND AV","New Haven","CT",""
8378,"GRAND AV","New Haven","CT",""
8379,"276 GRAND AV","New Haven","CT",""
8380,"270 GRAND AV","New Haven","CT",""
8381,"266 GRAND AV","New Haven","CT",""
8382,"262 GRAND AV","New Haven","CT",""
8383,"258 GRAND AV","New Haven","CT",""
8384,"254 GRAND AV","New Haven","CT",""
8385,"WOOLSEY ST","New Haven","CT",""
8386,"255 BLATCHLEY AV","New Haven","CT",""
8387,"59 FILLMORE ST","New Haven","CT",""
8388,"50 CLAY ST","New Haven","CT",""
8389,"322 POPLAR ST","New Haven","CT",""
8390,"318 POPLAR ST","New Haven","CT",""
8391,"314 POPLAR ST","New Haven","CT",""
8392,"310 POPLAR ST","New Haven","CT",""
8393,"308 POPLAR ST","New Haven","CT",""
8394,"298 POPLAR ST #298","New Haven","CT",""
8395,"300 POPLAR ST #300","New Haven","CT",""
8396,"302 POPLAR ST #302","New Haven","CT",""
8397,"304 POPLAR ST #304","New Haven","CT",""
8398,"306 POPLAR ST #306","New Haven","CT",""
8399,"296 POPLAR ST","New Haven","CT",""
8400,"294 POPLAR ST","New Haven","CT",""
8401,"288 POPLAR ST","New Haven","CT",""
8402,"284 POPLAR ST","New Haven","CT",""
8403,"280 POPLAR ST","New Haven","CT",""
8404,"POPLAR ST","New Haven","CT",""
8405,"278 POPLAR ST","New Haven","CT",""
8406,"251 GRAND AV","New Haven","CT",""
8407,"255 GRAND AV","New Haven","CT",""
8408,NA,"New Haven","CT",""
8409,NA,"New Haven","CT",""
8410,"263 GRAND AV","New Haven","CT",""
8411,"271 GRAND AV","New Haven","CT",""
8412,"273 GRAND AV","New Haven","CT",""
8413,"9 FILLMORE ST","New Haven","CT",""
8414,"13 FILLMORE ST","New Haven","CT",""
8415,"17 FILLMORE ST","New Haven","CT",""
8416,"21 FILLMORE ST","New Haven","CT",""
8417,"25 FILLMORE ST","New Haven","CT",""
8418,"29 FILLMORE ST","New Haven","CT",""
8419,"35 FILLMORE ST","New Haven","CT",""
8420,"39 FILLMORE ST","New Haven","CT",""
8421,"43 FILLMORE ST","New Haven","CT",""
8422,"47 FILLMORE ST","New Haven","CT",""
8423,"51 FILLMORE ST","New Haven","CT",""
8424,NA,"New Haven","CT",""
8425,"36 CLAY ST","New Haven","CT",""
8426,"28 CLAY ST","New Haven","CT",""
8427,"22 CLAY ST","New Haven","CT",""
8428,"16 CLAY ST","New Haven","CT",""
8429,"12 CLAY ST","New Haven","CT",""
8430,"400 FERRY ST","New Haven","CT",""
8431,"10 CLAY ST","New Haven","CT",""
8432,"396 FERRY ST","New Haven","CT",""
8433,"390 FERRY ST","New Haven","CT",""
8434,NA,"New Haven","CT",""
8435,"382 FERRY ST","New Haven","CT",""
8436,NA,"New Haven","CT",""
8437,NA,"New Haven","CT",""
8438,NA,"New Haven","CT",""
8439,"364 FERRY ST","New Haven","CT",""
8440,"362 FERRY ST","New Haven","CT",""
8441,"219 GRAND AV","New Haven","CT",""
8442,"229 GRAND AV","New Haven","CT",""
8443,"233 GRAND AV","New Haven","CT",""
8444,"231 GRAND AV","New Haven","CT",""
8445,"235 GRAND AV","New Haven","CT",""
8446,"243 GRAND AV","New Haven","CT",""
8447,"275 POPLAR ST","New Haven","CT",""
8448,"281 POPLAR ST","New Haven","CT",""
8449,"283 POPLAR ST","New Haven","CT",""
8450,"285 POPLAR ST","New Haven","CT",""
8451,"289 POPLAR ST","New Haven","CT",""
8452,"293 POPLAR ST","New Haven","CT",""
8453,"297 POPLAR ST","New Haven","CT",""
8454,"299 POPLAR ST","New Haven","CT",""
8455,NA,"New Haven","CT",""
8456,NA,"New Haven","CT",""
8457,NA,"New Haven","CT",""
8458,"397 FERRY ST","New Haven","CT",""
8459,"PINE ST","New Haven","CT",""
8460,"BRIGHT ST","New Haven","CT",""
8461,"BRIGHT ST","New Haven","CT",""
8462,"56 BRIGHT ST","New Haven","CT",""
8463,"447 FERRY ST","New Haven","CT",""
8464,"136 PINE ST","New Haven","CT",""
8465,"84 BRIGHT ST","New Haven","CT",""
8466,"82 BRIGHT ST","New Haven","CT",""
8467,"80 BRIGHT ST","New Haven","CT",""
8468,"60 BRIGHT ST","New Haven","CT",""
8469,"54 BRIGHT ST","New Haven","CT",""
8470,"52 BRIGHT ST","New Haven","CT",""
8471,"50 BRIGHT ST","New Haven","CT",""
8472,"50 BRIGHT ST","New Haven","CT",""
8473,"48 BRIGHT ST","New Haven","CT",""
8474,"44 BRIGHT ST","New Haven","CT",""
8475,"40 BRIGHT ST","New Haven","CT",""
8476,"38 BRIGHT ST","New Haven","CT",""
8477,"36 BRIGHT ST","New Haven","CT",""
8478,"34 BRIGHT ST","New Haven","CT",""
8479,"32 BRIGHT ST","New Haven","CT",""
8480,"30 BRIGHT ST","New Haven","CT",""
8481,"28 BRIGHT ST","New Haven","CT",""
8482,"16 BRIGHT ST","New Haven","CT",""
8483,"183 GRAND AV","New Haven","CT",""
8484,"355 FERRY ST","New Haven","CT",""
8485,NA,"New Haven","CT",""
8486,"367 FERRY ST","New Haven","CT",""
8487,"371 FERRY ST","New Haven","CT",""
8488,"375 FERRY ST","New Haven","CT",""
8489,"379 FERRY ST","New Haven","CT",""
8490,"383 FERRY ST","New Haven","CT",""
8491,"387 FERRY ST","New Haven","CT",""
8492,"55 MONROE ST","New Haven","CT",""
8493,"51 MONROE ST","New Haven","CT",""
8494,"220 PINE ST","New Haven","CT",""
8495,"218 PINE ST","New Haven","CT",""
8496,"328 BLATCHLEY AV","New Haven","CT",""
8497,"322 BLATCHLEY AV","New Haven","CT",""
8498,"320 BLATCHLEY AV","New Haven","CT",""
8499,"316 BLATCHLEY AV","New Haven","CT",""
8500,NA,"New Haven","CT",""
8501,"BLATCHLEY AV","New Haven","CT",""
8502,"93 CLAY ST","New Haven","CT",""
8503,"47 MONROE ST","New Haven","CT",""
8504,"335 BLATCHLEY AV","New Haven","CT",""
8505,"208 PINE ST","New Haven","CT",""
8506,"206 PINE ST","New Haven","CT",""
8507,"200 PINE ST","New Haven","CT",""
8508,"100 FILLMORE ST","New Haven","CT",""
8509,"94 FILLMORE ST","New Haven","CT",""
8510,NA,"New Haven","CT",""
8511,"90 FILLMORE ST","New Haven","CT",""
8512,"86 FILLMORE ST","New Haven","CT",""
8513,"82 FILLMORE ST","New Haven","CT",""
8514,"76 FILLMORE ST","New Haven","CT",""
8515,"74 FILLMORE ST","New Haven","CT",""
8516,"57 CLAY ST","New Haven","CT",""
8517,"65 CLAY ST","New Haven","CT",""
8518,"67 CLAY ST","New Haven","CT",""
8519,"299 BLATCHLEY AV","New Haven","CT",""
8520,"301 BLATCHLEY AV","New Haven","CT",""
8521,"309 BLATCHLEY AV","New Haven","CT",""
8522,"313 BLATCHLEY AV","New Haven","CT",""
8523,"319 BLATCHLEY AV","New Haven","CT",""
8524,NA,"New Haven","CT",""
8525,"323 BLATCHLEY AV","New Haven","CT",""
8526,"333 BLATCHLEY AV","New Haven","CT",""
8527,"194 PINE ST","New Haven","CT",""
8528,"186 PINE ST","New Haven","CT",""
8529,NA,"New Haven","CT",""
8530,"182 PINE ST","New Haven","CT",""
8531,"178 PINE ST","New Haven","CT",""
8532,"362 POPLAR ST","New Haven","CT",""
8533,"358 POPLAR ST","New Haven","CT",""
8534,"354 POPLAR ST","New Haven","CT",""
8535,NA,"New Haven","CT",""
8536,"346 POPLAR ST","New Haven","CT",""
8537,"342 POPLAR ST","New Haven","CT",""
8538,"338 POPLAR ST","New Haven","CT",""
8539,"33 CLAY ST","New Haven","CT",""
8540,"37 CLAY ST","New Haven","CT",""
8541,"41 CLAY ST","New Haven","CT",""
8542,"45 CLAY ST","New Haven","CT",""
8543,"49 CLAY ST","New Haven","CT",""
8544,"75 FILLMORE ST","New Haven","CT",""
8545,"79 FILLMORE ST","New Haven","CT",""
8546,"87 FILLMORE ST","New Haven","CT",""
8547,"93 FILLMORE ST","New Haven","CT",""
8548,"97 FILLMORE ST","New Haven","CT",""
8549,NA,"New Haven","CT",""
8550,"369 POPLAR ST","New Haven","CT",""
8551,"162 PINE ST","New Haven","CT",""
8552,"160 PINE ST","New Haven","CT",""
8553,"158 PINE ST","New Haven","CT",""
8554,"448 FERRY ST","New Haven","CT",""
8555,"442 FERRY ST","New Haven","CT",""
8556,"438 FERRY ST","New Haven","CT",""
8557,"432 FERRY ST","New Haven","CT",""
8558,"428 FERRY ST","New Haven","CT",""
8559,"424 FERRY ST","New Haven","CT",""
8560,"420 FERRY ST","New Haven","CT",""
8561,"418 FERRY ST","New Haven","CT",""
8562,"414 FERRY ST","New Haven","CT",""
8563,"410 FERRY ST","New Haven","CT",""
8564,"11 CLAY ST","New Haven","CT",""
8565,"13 CLAY ST","New Haven","CT",""
8566,"17 CLAY ST","New Haven","CT",""
8567,"331 POPLAR ST","New Haven","CT",""
8568,"333 POPLAR ST","New Haven","CT",""
8569,"337 POPLAR ST","New Haven","CT",""
8570,"339 POPLAR ST","New Haven","CT",""
8571,"343 POPLAR ST","New Haven","CT",""
8572,"347 POPLAR ST","New Haven","CT",""
8573,"349 POPLAR ST","New Haven","CT",""
8574,"353 POPLAR ST","New Haven","CT",""
8575,NA,"New Haven","CT",""
8576,"357 POPLAR ST","New Haven","CT",""
8577,"363 POPLAR ST","New Haven","CT",""
8578,"365 POPLAR ST","New Haven","CT",""
8579,"159 MONROE ST","New Haven","CT",""
8580,"512 LOMBARD ST","New Haven","CT",""
8581,"508 LOMBARD ST","New Haven","CT",""
8582,"504 LOMBARD ST","New Haven","CT",""
8583,"492 LOMBARD ST","New Haven","CT",""
8584,"430 BLATCHLEY AV","New Haven","CT",""
8585,"426 BLATCHLEY AV","New Haven","CT",""
8586,"422 BLATCHLEY AV","New Haven","CT",""
8587,"420 BLATCHLEY AV","New Haven","CT",""
8588,"416 BLATCHLEY AV","New Haven","CT",""
8589,"412 BLATCHLEY AV","New Haven","CT",""
8590,"404 BLATCHLEY AV","New Haven","CT",""
8591,NA,"New Haven","CT",""
8592,"400 BLATCHLEY AV","New Haven","CT",""
8593,"398 BLATCHLEY AV","New Haven","CT",""
8594,"396 BLATCHLEY AV","New Haven","CT",""
8595,"394 BLATCHLEY AV","New Haven","CT",""
8596,"388 BLATCHLEY AV","New Haven","CT",""
8597,"386 BLATCHLEY AV","New Haven","CT",""
8598,"384 BLATCHLEY AV","New Haven","CT",""
8599,"380 BLATCHLEY AV","New Haven","CT",""
8600,"376 BLATCHLEY AV","New Haven","CT",""
8601,"374 BLATCHLEY AV","New Haven","CT",""
8602,"370 BLATCHLEY AV","New Haven","CT",""
8603,"368 BLATCHLEY AV","New Haven","CT",""
8604,"362 BLATCHLEY AV","New Haven","CT",""
8605,"358 BLATCHLEY AV","New Haven","CT",""
8606,"354 BLATCHLEY AV","New Haven","CT",""
8607,"348 BLATCHLEY AV","New Haven","CT",""
8608,"344 BLATCHLEY AV","New Haven","CT",""
8609,"65 MONROE ST","New Haven","CT",""
8610,"221 PINE ST","New Haven","CT",""
8611,"BLATCHLEY AV","New Haven","CT",""
8612,"69 MONROE ST","New Haven","CT",""
8613,"77 MONROE ST","New Haven","CT",""
8614,"83 MONROE ST","New Haven","CT",""
8615,"85 MONROE ST","New Haven","CT",""
8616,"89 MONROE ST","New Haven","CT",""
8617,"95 MONROE ST","New Haven","CT",""
8618,"105 MONROE ST","New Haven","CT",""
8619,"107 MONROE ST","New Haven","CT",""
8620,"113 MONROE ST","New Haven","CT",""
8621,"115 MONROE ST","New Haven","CT",""
8622,"119 MONROE ST","New Haven","CT",""
8623,"125 MONROE ST","New Haven","CT",""
8624,"129 MONROE ST","New Haven","CT",""
8625,"131 MONROE ST","New Haven","CT",""
8626,"135 MONROE ST","New Haven","CT",""
8627,"137 MONROE ST","New Haven","CT",""
8628,"141 MONROE ST","New Haven","CT",""
8629,"145 MONROE ST","New Haven","CT",""
8630,"149 MONROE ST","New Haven","CT",""
8631,"153 MONROE ST","New Haven","CT",""
8632,"480 LOMBARD ST","New Haven","CT",""
8633,"431 BLATCHLEY AV","New Haven","CT",""
8634,"474 LOMBARD ST","New Haven","CT",""
8635,"468 LOMBARD ST","New Haven","CT",""
8636,"456 LOMBARD ST","New Haven","CT",""
8637,"194 FILLMORE ST","New Haven","CT",""
8638,"188 FILLMORE ST","New Haven","CT",""
8639,"184 FILLMORE ST","New Haven","CT",""
8640,"182 FILLMORE ST","New Haven","CT",""
8641,"178 FILLMORE ST","New Haven","CT",""
8642,NA,"New Haven","CT",""
8643,NA,"New Haven","CT",""
8644,"162 FILLMORE ST","New Haven","CT",""
8645,"391 BLATCHLEY AV","New Haven","CT",""
8646,"158 FILLMORE ST","New Haven","CT",""
8647,"154 FILLMORE ST","New Haven","CT",""
8648,"150 FILLMORE ST","New Haven","CT",""
8649,"146 FILLMORE ST","New Haven","CT",""
8650,"142 FILLMORE ST","New Haven","CT",""
8651,"136 FILLMORE ST","New Haven","CT",""
8652,"132 FILLMORE ST","New Haven","CT",""
8653,"126 FILLMORE ST","New Haven","CT",""
8654,"124 FILLMORE ST","New Haven","CT",""
8655,"197 PINE ST","New Haven","CT",""
8656,"199 PINE ST","New Haven","CT",""
8657,"201 PINE ST","New Haven","CT",""
8658,"211 PINE ST","New Haven","CT",""
8659,"213-215 PINE ST","New Haven","CT",""
8660,NA,"New Haven","CT",""
8661,"355 BLATCHLEY AV","New Haven","CT",""
8662,"361 BLATCHLEY AV","New Haven","CT",""
8663,"365 BLATCHLEY AV","New Haven","CT",""
8664,"369 BLATCHLEY AV","New Haven","CT",""
8665,"373 BLATCHLEY AV","New Haven","CT",""
8666,"381 BLATCHLEY AV","New Haven","CT",""
8667,"385 BLATCHLEY AV","New Haven","CT",""
8668,"387 BLATCHLEY AV","New Haven","CT",""
8669,"393 BLATCHLEY AV","New Haven","CT",""
8670,"397 BLATCHLEY AV","New Haven","CT",""
8671,"405 BLATCHLEY AV","New Haven","CT",""
8672,"409 BLATCHLEY AV","New Haven","CT",""
8673,"411 BLATCHLEY AV","New Haven","CT",""
8674,"421 BLATCHLEY AV","New Haven","CT",""
8675,"423 BLATCHLEY AV","New Haven","CT",""
8676,"425 BLATCHLEY AV","New Haven","CT",""
8677,"427 BLATCHLEY AV","New Haven","CT",""
8678,"429 BLATCHLEY AV","New Haven","CT",""
8679,"438 LOMBARD ST","New Haven","CT",""
8680,"434 LOMBARD ST","New Haven","CT",""
8681,"428 LOMBARD ST","New Haven","CT",""
8682,"416 LOMBARD ST","New Haven","CT",""
8683,"466 POPLAR ST","New Haven","CT",""
8684,"462 POPLAR ST","New Haven","CT",""
8685,"456 POPLAR ST","New Haven","CT",""
8686,"452 POPLAR ST","New Haven","CT",""
8687,"448 POPLAR ST","New Haven","CT",""
8688,"444 POPLAR ST","New Haven","CT",""
8689,"442 POPLAR ST","New Haven","CT",""
8690,"436 POPLAR ST","New Haven","CT",""
8691,"434 POPLAR ST","New Haven","CT",""
8692,"428 POPLAR ST","New Haven","CT",""
8693,"426 POPLAR ST","New Haven","CT",""
8694,"420 POPLAR ST","New Haven","CT",""
8695,"414 POPLAR ST","New Haven","CT",""
8696,"410 POPLAR ST","New Haven","CT",""
8697,"406 POPLAR ST","New Haven","CT",""
8698,"402 POPLAR ST","New Haven","CT",""
8699,"400 POPLAR ST","New Haven","CT",""
8700,"396 POPLAR ST","New Haven","CT",""
8701,"390 POPLAR ST","New Haven","CT",""
8702,"386 POPLAR ST","New Haven","CT",""
8703,"179 PINE ST","New Haven","CT",""
8704,"181 PINE ST","New Haven","CT",""
8705,"183 PINE ST","New Haven","CT",""
8706,"187 PINE ST","New Haven","CT",""
8707,"189 PINE ST","New Haven","CT",""
8708,"191 PINE ST","New Haven","CT",""
8709,"193 PINE ST","New Haven","CT",""
8710,"117 FILLMORE ST","New Haven","CT",""
8711,"121 FILLMORE ST","New Haven","CT",""
8712,"125 FILLMORE ST","New Haven","CT",""
8713,"127 FILLMORE ST","New Haven","CT",""
8714,"133 FILLMORE ST","New Haven","CT",""
8715,"137 FILLMORE ST","New Haven","CT",""
8716,"141 FILLMORE ST","New Haven","CT",""
8717,"143 FILLMORE ST","New Haven","CT",""
8718,"147 FILLMORE ST","New Haven","CT",""
8719,"151 FILLMORE ST","New Haven","CT",""
8720,"155 FILLMORE ST","New Haven","CT",""
8721,"159 FILLMORE ST","New Haven","CT",""
8722,"163 FILLMORE ST","New Haven","CT",""
8723,"165 FILLMORE ST","New Haven","CT",""
8724,"169 FILLMORE ST","New Haven","CT",""
8725,"175 FILLMORE ST","New Haven","CT",""
8726,"179 FILLMORE ST","New Haven","CT",""
8727,"181 FILLMORE ST","New Haven","CT",""
8728,"185 FILLMORE ST","New Haven","CT",""
8729,"191 FILLMORE ST","New Haven","CT",""
8730,"197 FILLMORE ST","New Haven","CT",""
8731,"199 FILLMORE ST","New Haven","CT",""
8732,"203 FILLMORE ST","New Haven","CT",""
8733,"445 POPLAR ST","New Haven","CT",""
8734,"256 CHATHAM ST","New Haven","CT",""
8735,"252 CHATHAM ST","New Haven","CT",""
8736,"522 FERRY ST","New Haven","CT",""
8737,"518 FERRY ST","New Haven","CT",""
8738,"512 FERRY ST","New Haven","CT",""
8739,"506 FERRY ST","New Haven","CT",""
8740,"504 FERRY ST","New Haven","CT",""
8741,"500 FERRY ST","New Haven","CT",""
8742,"496 FERRY ST","New Haven","CT",""
8743,"480 FERRY ST","New Haven","CT",""
8744,"468 FERRY ST","New Haven","CT",""
8745,"464 FERRY ST","New Haven","CT",""
8746,"460 FERRY ST","New Haven","CT",""
8747,"159 PINE ST","New Haven","CT",""
8748,"161 PINE ST","New Haven","CT",""
8749,"171 PINE ST","New Haven","CT",""
8750,"173 PINE ST","New Haven","CT",""
8751,"377 POPLAR ST","New Haven","CT",""
8752,"381 POPLAR ST","New Haven","CT",""
8753,NA,"New Haven","CT",""
8754,"389 POPLAR ST","New Haven","CT",""
8755,"391 POPLAR ST","New Haven","CT",""
8756,"397 POPLAR ST","New Haven","CT",""
8757,"401 POPLAR ST","New Haven","CT",""
8758,"405 POPLAR ST","New Haven","CT",""
8759,"409 POPLAR ST","New Haven","CT",""
8760,"417 POPLAR ST","New Haven","CT",""
8761,"421 POPLAR ST","New Haven","CT",""
8762,"425 POPLAR ST","New Haven","CT",""
8763,"429 POPLAR ST","New Haven","CT",""
8764,"433 POPLAR ST","New Haven","CT",""
8765,"441 POPLAR ST","New Haven","CT",""
8766,"483 FERRY ST","New Haven","CT",""
8767,"172 GRAFTON ST","New Haven","CT",""
8768,"168 GRAFTON ST","New Haven","CT",""
8769,"164 GRAFTON ST","New Haven","CT",""
8770,"160 GRAFTON ST","New Haven","CT",""
8771,"156 GRAFTON ST","New Haven","CT",""
8772,"152 GRAFTON ST","New Haven","CT",""
8773,"148 GRAFTON ST","New Haven","CT",""
8774,"144 GRAFTON ST","New Haven","CT",""
8775,"10 ROWE ST","New Haven","CT",""
8776,"6 ROWE ST","New Haven","CT",""
8777,"133 PINE ST","New Haven","CT",""
8778,"145 PINE ST","New Haven","CT",""
8779,"149 PINE ST","New Haven","CT",""
8780,"153 PINE ST","New Haven","CT",""
8781,"457 FERRY ST","New Haven","CT",""
8782,"459 FERRY ST","New Haven","CT",""
8783,"463 FERRY ST","New Haven","CT",""
8784,"467 FERRY ST","New Haven","CT",""
8785,"477 FERRY ST","New Haven","CT",""
8786,"FERRY ST","New Haven","CT",""
8787,"503 FERRY ST","New Haven","CT",""
8788,"26 LIMERICK ST","New Haven","CT",""
8789,"44 ROWE ST","New Haven","CT",""
8790,"30 ROWE ST","New Haven","CT",""
8791,"159 GRAFTON ST","New Haven","CT",""
8792,"163 GRAFTON ST","New Haven","CT",""
8793,"165 GRAFTON ST","New Haven","CT",""
8794,"167 GRAFTON ST","New Haven","CT",""
8795,"489 FERRY ST","New Haven","CT",""
8796,"499 FERRY ST","New Haven","CT",""
8797,"519 FERRY ST","New Haven","CT",""
8798,"218 CHATHAM ST","New Haven","CT",""
8799,"214 CHATHAM ST","New Haven","CT",""
8800,"210 CHATHAM ST","New Haven","CT",""
8801,"206 CHATHAM ST","New Haven","CT",""
8802,"202 CHATHAM ST","New Haven","CT",""
8803,"198 CHATHAM ST","New Haven","CT",""
8804,"46 ROWE ST","New Haven","CT",""
8805,"2 LIMERICK ST","New Haven","CT",""
8806,"509 FERRY ST","New Haven","CT",""
8807,"515 FERRY ST","New Haven","CT",""
8808,"390 LOMBARD ST","New Haven","CT",""
8809,"382 LOMBARD ST","New Haven","CT",""
8810,"374 LOMBARD ST","New Haven","CT",""
8811,"370 LOMBARD ST","New Haven","CT",""
8812,"560 FERRY ST","New Haven","CT",""
8813,"552 FERRY ST","New Haven","CT",""
8814,"548 FERRY ST","New Haven","CT",""
8815,"544 FERRY ST","New Haven","CT",""
8816,"538 FERRY ST","New Haven","CT",""
8817,"532 FERRY ST","New Haven","CT",""
8818,"528 FERRY ST","New Haven","CT",""
8819,"249 CHATHAM ST","New Haven","CT",""
8820,"253 CHATHAM ST","New Haven","CT",""
8821,"259 CHATHAM ST","New Haven","CT",""
8822,"265 CHATHAM ST","New Haven","CT",""
8823,"269 CHATHAM ST","New Haven","CT",""
8824,"273 CHATHAM ST","New Haven","CT",""
8825,"463 POPLAR ST","New Haven","CT",""
8826,"467 POPLAR ST","New Haven","CT",""
8827,"557 FERRY ST","New Haven","CT",""
8828,"326 LOMBARD ST","New Haven","CT",""
8829,"320 LOMBARD ST","New Haven","CT",""
8830,"314 LOMBARD ST","New Haven","CT",""
8831,"306 LOMBARD ST","New Haven","CT",""
8832,"298 LOMBARD ST","New Haven","CT",""
8833,"197 CHATHAM ST","New Haven","CT",""
8834,NA,"New Haven","CT",""
8835,NA,"New Haven","CT",""
8836,"547 FERRY ST","New Haven","CT",""
8837,"344 PECK ST","New Haven","CT",""
8838,"326 PECK ST","New Haven","CT",""
8839,"322 PECK ST","New Haven","CT",""
8840,"PECK ST","New Haven","CT",""
8841,"314 PECK ST","New Haven","CT",""
8842,"FILLMORE ST","New Haven","CT",""
8843,"234 FILLMORE ST","New Haven","CT",""
8844,"230 FILLMORE ST","New Haven","CT",""
8845,"451 LOMBARD ST","New Haven","CT",""
8846,"455 LOMBARD ST","New Haven","CT",""
8847,"461 LOMBARD ST","New Haven","CT",""
8848,"465 LOMBARD ST","New Haven","CT",""
8849,"473 LOMBARD ST","New Haven","CT",""
8850,"479 LOMBARD ST","New Haven","CT",""
8851,"459 BLATCHLEY AV","New Haven","CT",""
8852,"463 BLATCHLEY AV","New Haven","CT",""
8853,"465 BLATCHLEY AV","New Haven","CT",""
8854,"308 PECK ST","New Haven","CT",""
8855,"304 PECK ST","New Haven","CT",""
8856,"300 PECK ST","New Haven","CT",""
8857,"296 PECK ST","New Haven","CT",""
8858,"292 PECK ST","New Haven","CT",""
8859,"288 PECK ST","New Haven","CT",""
8860,"284 PECK ST","New Haven","CT",""
8861,"280 PECK ST","New Haven","CT",""
8862,"276 PECK ST","New Haven","CT",""
8863,"272 PECK ST","New Haven","CT",""
8864,"268 PECK ST","New Haven","CT",""
8865,"266 PECK ST","New Haven","CT",""
8866,"264 PECK ST","New Haven","CT",""
8867,"598 FERRY ST","New Haven","CT",""
8868,"594 FERRY ST","New Haven","CT",""
8869,"PECK ST","New Haven","CT",""
8870,"588 FERRY ST","New Haven","CT",""
8871,"582 FERRY ST","New Haven","CT",""
8872,"580 FERRY ST","New Haven","CT",""
8873,NA,"New Haven","CT",""
8874,"572 FERRY ST","New Haven","CT",""
8875,"568 FERRY ST","New Haven","CT",""
8876,"365 LOMBARD ST","New Haven","CT",""
8877,"367 LOMBARD ST #13","New Haven","CT",""
8878,"369 LOMBARD ST #12","New Haven","CT",""
8879,"371 LOMBARD ST #11","New Haven","CT",""
8880,"373 LOMBARD ST #10","New Haven","CT",""
8881,"375 LOMBARD ST #9","New Haven","CT",""
8882,"377 LOMBARD ST #8","New Haven","CT",""
8883,"379 LOMBARD ST #7","New Haven","CT",""
8884,"381 LOMBARD ST #6","New Haven","CT",""
8885,"383 LOMBARD ST #5","New Haven","CT",""
8886,"385 LOMBARD ST #4","New Haven","CT",""
8887,"387 LOMBARD ST #3","New Haven","CT",""
8888,"389 LOMBARD ST #2","New Haven","CT",""
8889,"391 LOMBARD ST #1","New Haven","CT",""
8890,"393 LOMBARD ST #A","New Haven","CT",""
8891,"393 LOMBARD ST #B","New Haven","CT",""
8892,"393 LOMBARD ST #C","New Haven","CT",""
8893,"397 LOMBARD ST","New Haven","CT",""
8894,"407 LOMBARD ST","New Haven","CT",""
8895,"411 LOMBARD ST","New Haven","CT",""
8896,"417 LOMBARD ST","New Haven","CT",""
8897,"431 LOMBARD ST","New Haven","CT",""
8898,"435 LOMBARD ST","New Haven","CT",""
8899,"439 LOMBARD ST","New Haven","CT",""
8900,"593 FERRY ST","New Haven","CT",""
8901,"220 PECK ST","New Haven","CT",""
8902,"218 PECK ST","New Haven","CT",""
8903,"214 PECK ST","New Haven","CT",""
8904,"204 PECK ST","New Haven","CT",""
8905,"104 ROWE ST","New Haven","CT",""
8906,"297 LOMBARD ST","New Haven","CT",""
8907,"305 LOMBARD ST","New Haven","CT",""
8908,"309 LOMBARD ST","New Haven","CT",""
8909,"315 LOMBARD ST","New Haven","CT",""
8910,"319 LOMBARD ST","New Haven","CT",""
8911,"569 FERRY ST","New Haven","CT",""
8912,"579 FERRY ST","New Haven","CT",""
8913,"587 FERRY ST","New Haven","CT",""
8914,"501 BLATCHLEY AV","New Haven","CT",""
8915,"BLATCHLEY AV","New Haven","CT",""
8916,"1229 STATE ST","New Haven","CT",""
8917,"1235 STATE ST","New Haven","CT",""
8918,"1241 STATE ST","New Haven","CT",""
8919,"1243 STATE ST","New Haven","CT",""
8920,"1245 STATE ST","New Haven","CT",""
8921,"1247 STATE ST","New Haven","CT",""
8922,"666 FERRY ST","New Haven","CT",""
8923,"662 FERRY ST","New Haven","CT",""
8924,"658 FERRY ST","New Haven","CT",""
8925,NA,"New Haven","CT",""
8926,"25 FOX ST","New Haven","CT",""
8927,"648 FERRY ST","New Haven","CT",""
8928,"644 FERRY ST","New Haven","CT",""
8929,"9 FOX ST","New Haven","CT",""
8930,"30 FOX ST","New Haven","CT",""
8931,"26 FOX ST","New Haven","CT",""
8932,"24 FOX ST","New Haven","CT",""
8933,"20 FOX ST","New Haven","CT",""
8934,"16 FOX ST","New Haven","CT",""
8935,"12 FOX ST","New Haven","CT",""
8936,"632 FERRY ST","New Haven","CT",""
8937,"628 FERRY ST","New Haven","CT",""
8938,"624 FERRY ST","New Haven","CT",""
8939,"620 FERRY ST","New Haven","CT",""
8940,"616 FERRY ST","New Haven","CT",""
8941,"614 FERRY ST","New Haven","CT",""
8942,"604 FERRY ST","New Haven","CT",""
8943,"257 PECK ST","New Haven","CT",""
8944,"297 PECK ST","New Haven","CT",""
8945,"269 PECK ST","New Haven","CT",""
8946,"319 PECK ST","New Haven","CT",""
8947,"499 BLATCHLEY AV","New Haven","CT",""
8948,"315 PECK ST","New Haven","CT",""
8949,"315 PECK ST","New Haven","CT",""
8950,"643 FERRY ST","New Haven","CT",""
8951,"228 DOVER ST","New Haven","CT",""
8952,"222 DOVER ST","New Haven","CT",""
8953,"220 DOVER ST","New Haven","CT",""
8954,"216 DOVER ST","New Haven","CT",""
8955,"212 DOVER ST","New Haven","CT",""
8956,"208 DOVER ST","New Haven","CT",""
8957,"204 DOVER ST","New Haven","CT",""
8958,"142 ROWE ST","New Haven","CT",""
8959,NA,"New Haven","CT",""
8960,"199 ENGLISH ST","New Haven","CT",""
8961,"203 ENGLISH ST","New Haven","CT",""
8962,"209 ENGLISH ST","New Haven","CT",""
8963,NA,"New Haven","CT",""
8964,"215 ENGLISH ST","New Haven","CT",""
8965,"219 ENGLISH ST","New Haven","CT",""
8966,"223 ENGLISH ST","New Haven","CT",""
8967,"227 ENGLISH ST","New Haven","CT",""
8968,"615 FERRY ST","New Haven","CT",""
8969,"619 FERRY ST","New Haven","CT",""
8970,"623 FERRY ST","New Haven","CT",""
8971,NA,"New Haven","CT",""
8972,"631 FERRY ST","New Haven","CT",""
8973,"635 FERRY ST","New Haven","CT",""
8974,"641 FERRY ST","New Haven","CT",""
8975,"201 DOVER ST","New Haven","CT",""
8976,"205 DOVER ST","New Haven","CT",""
8977,"613 FERRY ST","New Haven","CT",""
8978,"220 ENGLISH ST","New Haven","CT",""
8979,"216 ENGLISH ST","New Haven","CT",""
8980,"212 ENGLISH ST","New Haven","CT",""
8981,"208 ENGLISH ST","New Haven","CT",""
8982,"204 ENGLISH ST","New Haven","CT",""
8983,"76 WARREN PL","New Haven","CT",""
8984,"58 WARREN PL","New Haven","CT",""
8985,"48 WARREN PL","New Haven","CT",""
8986,"WARREN PL","New Haven","CT",""
8987,"2 RIDGE ST","New Haven","CT",""
8988,"10 RIDGE ST","New Haven","CT",""
8989,"18 RIDGE ST","New Haven","CT",""
8990,"20 RIDGE ST","New Haven","CT",""
8991,"26 RIDGE ST","New Haven","CT",""
8992,"28 RIDGE ST","New Haven","CT",""
8993,"231 VIEW ST","New Haven","CT",""
8994,"237 VIEW ST","New Haven","CT",""
8995,"245 VIEW ST","New Haven","CT",""
8996,"249 VIEW ST","New Haven","CT",""
8997,"257 VIEW ST","New Haven","CT",""
8998,"261 VIEW ST","New Haven","CT",""
8999,"265 VIEW ST","New Haven","CT",""
9000,"269 VIEW ST","New Haven","CT",""
