"pid","location","city","state","zip"
4001,"95 LENOX ST #L","New Haven","CT",""
4002,"89 LENOX ST #M","New Haven","CT",""
4003,"89 LENOX ST #N","New Haven","CT",""
4004,"104 LEXINGTON AV","New Haven","CT",""
4005,"LENOX ST","New Haven","CT",""
4006,"75 LENOX ST","New Haven","CT",""
4007,"71 LENOX ST","New Haven","CT",""
4008,"65 LENOX ST","New Haven","CT",""
4009,"59 LENOX ST","New Haven","CT",""
4010,"LENOX ST","New Haven","CT",""
4011,"49 LENOX ST","New Haven","CT",""
4012,"43 LENOX ST","New Haven","CT",""
4013,"15 LEXINGTON AV","New Haven","CT",""
4014,"117 LEXINGTON AV","New Haven","CT",""
4015,"121 LEXINGTON AV #1","New Haven","CT",""
4016,"121 LEXINGTON AV #3","New Haven","CT",""
4017,"121 LEXINGTON AV #5","New Haven","CT",""
4018,"121 LEXINGTON AV #7","New Haven","CT",""
4019,"121 LEXINGTON AV #2","New Haven","CT",""
4020,"121 LEXINGTON AV #4","New Haven","CT",""
4021,"121 LEXINGTON AV #6","New Haven","CT",""
4022,"121 LEXINGTON AV #8","New Haven","CT",""
4023,"121 LEXINGTON AV #10","New Haven","CT",""
4024,"121 LEXINGTON AV #12","New Haven","CT",""
4025,"121 LEXINGTON AV #14","New Haven","CT",""
4026,"121 LEXINGTON AV #16","New Haven","CT",""
4027,"121 LEXINGTON AV #18","New Haven","CT",""
4028,"121 LEXINGTON AV #20","New Haven","CT",""
4029,"121 LEXINGTON AV #9","New Haven","CT",""
4030,"121 LEXINGTON AV #11","New Haven","CT",""
4031,"121 LEXINGTON AV #13","New Haven","CT",""
4032,"121 LEXINGTON AV #15","New Haven","CT",""
4033,"121 LEXINGTON AV #17","New Haven","CT",""
4034,"121 LEXINGTON AV #19","New Haven","CT",""
4035,"121 LEXINGTON AV #21","New Haven","CT",""
4036,"121 LEXINGTON AV #23","New Haven","CT",""
4037,"121 LEXINGTON AV #22","New Haven","CT",""
4038,"121 LEXINGTON AV #24","New Haven","CT",""
4039,"121 LEXINGTON AV #26","New Haven","CT",""
4040,"121 LEXINGTON AV #28","New Haven","CT",""
4041,"121 LEXINGTON AV #25","New Haven","CT",""
4042,"121 LEXINGTON AV #27","New Haven","CT",""
4043,"121 LEXINGTON AV #29","New Haven","CT",""
4044,"121 LEXINGTON AV #31","New Haven","CT",""
4045,"125 LEXINGTON AV","New Haven","CT",""
4046,"127 LEXINGTON AV","New Haven","CT",""
4047,"131 LEXINGTON AV","New Haven","CT",""
4048,"135 LEXINGTON AV","New Haven","CT",""
4049,"141 LEXINGTON AV","New Haven","CT",""
4050,"37 REVERE ST","New Haven","CT",""
4051,"47 REVERE ST","New Haven","CT",""
4052,"57 REVERE ST","New Haven","CT",""
4053,"70 REVERE ST","New Haven","CT",""
4054,"62 REVERE ST","New Haven","CT",""
4055,"76 REVERE ST","New Haven","CT",""
4056,"61 REVERE ST","New Haven","CT",""
4057,"69 REVERE ST","New Haven","CT",""
4058,"84 RUSSELL ST","New Haven","CT",""
4059,"90 RUSSELL ST","New Haven","CT",""
4060,"80 RUSSELL ST","New Haven","CT",""
4061,"72 RUSSELL ST","New Haven","CT",""
4062,"60 RUSSELL ST","New Haven","CT",""
4063,"48 RUSSELL ST","New Haven","CT",""
4064,"50 RUSSELL ST #2","New Haven","CT",""
4065,"52 RUSSELL ST","New Haven","CT",""
4066,"44 RUSSELL ST","New Haven","CT",""
4067,"40 RUSSELL ST","New Haven","CT",""
4068,"490 QUINNIPIAC AV","New Haven","CT",""
4069,"482 QUINNIPIAC AV","New Haven","CT",""
4070,"476 QUINNIPIAC AV","New Haven","CT",""
4071,"470 QUINNIPIAC AV","New Haven","CT",""
4072,"466 QUINNIPIAC AV","New Haven","CT",""
4073,"430 QUINNIPIAC AV","New Haven","CT",""
4074,"400 QUINNIPIAC AV","New Haven","CT",""
4075,"392 QUINNIPIAC AV","New Haven","CT",""
4076,"376 QUINNIPIAC AV","New Haven","CT",""
4077,NA,"New Haven","CT",""
4078,"366 QUINNIPIAC AV","New Haven","CT",""
4079,"360 QUINNIPIAC AV","New Haven","CT",""
4080,"11 FERRY ST","New Haven","CT",""
4081,"39 FERRY ST","New Haven","CT",""
4082,"69 FERRY ST","New Haven","CT",""
4083,"69 FERRY ST","New Haven","CT",""
4084,"323 QUINNIPIAC AV","New Haven","CT",""
4085,"341 QUINNIPIAC AV","New Haven","CT",""
4086,"349 QUINNIPIAC AV","New Haven","CT",""
4087,"375 QUINNIPIAC AV","New Haven","CT",""
4088,"399 QUINNIPIAC AV","New Haven","CT",""
4089,"407 QUINNIPIAC AV","New Haven","CT",""
4090,"415 QUINNIPIAC AV","New Haven","CT",""
4091,"425 QUINNIPIAC AV","New Haven","CT",""
4092,"QUINNIPIAC AV","New Haven","CT",""
4093,"431 QUINNIPIAC AV","New Haven","CT",""
4094,"453 QUINNIPIAC AV","New Haven","CT",""
4095,"467 QUINNIPIAC AV","New Haven","CT",""
4096,"475 QUINNIPIAC AV","New Haven","CT",""
4097,"479 QUINNIPIAC AV","New Haven","CT",""
4098,"483 QUINNIPIAC AV","New Haven","CT",""
4099,"489 QUINNIPIAC AV","New Haven","CT",""
4100,"15 OXFORD ST","New Haven","CT",""
4101,"27 OXFORD ST","New Haven","CT",""
4102,"162 LENOX ST","New Haven","CT",""
4103,"156 LENOX ST","New Haven","CT",""
4104,"152 LENOX ST","New Haven","CT",""
4105,"140 LENOX ST","New Haven","CT",""
4106,"132 LENOX ST","New Haven","CT",""
4107,"126 LENOX ST","New Haven","CT",""
4108,"124 LENOX ST","New Haven","CT",""
4109,"120 LENOX ST","New Haven","CT",""
4110,"110 LENOX ST","New Haven","CT",""
4111,"30 LENOX ST","New Haven","CT",""
4112,"LENOX ST","New Haven","CT",""
4113,"494 QUINNIPIAC AV","New Haven","CT",""
4114,"QUINNIPIAC AV","New Haven","CT",""
4115,"524 QUINNIPIAC AV","New Haven","CT",""
4116,"530 QUINNIPIAC AV","New Haven","CT",""
4117,"536 QUINNIPIAC AV","New Haven","CT",""
4118,NA,"New Haven","CT",""
4119,NA,"New Haven","CT",""
4120,NA,"New Haven","CT",""
4121,NA,"New Haven","CT",""
4122,"553 QUINNIPIAC AV","New Haven","CT",""
4123,"17 ANER ST","New Haven","CT",""
4124,"232 LENOX ST","New Haven","CT",""
4125,"220 LENOX ST","New Haven","CT",""
4126,"210 LENOX ST","New Haven","CT",""
4127,"204 LENOX ST","New Haven","CT",""
4128,"200 LENOX ST","New Haven","CT",""
4129,"196 LENOX ST","New Haven","CT",""
4130,"190 LENOX ST","New Haven","CT",""
4131,"180 LENOX ST","New Haven","CT",""
4132,"12 OXFORD ST","New Haven","CT",""
4133,"501 QUINNIPIAC AV","New Haven","CT",""
4134,"505 QUINNIPIAC AV","New Haven","CT",""
4135,"515 QUINNIPIAC AV","New Haven","CT",""
4136,"517 QUINNIPIAC AV","New Haven","CT",""
4137,"525 QUINNIPIAC AV","New Haven","CT",""
4138,"529 QUINNIPIAC AV","New Haven","CT",""
4139,"533 QUINNIPIAC AV","New Haven","CT",""
4140,"535 QUINNIPIAC AV","New Haven","CT",""
4141,"537 QUINNIPIAC AV","New Haven","CT",""
4142,"539 QUINNIPIAC AV","New Haven","CT",""
4143,"543 QUINNIPIAC AV","New Haven","CT",""
4144,"547 QUINNIPIAC AV","New Haven","CT",""
4145,"171 LENOX ST","New Haven","CT",""
4146,"49 OXFORD ST","New Haven","CT",""
4147,"55 OXFORD ST","New Haven","CT",""
4148,"196 LEXINGTON AV","New Haven","CT",""
4149,"188 LEXINGTON AV","New Haven","CT",""
4150,"184 LEXINGTON AV","New Haven","CT",""
4151,"178 LEXINGTON AV","New Haven","CT",""
4152,"180 LEXINGTON AV","New Haven","CT",""
4153,"166 LEXINGTON AV","New Haven","CT",""
4154,"160 LEXINGTON AV","New Haven","CT",""
4155,"156 LEXINGTON AV","New Haven","CT",""
4156,"152 LEXINGTON AV","New Haven","CT",""
4157,"30 REVERE ST","New Haven","CT",""
4158,"1 REVERE ST","New Haven","CT",""
4159,"123 LENOX ST","New Haven","CT",""
4160,"127 LENOX ST","New Haven","CT",""
4161,"135 LENOX ST","New Haven","CT",""
4162,"139 LENOX ST","New Haven","CT",""
4163,"145 LENOX ST","New Haven","CT",""
4164,"151 LENOX ST","New Haven","CT",""
4165,"161 LENOX ST","New Haven","CT",""
4166,"167 LENOX ST","New Haven","CT",""
4167,"235 LENOX ST","New Haven","CT",""
4168,"49 ANER ST","New Haven","CT",""
4169,"51 ANER ST","New Haven","CT",""
4170,"57 ANER ST","New Haven","CT",""
4171,"258 LEXINGTON AV","New Haven","CT",""
4172,"248 LEXINGTON AV","New Haven","CT",""
4173,"244 LEXINGTON AV","New Haven","CT",""
4174,"238 LEXINGTON AV","New Haven","CT",""
4175,"232 LEXINGTON AV","New Haven","CT",""
4176,"226 LEXINGTON AV","New Haven","CT",""
4177,"222 LEXINGTON AV","New Haven","CT",""
4178,"195 LENOX ST","New Haven","CT",""
4179,"218 LEXINGTON AV","New Haven","CT",""
4180,"214 LEXINGTON AV","New Haven","CT",""
4181,"210 LEXINGTON AV","New Haven","CT",""
4182,"204 LEXINGTON AV","New Haven","CT",""
4183,"62 OXFORD ST","New Haven","CT",""
4184,"44 OXFORD ST","New Haven","CT",""
4185,"179 LENOX ST","New Haven","CT",""
4186,"205 LENOX ST","New Haven","CT",""
4187,"217 LENOX ST","New Haven","CT",""
4188,"223 LENOX ST","New Haven","CT",""
4189,"227 LENOX ST","New Haven","CT",""
4190,"203 LEXINGTON AV","New Haven","CT",""
4191,"15 ROCK HILL RD","New Haven","CT",""
4192,"21 ROCK HILL RD #B","New Haven","CT",""
4193,"21 ROCK HILL RD #C","New Haven","CT",""
4194,"21 ROCK HILL RD #D","New Haven","CT",""
4195,"23 ROCK HILL RD #A","New Haven","CT",""
4196,"23 ROCK HILL RD #B","New Haven","CT",""
4197,"23 ROCK HILL RD #C","New Haven","CT",""
4198,"23 ROCK HILL RD #D","New Haven","CT",""
4199,"23 ROCK HILL RD #E","New Haven","CT",""
4200,"23 ROCK HILL RD #F","New Haven","CT",""
4201,"25 ROCK HILL RD #A","New Haven","CT",""
4202,"25 ROCK HILL RD #B","New Haven","CT",""
4203,"25 ROCK HILL RD #C","New Haven","CT",""
4204,"25 ROCK HILL RD #D","New Haven","CT",""
4205,"25 ROCK HILL RD #E","New Haven","CT",""
4206,"25 ROCK HILL RD #F","New Haven","CT",""
4207,"25 ROCK HILL RD #G","New Haven","CT",""
4208,"25 ROCK HILL RD #H","New Haven","CT",""
4209,"25 ROCK HILL RD #I","New Haven","CT",""
4210,"25 ROCK HILL RD #J","New Haven","CT",""
4211,"21 ROCK HILL RD #A","New Haven","CT",""
4212,"31 ROCK HILL RD","New Haven","CT",""
4213,"39 ROCK HILL RD","New Haven","CT",""
4214,"178 SUMMIT ST","New Haven","CT",""
4215,"170 SUMMIT ST","New Haven","CT",""
4216,"162 SUMMIT ST","New Haven","CT",""
4217,"154 SUMMIT ST","New Haven","CT",""
4218,"58 REVERE ST","New Haven","CT",""
4219,"50 REVERE ST","New Haven","CT",""
4220,"42 REVERE ST","New Haven","CT",""
4221,"REVERE ST","New Haven","CT",""
4222,"151 LEXINGTON AV","New Haven","CT",""
4223,"155 LEXINGTON AV","New Haven","CT",""
4224,"161 LEXINGTON AV","New Haven","CT",""
4225,"LEXINGTON AV","New Haven","CT",""
4226,"LEXINGTON AV","New Haven","CT",""
4227,"167 LEXINGTON AV","New Haven","CT",""
4228,"LEXINGTON AV","New Haven","CT",""
4229,"LEXINGTON AV","New Haven","CT",""
4230,"171 LEXINGTON AV","New Haven","CT",""
4231,"173 LEXINGTON AV","New Haven","CT",""
4232,"177 LEXINGTON AV","New Haven","CT",""
4233,"183 LEXINGTON AV","New Haven","CT",""
4234,"187 LEXINGTON AV","New Haven","CT",""
4235,"193 LEXINGTON AV","New Haven","CT",""
4236,"243 LEXINGTON AV","New Haven","CT",""
4237,"3 ELDRIDGE ST","New Haven","CT",""
4238,"9 ELDRIDGE ST","New Haven","CT",""
4239,"11 ELDRIDGE ST","New Haven","CT",""
4240,"15 ELDRIDGE ST","New Haven","CT",""
4241,"240 SUMMIT ST","New Haven","CT",""
4242,"230 SUMMIT ST","New Haven","CT",""
4243,"222 SUMMIT ST","New Haven","CT",""
4244,"212 SUMMIT ST","New Haven","CT",""
4245,"200 SUMMIT ST","New Haven","CT",""
4246,"34 ROCK HILL RD","New Haven","CT",""
4247,"28 ROCK HILL RD","New Haven","CT",""
4248,"22 ROCK HILL RD","New Haven","CT",""
4249,"16 ROCK HILL RD","New Haven","CT",""
4250,"211 LEXINGTON AV","New Haven","CT",""
4251,"219 LEXINGTON AV","New Haven","CT",""
4252,"227 LEXINGTON AV","New Haven","CT",""
4253,"233 LEXINGTON AV","New Haven","CT",""
4254,"237 LEXINGTON AV","New Haven","CT",""
4255,"169 SUMMIT ST","New Haven","CT",""
4256,"183 SUMMIT ST","New Haven","CT",""
4257,"193 SUMMIT ST","New Haven","CT",""
4258,"201 SUMMIT ST","New Haven","CT",""
4259,"211 SUMMIT ST","New Haven","CT",""
4260,"221 SUMMIT ST","New Haven","CT",""
4261,"229 SUMMIT ST","New Haven","CT",""
4262,"235 SUMMIT ST","New Haven","CT",""
4263,"SUMMIT ST","New Haven","CT",""
4264,"245 SUMMIT ST","New Haven","CT",""
4265,"255 SUMMIT ST","New Haven","CT",""
4266,"265 SUMMIT ST","New Haven","CT",""
4267,"271 SUMMIT ST","New Haven","CT",""
4268,"281 SUMMIT ST","New Haven","CT",""
4269,"293 SUMMIT ST","New Haven","CT",""
4270,"297 SUMMIT ST","New Haven","CT",""
4271,"299 SUMMIT ST","New Haven","CT",""
4272,"303 SUMMIT ST","New Haven","CT",""
4273,"309 SUMMIT ST","New Haven","CT",""
4274,"315 SUMMIT ST","New Haven","CT",""
4275,"319 SUMMIT ST","New Haven","CT",""
4276,"183 EAST GRAND AV","New Haven","CT",""
4277,"189 EAST GRAND AV","New Haven","CT",""
4278,"201 EAST GRAND AV","New Haven","CT",""
4279,"205 EAST GRAND AV","New Haven","CT",""
4280,"209 EAST GRAND AV","New Haven","CT",""
4281,"223 EAST GRAND AV","New Haven","CT",""
4282,"EAST GRAND AV","New Haven","CT",""
4283,"259 EAST GRAND AV","New Haven","CT",""
4284,"450 RUSSELL ST","New Haven","CT",""
4285,"RUSSELL ST","New Haven","CT",""
4286,"78 MOUNTAIN TOP LA","New Haven","CT",""
4287,"72 MOUNTAIN TOP LA","New Haven","CT",""
4288,"64 MOUNTAIN TOP LA","New Haven","CT",""
4289,"23 SKYVIEW LA","New Haven","CT",""
4290,"15 SKYVIEW LA","New Haven","CT",""
4291,"9 HIGHVIEW LA","New Haven","CT",""
4292,"3 HIGHVIEW LA","New Haven","CT",""
4293,"471 RUSSELL ST","New Haven","CT",""
4294,"473 RUSSELL ST","New Haven","CT",""
4295,"483 RUSSELL ST","New Haven","CT",""
4296,"493 RUSSELL ST","New Haven","CT",""
4297,"507 RUSSELL ST","New Haven","CT",""
4298,"509 RUSSELL ST","New Haven","CT",""
4299,"515 RUSSELL ST","New Haven","CT",""
4300,"519 RUSSELL ST","New Haven","CT",""
4301,"523 RUSSELL ST","New Haven","CT",""
4302,"527 RUSSELL ST","New Haven","CT",""
4303,"1 LEILA ST","New Haven","CT",""
4304,"21 LEILA ST","New Haven","CT",""
4305,"23 LEILA ST","New Haven","CT",""
4306,"19 PEQUOT ST","New Haven","CT",""
4307,"25 PEQUOT ST","New Haven","CT",""
4308,"30 PEQUOT ST","New Haven","CT",""
4309,"20 PEQUOT ST","New Haven","CT",""
4310,"18 PEQUOT ST","New Haven","CT",""
4311,"4 PEQUOT ST","New Haven","CT",""
4312,NA,"New Haven","CT",""
4313,"RUSSELL ST","New Haven","CT",""
4314,"82 MOUNTAIN TOP LA","New Haven","CT",""
4315,"86 MOUNTAIN TOP LA","New Haven","CT",""
4316,"90 MOUNTAIN TOP LA","New Haven","CT",""
4317,"539 RUSSELL ST","New Haven","CT",""
4318,"545 RUSSELL ST","New Haven","CT",""
4319,"21 KINGSWOOD DR","New Haven","CT",""
4320,"551 RUSSELL ST","New Haven","CT",""
4321,"29 KINGSWOOD DR","New Haven","CT",""
4322,"41 KINGSWOOD DR","New Haven","CT",""
4323,"30 LEILA ST","New Haven","CT",""
4324,"15 HIGHVIEW LA","New Haven","CT",""
4325,"6 SKYVIEW LA","New Haven","CT",""
4326,"20 SKYVIEW LA","New Haven","CT",""
4327,"40 MOUNTAIN TOP LA","New Haven","CT",""
4328,"38 MOUNTAIN TOP LA","New Haven","CT",""
4329,"32 MOUNTAIN TOP LA","New Haven","CT",""
4330,"22 MOUNTAIN TOP LA","New Haven","CT",""
4331,"14 MOUNTAIN TOP LA","New Haven","CT",""
4332,"41 HIGHVIEW LA","New Haven","CT",""
4333,"33 HIGHVIEW LA","New Haven","CT",""
4334,"23 HIGHVIEW LA","New Haven","CT",""
4335,"73 HIGHVIEW LA","New Haven","CT",""
4336,"67 HIGHVIEW LA","New Haven","CT",""
4337,"59 HIGHVIEW LA","New Haven","CT",""
4338,"7 MOUNTAIN TOP LA","New Haven","CT",""
4339,"15 MOUNTAIN TOP LA","New Haven","CT",""
4340,"50 LEGEND LA","New Haven","CT",""
4341,"20 SLEEPY HOLLOW CIR #4","New Haven","CT",""
4342,"30 SLEEPY HOLLOW CIR #5","New Haven","CT",""
4343,"51 LEGEND LA","New Haven","CT",""
4344,"59 LEGEND LA","New Haven","CT",""
4345,"56 LEGEND LA","New Haven","CT",""
4346,"29 MOUNTAIN TOP LA","New Haven","CT",""
4347,"37 MOUNTAIN TOP LA","New Haven","CT",""
4348,"43 MOUNTAIN TOP LA","New Haven","CT",""
4349,"51 MOUNTAIN TOP LA","New Haven","CT",""
4350,"57 MOUNTAIN TOP LA","New Haven","CT",""
4351,"65 MOUNTAIN TOP LA","New Haven","CT",""
4352,"71 MOUNTAIN TOP LA","New Haven","CT",""
4353,"77 MOUNTAIN TOP LA","New Haven","CT",""
4354,"VENICE PL","New Haven","CT",""
4355,"81 MOUNTAIN TOP LA","New Haven","CT",""
4356,"85 MOUNTAIN TOP LA","New Haven","CT",""
4357,"89 MOUNTAIN TOP LA","New Haven","CT",""
4358,NA,"New Haven","CT",""
4359,"97 MOUNTAIN TOP LA","New Haven","CT",""
4360,"103 MOUNTAIN TOP LA","New Haven","CT",""
4361,"44 VENICE PL","New Haven","CT",""
4362,"50 VENICE PL","New Haven","CT",""
4363,"58 VENICE PL","New Haven","CT",""
4364,"66 VENICE PL","New Haven","CT",""
4365,"VENICE PL","New Haven","CT",""
4366,"10 HIGHVIEW LA","New Haven","CT",""
4367,"20 HIGHVIEW LA","New Haven","CT",""
4368,"26 HIGHVIEW LA","New Haven","CT",""
4369,"32 HIGHVIEW LA","New Haven","CT",""
4370,"38 HIGHVIEW LA","New Haven","CT",""
4371,"44 HIGHVIEW LA","New Haven","CT",""
4372,"50 HIGHVIEW LA","New Haven","CT",""
4373,"56 HIGHVIEW LA","New Haven","CT",""
4374,"64 HIGHVIEW LA","New Haven","CT",""
4375,"70 HIGHVIEW LA","New Haven","CT",""
4376,NA,"New Haven","CT",""
4377,"345 SUMMIT ST","New Haven","CT",""
4378,"337 SUMMIT ST","New Haven","CT",""
4379,"190 EAST GRAND AV","New Haven","CT",""
4380,NA,"New Haven","CT",""
4381,"353 SUMMIT ST","New Haven","CT",""
4382,"357 SUMMIT ST","New Haven","CT",""
4383,"365 SUMMIT ST","New Haven","CT",""
4384,"371 SUMMIT ST","New Haven","CT",""
4385,"381 SUMMIT ST","New Haven","CT",""
4386,"389 SUMMIT ST","New Haven","CT",""
4387,"395 SUMMIT ST","New Haven","CT",""
4388,"19 ROBERTSON ST","New Haven","CT",""
4389,"25 ROBERTSON ST","New Haven","CT",""
4390,"50 CARROLL ST","New Haven","CT",""
4391,"40 CARROLL ST","New Haven","CT",""
4392,"36 CARROLL ST","New Haven","CT",""
4393,"20 CARROLL ST","New Haven","CT",""
4394,NA,"New Haven","CT",""
4395,"SUMMIT ST","New Haven","CT",""
4396,"228 EAST GRAND AV","New Haven","CT",""
4397,"214 EAST GRAND AV","New Haven","CT",""
4398,"212 EAST GRAND AV","New Haven","CT",""
4399,"15 CARROLL ST","New Haven","CT",""
4400,"21 CARROLL ST","New Haven","CT",""
4401,"25 CARROLL ST","New Haven","CT",""
4402,"CARROLL ST","New Haven","CT",""
4403,"39 CARROLL ST","New Haven","CT",""
4404,"55 CARROLL ST","New Haven","CT",""
4405,"67 CARROLL ST","New Haven","CT",""
4406,"231 CLIFTON ST","New Haven","CT",""
4407,"237 CLIFTON ST","New Haven","CT",""
4408,"243 CLIFTON ST","New Haven","CT",""
4409,"261 CLIFTON ST","New Haven","CT",""
4410,"265 CLIFTON ST","New Haven","CT",""
4411,"628 RUSSELL ST","New Haven","CT",""
4412,"618 RUSSELL ST","New Haven","CT",""
4413,"LINCOLN AV","New Haven","CT",""
4414,"LINCOLN AV","New Haven","CT",""
4415,"LINCOLN AV","New Haven","CT",""
4416,"LINCOLN AV","New Haven","CT",""
4417,"LINCOLN AV","New Haven","CT",""
4418,"30 LINCOLN AV","New Haven","CT",""
4419,"LINCOLN AV","New Haven","CT",""
4420,"34 LINCOLN AV","New Haven","CT",""
4421,"LINCOLN AV","New Haven","CT",""
4422,"LINCOLN AV","New Haven","CT",""
4423,"49 LINCOLN AV","New Haven","CT",""
4424,"LINCOLN AV","New Haven","CT",""
4425,"LINCOLN AV","New Haven","CT",""
4426,"55 LINCOLN AV","New Haven","CT",""
4427,"57 LINCOLN AV","New Haven","CT",""
4428,"59 LINCOLN AV","New Haven","CT",""
4429,"608 RUSSELL ST","New Haven","CT",""
4430,"598 RUSSELL ST","New Haven","CT",""
4431,"590 RUSSELL ST","New Haven","CT",""
4432,"40 PARKER AV","New Haven","CT",""
4433,"42 PARKER AV","New Haven","CT",""
4434,"PARKER AV","New Haven","CT",""
4435,"46 PARKER AV","New Haven","CT",""
4436,"PARKER AV","New Haven","CT",""
4437,"50 PARKER AV","New Haven","CT",""
4438,"54 PARKER AV","New Haven","CT",""
4439,"576 RUSSELL ST","New Haven","CT",""
4440,"RUSSELL ST","New Haven","CT",""
4441,"570 RUSSELL ST","New Haven","CT",""
4442,"RUSSELL ST","New Haven","CT",""
4443,"564 RUSSELL ST","New Haven","CT",""
4444,"558 RUSSELL ST","New Haven","CT",""
4445,"552 RUSSELL ST","New Haven","CT",""
4446,"RUSSELL ST","New Haven","CT",""
4447,"548 RUSSELL ST","New Haven","CT",""
4448,"RUSSELL ST","New Haven","CT",""
4449,"514 RUSSELL ST","New Haven","CT",""
4450,"546 RUSSELL ST","New Haven","CT",""
4451,"RUSSELL ST","New Haven","CT",""
4452,"540 RUSSELL ST","New Haven","CT",""
4453,"528 RUSSELL ST","New Haven","CT",""
4454,"RUSSELL ST","New Haven","CT",""
4455,"524 RUSSELL ST","New Haven","CT",""
4456,"520 RUSSELL ST","New Haven","CT",""
4457,"518 RUSSELL ST","New Haven","CT",""
4458,"512 RUSSELL ST","New Haven","CT",""
4459,"508 RUSSELL ST","New Haven","CT",""
4460,"502 RUSSELL ST","New Haven","CT",""
4461,"498 RUSSELL ST","New Haven","CT",""
4462,"492 RUSSELL ST","New Haven","CT",""
4463,"272 EAST GRAND AV","New Haven","CT",""
4464,"266 EAST GRAND AV","New Haven","CT",""
4465,"260 EAST GRAND AV","New Haven","CT",""
4466,"254 EAST GRAND AV","New Haven","CT",""
4467,"252 EAST GRAND AV","New Haven","CT",""
4468,"141 CLIFTON ST","New Haven","CT",""
4469,"151 CLIFTON ST","New Haven","CT",""
4470,"159 CLIFTON ST","New Haven","CT",""
4471,"181 CLIFTON ST","New Haven","CT",""
4472,"95 CARROLL ST","New Haven","CT",""
4473,"CARROLL ST","New Haven","CT",""
4474,"85 CARROLL ST","New Haven","CT",""
4475,"44 ROBERTSON ST","New Haven","CT",""
4476,"30 ROBERTSON ST","New Haven","CT",""
4477,"24 ROBERTSON ST","New Haven","CT",""
4478,"22 ROBERTSON ST","New Haven","CT",""
4479,"255 LEXINGTON AV","New Haven","CT",""
4480,"257 LEXINGTON AV","New Haven","CT",""
4481,"265 LEXINGTON AV","New Haven","CT",""
4482,"277 LEXINGTON AV","New Haven","CT",""
4483,"283 LEXINGTON AV","New Haven","CT",""
4484,"15 HOWARD ST","New Haven","CT",""
4485,"25 HOWARD ST","New Haven","CT",""
4486,"35 HOWARD ST","New Haven","CT",""
4487,"43 HOWARD ST","New Haven","CT",""
4488,"53 HOWARD ST","New Haven","CT",""
4489,"73 HOWARD ST","New Haven","CT",""
4490,"109 HOWARD ST","New Haven","CT",""
4491,"264 SUMMIT ST","New Haven","CT",""
4492,"256 SUMMIT ST","New Haven","CT",""
4493,"254 SUMMIT ST","New Haven","CT",""
4494,"40 ELDRIDGE ST","New Haven","CT",""
4495,"HOWARD ST","New Haven","CT",""
4496,"14 ELDRIDGE ST","New Haven","CT",""
4497,"10 ELDRIDGE ST","New Haven","CT",""
4498,"6 ELDRIDGE ST","New Haven","CT",""
4499,NA,"New Haven","CT",""
4500,"4 ELDRIDGE ST","New Haven","CT",""
4501,"291 LEXINGTON AV","New Haven","CT",""
4502,"297 LEXINGTON AV","New Haven","CT",""
4503,"303 LEXINGTON AV","New Haven","CT",""
4504,"317 LEXINGTON AV","New Haven","CT",""
4505,"321 LEXINGTON AV","New Haven","CT",""
4506,"323 LEXINGTON AV","New Haven","CT",""
4507,"335 LEXINGTON AV #1","New Haven","CT",""
4508,"335 LEXINGTON AV #2","New Haven","CT",""
4509,"335 LEXINGTON AV #3","New Haven","CT",""
4510,"339 LEXINGTON AV","New Haven","CT",""
4511,"105 EAST GRAND AV","New Haven","CT",""
4512,"115 EAST GRAND AV #1","New Haven","CT",""
4513,"115 EAST GRAND AV #2","New Haven","CT",""
4514,"115 EAST GRAND AV #3","New Haven","CT",""
4515,"115 EAST GRAND AV #4","New Haven","CT",""
4516,"115 EAST GRAND AV #5","New Haven","CT",""
4517,"131 EAST GRAND AV","New Haven","CT",""
4518,"133 EAST GRAND AV","New Haven","CT",""
4519,"50 SHERLAND AV","New Haven","CT",""
4520,"44 SHERLAND AV","New Haven","CT",""
4521,"38 SHERLAND AV","New Haven","CT",""
4522,"30 SHERLAND AV","New Haven","CT",""
4523,"24 SHERLAND AV","New Haven","CT",""
4524,"20 HOWARD ST","New Haven","CT",""
4525,"10 HOWARD ST","New Haven","CT",""
4526,"54 HOWARD ST","New Haven","CT",""
4527,"15 SHERLAND AV","New Haven","CT",""
4528,"62 HOWARD ST","New Haven","CT",""
4529,"23 SHERLAND AV","New Haven","CT",""
4530,"35 SHERLAND AV","New Haven","CT",""
4531,"45 SHERLAND AV","New Haven","CT",""
4532,"59 SHERLAND AV","New Haven","CT",""
4533,"171 EAST GRAND AV","New Haven","CT",""
4534,"169 EAST GRAND AV","New Haven","CT",""
4535,"322 SUMMIT ST","New Haven","CT",""
4536,"318 SUMMIT ST","New Haven","CT",""
4537,"312 SUMMIT ST","New Haven","CT",""
4538,"304 SUMMIT ST","New Haven","CT",""
4539,"298 SUMMIT ST","New Haven","CT",""
4540,"294 SUMMIT ST","New Haven","CT",""
4541,"280 SUMMIT ST","New Haven","CT",""
4542,"70 HOWARD ST","New Haven","CT",""
4543,"373 LEXINGTON AV","New Haven","CT",""
4544,"391 LEXINGTON AV","New Haven","CT",""
4545,"401 LEXINGTON AV","New Haven","CT",""
4546,"75 CLIFTON ST","New Haven","CT",""
4547,"112 SHERLAND AV","New Haven","CT",""
4548,"106 SHERLAND AV","New Haven","CT",""
4549,"102 SHERLAND AV","New Haven","CT",""
4550,"98 SHERLAND AV","New Haven","CT",""
4551,"94 SHERLAND AV","New Haven","CT",""
4552,"90 SHERLAND AV","New Haven","CT",""
4553,"86 SHERLAND AV","New Haven","CT",""
4554,"74 SHERLAND AV","New Haven","CT",""
4555,"128 EAST GRAND AV","New Haven","CT",""
4556,"120 EAST GRAND AV","New Haven","CT",""
4557,"71 SHERLAND AV","New Haven","CT",""
4558,"81 SHERLAND AV","New Haven","CT",""
4559,"85 SHERLAND AV","New Haven","CT",""
4560,"89 SHERLAND AV","New Haven","CT",""
4561,"91 SHERLAND AV","New Haven","CT",""
4562,"99 SHERLAND AV","New Haven","CT",""
4563,"99 CLIFTON ST","New Haven","CT",""
4564,"111 CLIFTON ST","New Haven","CT",""
4565,"394 SUMMIT ST","New Haven","CT",""
4566,"386 SUMMIT ST","New Haven","CT",""
4567,"380 SUMMIT ST","New Haven","CT",""
4568,"376 SUMMIT ST","New Haven","CT",""
4569,"368 SUMMIT ST","New Haven","CT",""
4570,"360 SUMMIT ST","New Haven","CT",""
4571,"356 SUMMIT ST","New Haven","CT",""
4572,"350 SUMMIT ST","New Haven","CT",""
4573,"342 SUMMIT ST","New Haven","CT",""
4574,"154 EAST GRAND AV","New Haven","CT",""
4575,"560 QUINNIPIAC AV","New Haven","CT",""
4576,"576 QUINNIPIAC AV","New Haven","CT",""
4577,"620 QUINNIPIAC AV","New Haven","CT",""
4578,"624 QUINNIPIAC AV","New Haven","CT",""
4579,NA,"New Haven","CT",""
4580,"630 QUINNIPIAC AV #630","New Haven","CT",""
4581,"632 QUINNIPIAC AV #632","New Haven","CT",""
4582,"634 QUINNIPIAC AV #634A","New Haven","CT",""
4583,"634 QUINNIPIAC AV #634B","New Haven","CT",""
4584,"636 QUINNIPIAC AV #636","New Haven","CT",""
4585,"638 QUINNIPIAC AV #638","New Haven","CT",""
4586,"636 QUINNIPIAC AV #GAR","New Haven","CT",""
4587,NA,"New Haven","CT",""
4588,"640 QUINNIPIAC AV","New Haven","CT",""
4589,"646 QUINNIPIAC AV","New Haven","CT",""
4590,NA,"New Haven","CT",""
4591,"670 QUINNIPIAC AV","New Haven","CT",""
4592,"672 QUINNIPIAC AV","New Haven","CT",""
4593,"674 QUINNIPIAC AV","New Haven","CT",""
4594,"676 QUINNIPIAC AV","New Haven","CT",""
4595,"650 QUINNIPIAC AV","New Haven","CT",""
4596,"652 QUINNIPIAC AV","New Haven","CT",""
4597,"654 QUINNIPIAC AV","New Haven","CT",""
4598,"656 QUINNIPIAC AV","New Haven","CT",""
4599,"658 QUINNIPIAC AV","New Haven","CT",""
4600,"660 QUINNIPIAC AV","New Haven","CT",""
4601,"662 QUINNIPIAC AV #B-1","New Haven","CT",""
4602,"664 QUINNIPIAC AV #B-2","New Haven","CT",""
4603,"666 QUINNIPIAC AV #B-3","New Haven","CT",""
4604,"668 QUINNIPIAC AV #B-4","New Haven","CT",""
4605,"561 QUINNIPIAC AV","New Haven","CT",""
4606,"565 QUINNIPIAC AV","New Haven","CT",""
4607,"571 QUINNIPIAC AV","New Haven","CT",""
4608,"577 QUINNIPIAC AV","New Haven","CT",""
4609,"583 QUINNIPIAC AV","New Haven","CT",""
4610,"589 QUINNIPIAC AV","New Haven","CT",""
4611,"595 QUINNIPIAC AV","New Haven","CT",""
4612,"603 QUINNIPIAC AV","New Haven","CT",""
4613,"609 QUINNIPIAC AV","New Haven","CT",""
4614,"621 QUINNIPIAC AV","New Haven","CT",""
4615,"9 WELCOME ST","New Haven","CT",""
4616,"15 WELCOME ST","New Haven","CT",""
4617,"296 LENOX ST","New Haven","CT",""
4618,"290 LENOX ST","New Haven","CT",""
4619,"286 LENOX ST","New Haven","CT",""
4620,"280 LENOX ST","New Haven","CT",""
4621,"274 LENOX ST","New Haven","CT",""
4622,"270 LENOX ST","New Haven","CT",""
4623,"264 LENOX ST","New Haven","CT",""
4624,"250 LENOX ST","New Haven","CT",""
4625,"238 LENOX ST","New Haven","CT",""
4626,"241 LENOX ST","New Haven","CT",""
4627,"LENOX ST","New Haven","CT",""
4628,"257 LENOX ST","New Haven","CT",""
4629,"259 LENOX ST","New Haven","CT",""
4630,"LENOX ST","New Haven","CT",""
4631,"261 LENOX ST","New Haven","CT",""
4632,"265 LENOX ST","New Haven","CT",""
4633,"LENOX ST","New Haven","CT",""
4634,"LENOX ST","New Haven","CT",""
4635,"267 LENOX ST","New Haven","CT",""
4636,"271 LENOX ST","New Haven","CT",""
4637,"279 LENOX ST","New Haven","CT",""
4638,"285 LENOX ST","New Haven","CT",""
4639,"291 LENOX ST","New Haven","CT",""
4640,"299 LENOX ST","New Haven","CT",""
4641,"305 LENOX ST","New Haven","CT",""
4642,"315 LENOX ST","New Haven","CT",""
4643,"321 LENOX ST","New Haven","CT",""
4644,"325 LENOX ST","New Haven","CT",""
4645,"73 EAST GRAND AV","New Haven","CT",""
4646,"83 EAST GRAND AV","New Haven","CT",""
4647,"EAST GRAND AV","New Haven","CT",""
4648,"344 LEXINGTON AV","New Haven","CT",""
4649,"320 LEXINGTON AV","New Haven","CT",""
4650,"312 LEXINGTON AV","New Haven","CT",""
4651,"302 LEXINGTON AV","New Haven","CT",""
4652,"LEXINGTON AV","New Haven","CT",""
4653,"LEXINGTON AV","New Haven","CT",""
4654,"LEXINGTON AV","New Haven","CT",""
4655,"LEXINGTON AV","New Haven","CT",""
4656,"292 LEXINGTON AV","New Haven","CT",""
4657,"288 LEXINGTON AV","New Haven","CT",""
4658,"286 LEXINGTON AV","New Haven","CT",""
4659,"282 LEXINGTON AV","New Haven","CT",""
4660,"274 LEXINGTON AV","New Haven","CT",""
4661,"270 LEXINGTON AV","New Haven","CT",""
4662,"54 ANER ST","New Haven","CT",""
4663,"52 ANER ST","New Haven","CT",""
4664,"48 ANER ST","New Haven","CT",""
4665,"627 QUINNIPIAC AV","New Haven","CT",""
4666,"635 QUINNIPIAC AV","New Haven","CT",""
4667,"641 QUINNIPIAC AV","New Haven","CT",""
4668,"645 QUINNIPIAC AV","New Haven","CT",""
4669,"651 QUINNIPIAC AV","New Haven","CT",""
4670,"655 QUINNIPIAC AV","New Haven","CT",""
4671,"661 QUINNIPIAC AV","New Haven","CT",""
4672,"61 EAST GRAND AV","New Haven","CT",""
4673,"69 EAST GRAND AV","New Haven","CT",""
4674,"320 LENOX ST","New Haven","CT",""
4675,"314 LENOX ST","New Haven","CT",""
4676,"310 LENOX ST","New Haven","CT",""
4677,"28 WELCOME ST","New Haven","CT",""
4678,"22 WELCOME ST","New Haven","CT",""
4679,"16 WELCOME ST","New Haven","CT",""
4680,"12 WELCOME ST","New Haven","CT",""
4681,NA,"New Haven","CT",""
4682,NA,"New Haven","CT",""
4683,"16 EAST GRAND AV","New Haven","CT",""
4684,NA,"New Haven","CT",""
4685,"28 EAST GRAND AV","New Haven","CT",""
4686,"36 EAST GRAND AV","New Haven","CT",""
4687,"686 QUINNIPIAC AV","New Haven","CT",""
4688,"690 QUINNIPIAC AV","New Haven","CT",""
4689,"702 QUINNIPIAC AV #A","New Haven","CT",""
4690,"702 QUINNIPIAC AV #B","New Haven","CT",""
4691,"702 QUINNIPIAC AV #C","New Haven","CT",""
4692,"702 QUINNIPIAC AV #D","New Haven","CT",""
4693,"702 QUINNIPIAC AV #E","New Haven","CT",""
4694,"702 QUINNIPIAC AV #F","New Haven","CT",""
4695,"702 QUINNIPIAC AV #G","New Haven","CT",""
4696,"702 QUINNIPIAC AV #H","New Haven","CT",""
4697,"702 QUINNIPIAC AV #I","New Haven","CT",""
4698,"710 QUINNIPIAC AV","New Haven","CT",""
4699,"714 QUINNIPIAC AV","New Haven","CT",""
4700,"718 QUINNIPIAC AV","New Haven","CT",""
4701,"3 CLIFTON ST","New Haven","CT",""
4702,"693 QUINNIPIAC AV #1","New Haven","CT",""
4703,"695 QUINNIPIAC AV #2","New Haven","CT",""
4704,"689 QUINNIPIAC AV #3","New Haven","CT",""
4705,"691 QUINNIPIAC AV #4","New Haven","CT",""
4706,"685 QUINNIPIAC AV #5","New Haven","CT",""
4707,"687 QUINNIPIAC AV #6","New Haven","CT",""
4708,"681 QUINNIPIAC AV #7","New Haven","CT",""
4709,"683 QUINNIPIAC AV #8","New Haven","CT",""
4710,"677 QUINNIPIAC AV #9","New Haven","CT",""
4711,"679 QUINNIPIAC AV #10","New Haven","CT",""
4712,"673 QUINNIPIAC AV #11","New Haven","CT",""
4713,"675 QUINNIPIAC AV #12","New Haven","CT",""
4714,"671 QUINNIPIAC AV #13","New Haven","CT",""
4715,"46 EAST GRAND AV #14","New Haven","CT",""
4716,"44 EAST GRAND AV #15","New Haven","CT",""
4717,"48 EAST GRAND AV #16","New Haven","CT",""
4718,"701 QUINNIPIAC AV","New Haven","CT",""
4719,"705 QUINNIPIAC AV","New Haven","CT",""
4720,"715 QUINNIPIAC AV","New Haven","CT",""
4721,"719 QUINNIPIAC AV","New Haven","CT",""
4722,"723 QUINNIPIAC AV","New Haven","CT",""
4723,"7 CLIFTON ST","New Haven","CT",""
4724,"17 CLIFTON ST","New Haven","CT",""
4725,"378 LENOX ST","New Haven","CT",""
4726,"374 LENOX ST","New Haven","CT",""
4727,"370 LENOX ST","New Haven","CT",""
4728,"366 LENOX ST","New Haven","CT",""
4729,"356 LENOX ST","New Haven","CT",""
4730,"350 LENOX ST","New Haven","CT",""
4731,"64 EAST GRAND AV","New Haven","CT",""
4732,"60 EAST GRAND AV","New Haven","CT",""
4733,NA,"New Haven","CT",""
4734,NA,"New Haven","CT",""
4735,NA,"New Haven","CT",""
4736,"349 LENOX ST","New Haven","CT",""
4737,"82 EAST GRAND AV","New Haven","CT",""
4738,"HULSE ST","New Haven","CT",""
4739,"86 EAST GRAND AV","New Haven","CT",""
4740,"LEXINGTON AV","New Haven","CT",""
4741,"355 LENOX ST","New Haven","CT",""
4742,"361 LENOX ST","New Haven","CT",""
4743,"367 LENOX ST","New Haven","CT",""
4744,"373 LENOX ST","New Haven","CT",""
4745,"377 LENOX ST","New Haven","CT",""
4746,"381 LENOX ST","New Haven","CT",""
4747,"387 LENOX ST","New Haven","CT",""
4748,"CLIFTON ST","New Haven","CT",""
4749,"39 CLIFTON ST","New Haven","CT",""
4750,"402 LEXINGTON AV","New Haven","CT",""
4751,"400 LEXINGTON AV","New Haven","CT",""
4752,"398 LEXINGTON AV","New Haven","CT",""
4753,"388 LEXINGTON AV","New Haven","CT",""
4754,"382 LEXINGTON AV","New Haven","CT",""
4755,"34 HULSE ST","New Haven","CT",""
4756,"30 HULSE ST","New Haven","CT",""
4757,"16 HULSE ST","New Haven","CT",""
4758,"838 QUINNIPIAC AV","New Haven","CT",""
4759,"832 QUINNIPIAC AV","New Haven","CT",""
4760,"826 QUINNIPIAC AV","New Haven","CT",""
4761,"822 QUINNIPIAC AV","New Haven","CT",""
4762,"818 QUINNIPIAC AV","New Haven","CT",""
4763,"806 QUINNIPIAC AV","New Haven","CT",""
4764,"800 QUINNIPIAC AV","New Haven","CT",""
4765,"798 QUINNIPIAC AV","New Haven","CT",""
4766,"790 QUINNIPIAC AV","New Haven","CT",""
4767,"784 QUINNIPIAC AV","New Haven","CT",""
4768,"776 QUINNIPIAC AV","New Haven","CT",""
4769,"764 QUINNIPIAC AV","New Haven","CT",""
4770,NA,"New Haven","CT",""
4771,"744 QUINNIPIAC AV #9","New Haven","CT",""
4772,"746 QUINNIPIAC AV #10","New Haven","CT",""
4773,"748 QUINNIPIAC AV #11","New Haven","CT",""
4774,"750 QUINNIPIAC AV  12","New Haven","CT",""
4775,"740 QUINNIPIAC AV","New Haven","CT",""
4776,"736 QUINNIPIAC AV","New Haven","CT",""
4777,"728 QUINNIPIAC AV","New Haven","CT",""
4778,"4 CLIFTON ST","New Haven","CT",""
4779,"2 CLIFTON ST","New Haven","CT",""
4780,"729 QUINNIPIAC AV #731","New Haven","CT",""
4781,"731 QUINNIPIAC AV #731","New Haven","CT",""
4782,"733 QUINNIPIAC AV #733","New Haven","CT",""
4783,"735 QUINNIPIAC AV #735","New Haven","CT",""
4784,"737 QUINNIPIAC AV #737","New Haven","CT",""
4785,"739 QUINNIPIAC AV #739","New Haven","CT",""
4786,"741 QUINNIPIAC AV #741","New Haven","CT",""
4787,"753 QUINNIPIAC AV","New Haven","CT",""
4788,"747 QUINNIPIAC AV","New Haven","CT",""
4789,"759 QUINNIPIAC AV","New Haven","CT",""
4790,"765 QUINNIPIAC AV","New Haven","CT",""
4791,"773 QUINNIPIAC AV","New Haven","CT",""
4792,"779 QUINNIPIAC AV","New Haven","CT",""
4793,"783 QUINNIPIAC AV","New Haven","CT",""
4794,"789 QUINNIPIAC AV","New Haven","CT",""
4795,"797 QUINNIPIAC AV","New Haven","CT",""
4796,"805 QUINNIPIAC AV","New Haven","CT",""
4797,"813 QUINNIPIAC AV","New Haven","CT",""
4798,"825 QUINNIPIAC AV","New Haven","CT",""
4799,"2 RUNO TER","New Haven","CT",""
4800,"3 RUNO TER","New Haven","CT",""
4801,"5 RUNO TER","New Haven","CT",""
4802,"9 RUNO TER","New Haven","CT",""
4803,"RUNO TER","New Haven","CT",""
4804,"11 RUNO TER","New Haven","CT",""
4805,"837 QUINNIPIAC AV","New Haven","CT",""
4806,"847 QUINNIPIAC AV","New Haven","CT",""
4807,"853 QUINNIPIAC AV","New Haven","CT",""
4808,"861 QUINNIPIAC AV","New Haven","CT",""
4809,"64 FIRST AV","New Haven","CT",""
4810,"62 FIRST AV","New Haven","CT",""
4811,"36 FIRST AV","New Haven","CT",""
4812,"32 FIRST AV","New Haven","CT",""
4813,"30 FIRST AV","New Haven","CT",""
4814,"28 FIRST AV","New Haven","CT",""
4815,"FIRST AV","New Haven","CT",""
4816,"22 FIRST AV","New Haven","CT",""
4817,"20 FIRST AV","New Haven","CT",""
4818,"16 FIRST AV","New Haven","CT",""
4819,"190 CLIFTON ST","New Haven","CT",""
4820,"90 CLIFTON ST","New Haven","CT",""
4821,"80 CLIFTON ST","New Haven","CT",""
4822,"84 CLIFTON ST","New Haven","CT",""
4823,"62 CLIFTON ST","New Haven","CT",""
4824,"433 LEXINGTON AV","New Haven","CT",""
4825,"439 LEXINGTON AV","New Haven","CT",""
4826,"442 LEXINGTON AV","New Haven","CT",""
4827,"430 LEXINGTON AV","New Haven","CT",""
4828,"52 CLIFTON ST","New Haven","CT",""
4829,"420 LEXINGTON AV","New Haven","CT",""
4830,"36 CLIFTON ST","New Haven","CT",""
4831,"32 CLIFTON ST","New Haven","CT",""
4832,NA,"New Haven","CT",""
4833,"26 CLIFTON ST","New Haven","CT",""
4834,"20 CLIFTON ST","New Haven","CT",""
4835,"12 CLIFTON ST","New Haven","CT",""
4836,"65 FIRST AV","New Haven","CT",""
4837,"164 ROSEWOOD AV","New Haven","CT",""
4838,"154 ROSEWOOD AV","New Haven","CT",""
4839,"144 ROSEWOOD AV","New Haven","CT",""
4840,"134 ROSEWOOD AV","New Haven","CT",""
4841,"124 ROSEWOOD AV","New Haven","CT",""
4842,"114 ROSEWOOD AV","New Haven","CT",""
4843,"104 ROSEWOOD AV","New Haven","CT",""
4844,"94 ROSEWOOD AV","New Haven","CT",""
4845,"84 ROSEWOOD AV","New Haven","CT",""
4846,"74 ROSEWOOD AV","New Haven","CT",""
4847,"64 ROSEWOOD AV","New Haven","CT",""
4848,"54 ROSEWOOD AV","New Haven","CT",""
4849,"44 ROSEWOOD AV","New Haven","CT",""
4850,"34 ROSEWOOD AV","New Haven","CT",""
4851,"20 ROSEWOOD AV","New Haven","CT",""
4852,"10 ROSEWOOD AV","New Haven","CT",""
4853,"242 CLIFTON ST","New Haven","CT",""
4854,"236 CLIFTON ST","New Haven","CT",""
4855,"200 CLIFTON ST","New Haven","CT",""
4856,"19 FIRST AV","New Haven","CT",""
4857,"23 FIRST AV","New Haven","CT",""
4858,"13 FIRST AV","New Haven","CT",""
4859,"15 FIRST AV","New Haven","CT",""
4860,"37 FIRST AV","New Haven","CT",""
4861,"43 FIRST AV","New Haven","CT",""
4862,"51 FIRST AV","New Haven","CT",""
4863,"FIRST AV","New Haven","CT",""
4864,"57 FIRST AV","New Haven","CT",""
4865,"220 CLIFTON ST","New Haven","CT",""
4866,"CLIFTON ST","New Haven","CT",""
4867,"115 ROSEWOOD AV","New Haven","CT",""
4868,"700 RUSSELL ST","New Haven","CT",""
4869,"696 RUSSELL ST","New Haven","CT",""
4870,"692 RUSSELL ST","New Haven","CT",""
4871,"688 RUSSELL ST","New Haven","CT",""
4872,"684 RUSSELL ST","New Haven","CT",""
4873,"678 RUSSELL ST","New Haven","CT",""
4874,"672 RUSSELL ST","New Haven","CT",""
4875,"668 RUSSELL ST","New Haven","CT",""
4876,"664 RUSSELL ST","New Haven","CT",""
4877,"660 RUSSELL ST","New Haven","CT",""
4878,"654 RUSSELL ST","New Haven","CT",""
4879,"CLIFTON ST","New Haven","CT",""
4880,"280 CLIFTON ST","New Haven","CT",""
4881,"274 CLIFTON ST","New Haven","CT",""
4882,"270 CLIFTON ST","New Haven","CT",""
4883,"264 CLIFTON ST","New Haven","CT",""
4884,"31 ROSEWOOD AV","New Haven","CT",""
4885,"41 ROSEWOOD AV","New Haven","CT",""
4886,"55 ROSEWOOD AV","New Haven","CT",""
4887,"65 ROSEWOOD AV","New Haven","CT",""
4888,"75 ROSEWOOD AV","New Haven","CT",""
4889,"85 ROSEWOOD AV","New Haven","CT",""
4890,"95 ROSEWOOD AV","New Haven","CT",""
4891,"105 ROSEWOOD AV","New Haven","CT",""
4892,"165 ROSEWOOD AV","New Haven","CT",""
4893,"724 RUSSELL ST","New Haven","CT",""
4894,"716 RUSSELL ST","New Haven","CT",""
4895,"714 RUSSELL ST","New Haven","CT",""
4896,"710 RUSSELL ST","New Haven","CT",""
4897,"145 ROSEWOOD AV","New Haven","CT",""
4898,"155 ROSEWOOD AV","New Haven","CT",""
4899,"729 RUSSELL ST","New Haven","CT",""
4900,"180 EASTERN ST","New Haven","CT",""
4901,"182 EASTERN ST","New Haven","CT",""
4902,"717 RUSSELL ST","New Haven","CT",""
4903,"162 EASTERN ST","New Haven","CT",""
4904,"168 EASTERN ST","New Haven","CT",""
4905,"711 RUSSELL ST","New Haven","CT",""
4906,"705 RUSSELL ST","New Haven","CT",""
4907,"158 EASTERN ST","New Haven","CT",""
4908,"697 RUSSELL ST","New Haven","CT",""
4909,"154 EASTERN ST","New Haven","CT",""
4910,"693 RUSSELL ST","New Haven","CT",""
4911,"66 EASTERN ST","New Haven","CT",""
4912,"563 RUSSELL ST","New Haven","CT",""
4913,"569 RUSSELL ST","New Haven","CT",""
4914,"575 RUSSELL ST","New Haven","CT",""
4915,"581 RUSSELL ST","New Haven","CT",""
4916,"587 RUSSELL ST","New Haven","CT",""
4917,"593 RUSSELL ST","New Haven","CT",""
4918,"599 RUSSELL ST","New Haven","CT",""
4919,"605 RUSSELL ST","New Haven","CT",""
4920,"611 RUSSELL ST","New Haven","CT",""
4921,"617 RUSSELL ST","New Haven","CT",""
4922,"625 RUSSELL ST","New Haven","CT",""
4923,"299 CLIFTON ST","New Haven","CT",""
4924,"309 CLIFTON ST","New Haven","CT",""
4925,NA,"New Haven","CT",""
4926,"317 CLIFTON ST","New Haven","CT",""
4927,"325 CLIFTON ST","New Haven","CT",""
4928,"331 CLIFTON ST","New Haven","CT",""
4929,"54 EASTERN ST","New Haven","CT",""
4930,"44 EASTERN ST","New Haven","CT",""
4931,"38 EASTERN ST","New Haven","CT",""
4932,"CLIFTON ST","New Haven","CT",""
4933,"11 RUSSO TER","New Haven","CT",""
4934,"9 RUSSO TER","New Haven","CT",""
4935,NA,"New Haven","CT",""
4936,NA,"New Haven","CT",""
4937,NA,"New Haven","CT",""
4938,NA,"New Haven","CT",""
4939,"22 EASTERN ST","New Haven","CT",""
4940,"20 EASTERN ST","New Haven","CT",""
4941,"16 EASTERN ST","New Haven","CT",""
4942,"10 EASTERN ST","New Haven","CT",""
4943,"8 EASTERN ST","New Haven","CT",""
4944,"EASTERN ST","New Haven","CT",""
4945,"54 KINGSWOOD DR","New Haven","CT",""
4946,"50 KINGSWOOD DR","New Haven","CT",""
4947,"42 KINGSWOOD DR","New Haven","CT",""
4948,"37 KINGSWOOD DR","New Haven","CT",""
4949,"22 KINGSWOOD DR","New Haven","CT",""
4950,"16 KINGSWOOD DR","New Haven","CT",""
4951,"35 EASTERN ST","New Haven","CT",""
4952,"EASTERN ST","New Haven","CT",""
4953,"85 EASTERN ST","New Haven","CT",""
4954,"113 EASTERN ST","New Haven","CT",""
4955,NA,"New Haven","CT",""
4956,NA,"New Haven","CT",""
4957,"117 EASTERN ST","New Haven","CT",""
4958,"137 EASTERN ST","New Haven","CT",""
4959,"139 EASTERN ST","New Haven","CT",""
4960,"143 EASTERN ST","New Haven","CT",""
4961,"MARIE ST","New Haven","CT",""
4962,"38 MARIE ST","New Haven","CT",""
4963,"30 MARIE ST","New Haven","CT",""
4964,"22 MARIE ST","New Haven","CT",""
4965,"20 MARIE ST","New Haven","CT",""
4966,"145 EASTERN ST","New Haven","CT",""
4967,"315 EASTERN ST","New Haven","CT",""
4968,"363 EASTERN ST","New Haven","CT",""
4969,"270 ROSEWOOD AV #1","New Haven","CT",""
4970,"272 ROSEWOOD AV #2","New Haven","CT",""
4971,"274 ROSEWOOD AV #3","New Haven","CT",""
4972,"276 ROSEWOOD AV #4","New Haven","CT",""
4973,"288 ROSEWOOD AV #5","New Haven","CT",""
4974,"290 ROSEWOOD AV #6","New Haven","CT",""
4975,"292 ROSEWOOD AV #7","New Haven","CT",""
4976,"294 ROSEWOOD AV #8","New Haven","CT",""
4977,"306 ROSEWOOD AV #9","New Haven","CT",""
4978,"308 ROSEWOOD AV #10","New Haven","CT",""
4979,"310 ROSEWOOD AV #11","New Haven","CT",""
4980,"312 ROSEWOOD AV #12","New Haven","CT",""
4981,"324 ROSEWOOD AV #13","New Haven","CT",""
4982,"326 ROSEWOOD AV #14","New Haven","CT",""
4983,"328 ROSEWOOD AV #15","New Haven","CT",""
4984,"330 ROSEWOOD AV #16","New Haven","CT",""
4985,"256 ROSEWOOD AV","New Haven","CT",""
4986,"244 ROSEWOOD AV","New Haven","CT",""
4987,"234 ROSEWOOD AV","New Haven","CT",""
4988,"224 ROSEWOOD AV","New Haven","CT",""
4989,"214 ROSEWOOD AV","New Haven","CT",""
4990,"204 ROSEWOOD AV","New Haven","CT",""
4991,"194 ROSEWOOD AV","New Haven","CT",""
4992,"184 ROSEWOOD AV","New Haven","CT",""
4993,"174 ROSEWOOD AV","New Haven","CT",""
4994,"79 FIRST AV","New Haven","CT",""
4995,"85 FIRST AV","New Haven","CT",""
4996,"93 FIRST AV","New Haven","CT",""
4997,"99 FIRST AV","New Haven","CT",""
4998,"105 FIRST AV","New Haven","CT",""
4999,"111 FIRST AV","New Haven","CT",""
5000,"117 FIRST AV","New Haven","CT",""
