"pid","location","city","state","zip"
24001,"66 ALDEN AV","New Haven","CT",""
24002,"56 ALDEN AV","New Haven","CT",""
24003,"50 ALDEN AV","New Haven","CT",""
24004,"40 ALDEN AV","New Haven","CT",""
24005,"34 ALDEN AV","New Haven","CT",""
24006,"30 ALDEN AV","New Haven","CT",""
24007,"24 ALDEN AV","New Haven","CT",""
24008,"2055 CHAPEL ST","New Haven","CT",""
24009,"2069 CHAPEL ST","New Haven","CT",""
24010,"2073 CHAPEL ST","New Haven","CT",""
24011,"2079 CHAPEL ST","New Haven","CT",""
24012,"17 MCKINLEY AV","New Haven","CT",""
24013,"25 MCKINLEY AV","New Haven","CT",""
24014,"31 MCKINLEY AV","New Haven","CT",""
24015,"39 MCKINLEY AV","New Haven","CT",""
24016,"49 MCKINLEY AV","New Haven","CT",""
24017,"59 MCKINLEY AV","New Haven","CT",""
24018,"65 MCKINLEY AV","New Haven","CT",""
24019,"73 MCKINLEY AV","New Haven","CT",""
24020,"81 MCKINLEY AV","New Haven","CT",""
24021,"93 MCKINLEY AV","New Haven","CT",""
24022,"186 WESTWOOD RD","New Haven","CT",""
24023,"180 WESTWOOD RD","New Haven","CT",""
24024,"168 WESTWOOD RD","New Haven","CT",""
24025,"162 WESTWOOD RD","New Haven","CT",""
24026,"150 WESTWOOD RD","New Haven","CT",""
24027,"144 WESTWOOD RD","New Haven","CT",""
24028,"130 WESTWOOD RD","New Haven","CT",""
24029,"126 WESTWOOD RD","New Haven","CT",""
24030,"120 WESTWOOD RD","New Haven","CT",""
24031,"114 WESTWOOD RD","New Haven","CT",""
24032,"110 WESTWOOD RD","New Haven","CT",""
24033,"1955 CHAPEL ST","New Haven","CT",""
24034,"1965 CHAPEL ST","New Haven","CT",""
24035,"1971 CHAPEL ST","New Haven","CT",""
24036,"1975 CHAPEL ST","New Haven","CT",""
24037,"1985 CHAPEL ST","New Haven","CT",""
24038,"1995 CHAPEL ST","New Haven","CT",""
24039,"2001 CHAPEL ST","New Haven","CT",""
24040,"2009 CHAPEL ST","New Haven","CT",""
24041,"2015 CHAPEL ST","New Haven","CT",""
24042,"2025 CHAPEL ST","New Haven","CT",""
24043,"2033 CHAPEL ST","New Haven","CT",""
24044,"21 ALDEN AV","New Haven","CT",""
24045,"86 ELMWOOD RD","New Haven","CT",""
24046,"76 ELMWOOD RD","New Haven","CT",""
24047,"66 ELMWOOD RD","New Haven","CT",""
24048,"62 ELMWOOD RD","New Haven","CT",""
24049,"ELMWOOD RD","New Haven","CT",""
24050,"56 ELMWOOD RD","New Haven","CT",""
24051,"40 ELMWOOD RD","New Haven","CT",""
24052,"36 ELMWOOD RD","New Haven","CT",""
24053,"32 ELMWOOD RD","New Haven","CT",""
24054,"28 ELMWOOD RD","New Haven","CT",""
24055,"24 ELMWOOD RD","New Haven","CT",""
24056,"20 ELMWOOD RD","New Haven","CT",""
24057,"12 ELMWOOD RD","New Haven","CT",""
24058,"2 ELMWOOD RD","New Haven","CT",""
24059,"10 ELMWOOD RD","New Haven","CT",""
24060,"105 WESTWOOD RD","New Haven","CT",""
24061,"115 WESTWOOD RD","New Haven","CT",""
24062,"119 WESTWOOD RD","New Haven","CT",""
24063,"125 WESTWOOD RD","New Haven","CT",""
24064,"131 WESTWOOD RD","New Haven","CT",""
24065,"135 WESTWOOD RD","New Haven","CT",""
24066,"151 WESTWOOD RD","New Haven","CT",""
24067,"159 WESTWOOD RD","New Haven","CT",""
24068,"165 WESTWOOD RD","New Haven","CT",""
24069,"173 WESTWOOD RD","New Haven","CT",""
24070,"183 WESTWOOD RD","New Haven","CT",""
24071,"189 WESTWOOD RD","New Haven","CT",""
24072,"105 ALDEN AV","New Haven","CT",""
24073,"866 EDGEWOOD AV","New Haven","CT",""
24074,"858 EDGEWOOD AV","New Haven","CT",""
24075,"854 EDGEWOOD AV","New Haven","CT",""
24076,"848 EDGEWOOD AV","New Haven","CT",""
24077,"842 EDGEWOOD AV","New Haven","CT",""
24078,"836 EDGEWOOD AV","New Haven","CT",""
24079,"826 EDGEWOOD AV","New Haven","CT",""
24080,"822 EDGEWOOD AV","New Haven","CT",""
24081,"816 EDGEWOOD AV","New Haven","CT",""
24082,"812 EDGEWOOD AV","New Haven","CT",""
24083,"804 EDGEWOOD AV","New Haven","CT",""
24084,"794 EDGEWOOD AV","New Haven","CT",""
24085,"318 CENTRAL AV","New Haven","CT",""
24086,"312 CENTRAL AV","New Haven","CT",""
24087,"304 CENTRAL AV","New Haven","CT",""
24088,"15 ELMWOOD RD","New Haven","CT",""
24089,"21 ELMWOOD RD","New Haven","CT",""
24090,"27 ELMWOOD RD","New Haven","CT",""
24091,"35 ELMWOOD RD","New Haven","CT",""
24092,"39 ELMWOOD RD","New Haven","CT",""
24093,"45 ELMWOOD RD","New Haven","CT",""
24094,"55 ELMWOOD RD","New Haven","CT",""
24095,"61 ELMWOOD RD","New Haven","CT",""
24096,"65 ELMWOOD RD","New Haven","CT",""
24097,"75 ELMWOOD RD","New Haven","CT",""
24098,"75 ALDEN AV","New Haven","CT",""
24099,"85 ALDEN AV","New Haven","CT",""
24100,"95 ALDEN AV","New Haven","CT",""
24101,"19 MARVEL RD","New Haven","CT",""
24102,"25 MARVEL RD","New Haven","CT",""
24103,"31 MARVEL RD","New Haven","CT",""
24104,"35 MARVEL RD","New Haven","CT",""
24105,"41 MARVEL RD","New Haven","CT",""
24106,"47 MARVEL RD","New Haven","CT",""
24107,"55 MARVEL RD","New Haven","CT",""
24108,"63 MARVEL RD","New Haven","CT",""
24109,"75 MARVEL RD","New Haven","CT",""
24110,"81 MARVEL RD","New Haven","CT",""
24111,"87 MARVEL RD","New Haven","CT",""
24112,"93 MARVEL RD","New Haven","CT",""
24113,"99 MARVEL RD","New Haven","CT",""
24114,"105 MARVEL RD","New Haven","CT",""
24115,"111 MARVEL RD","New Haven","CT",""
24116,"117 MARVEL RD","New Haven","CT",""
24117,"123 MARVEL RD","New Haven","CT",""
24118,"129 MARVEL RD","New Haven","CT",""
24119,"98 WEST ELM ST","New Haven","CT",""
24120,"464 CENTRAL AV","New Haven","CT",""
24121,"460 CENTRAL AV","New Haven","CT",""
24122,"454 CENTRAL AV","New Haven","CT",""
24123,"450 CENTRAL AV","New Haven","CT",""
24124,"440 CENTRAL AV","New Haven","CT",""
24125,"436 CENTRAL AV","New Haven","CT",""
24126,"432 CENTRAL AV","New Haven","CT",""
24127,"428 CENTRAL AV","New Haven","CT",""
24128,"424 CENTRAL AV","New Haven","CT",""
24129,"420 CENTRAL AV","New Haven","CT",""
24130,"416 CENTRAL AV","New Haven","CT",""
24131,"412 CENTRAL AV","New Haven","CT",""
24132,"408 CENTRAL AV","New Haven","CT",""
24133,"404 CENTRAL AV","New Haven","CT",""
24134,"400 CENTRAL AV","New Haven","CT",""
24135,"396 CENTRAL AV","New Haven","CT",""
24136,"394 CENTRAL AV","New Haven","CT",""
24137,"390 CENTRAL AV","New Haven","CT",""
24138,"382 CENTRAL AV","New Haven","CT",""
24139,"378 CENTRAL AV","New Haven","CT",""
24140,"374 CENTRAL AV","New Haven","CT",""
24141,"376 CENTRAL AV","New Haven","CT",""
24142,"370 CENTRAL AV","New Haven","CT",""
24143,"366 CENTRAL AV","New Haven","CT",""
24144,"362 CENTRAL AV","New Haven","CT",""
24145,"358 CENTRAL AV","New Haven","CT",""
24146,"801 EDGEWOOD AV","New Haven","CT",""
24147,"809 EDGEWOOD AV","New Haven","CT",""
24148,"813 EDGEWOOD AV","New Haven","CT",""
24149,"817 EDGEWOOD AV","New Haven","CT",""
24150,"823 EDGEWOOD AV","New Haven","CT",""
24151,"829 EDGEWOOD AV","New Haven","CT",""
24152,"835 EDGEWOOD AV","New Haven","CT",""
24153,"789 EDGEWOOD AV","New Haven","CT",""
24154,"351 CENTRAL AV","New Haven","CT",""
24155,"355 CENTRAL AV","New Haven","CT",""
24156,"359 CENTRAL AV","New Haven","CT",""
24157,"361 CENTRAL AV","New Haven","CT",""
24158,"367 CENTRAL AV","New Haven","CT",""
24159,"371 CENTRAL AV","New Haven","CT",""
24160,"375 CENTRAL AV","New Haven","CT",""
24161,"379 CENTRAL AV","New Haven","CT",""
24162,"389 CENTRAL AV","New Haven","CT",""
24163,"393 CENTRAL AV","New Haven","CT",""
24164,"399 CENTRAL AV","New Haven","CT",""
24165,"403 CENTRAL AV","New Haven","CT",""
24166,"405 CENTRAL AV","New Haven","CT",""
24167,"415 CENTRAL AV","New Haven","CT",""
24168,"421 CENTRAL AV","New Haven","CT",""
24169,"425 CENTRAL AV","New Haven","CT",""
24170,"433 CENTRAL AV","New Haven","CT",""
24171,"439 CENTRAL AV D #B","New Haven","CT",""
24172,"439 CENTRAL AV #A-1","New Haven","CT",""
24173,"439 CENTRAL AV #B-1","New Haven","CT",""
24174,"439 CENTRAL AV #C-1","New Haven","CT",""
24175,"439 CENTRAL AV #D-1","New Haven","CT",""
24176,"439 CENTRAL AV #A-2","New Haven","CT",""
24177,"439 CENTRAL AV #B-2","New Haven","CT",""
24178,"439 CENTRAL AV #C-2","New Haven","CT",""
24179,"439 CENTRAL AV #D-2","New Haven","CT",""
24180,"439 CENTRAL AV #A-3","New Haven","CT",""
24181,"439 CENTRAL AV #B-3","New Haven","CT",""
24182,"439 CENTRAL AV #C-3","New Haven","CT",""
24183,"439 CENTRAL AV #D-3","New Haven","CT",""
24184,"449 CENTRAL AV","New Haven","CT",""
24185,"453 CENTRAL AV","New Haven","CT",""
24186,"457 CENTRAL AV","New Haven","CT",""
24187,"461 CENTRAL AV","New Haven","CT",""
24188,"224 WEST ROCK AV","New Haven","CT",""
24189,"218 WEST ROCK AV","New Haven","CT",""
24190,"212 WEST ROCK AV","New Haven","CT",""
24191,"208 WEST ROCK AV","New Haven","CT",""
24192,"206 WEST ROCK AV","New Haven","CT",""
24193,"200 WEST ROCK AV","New Haven","CT",""
24194,"196 WEST ROCK AV","New Haven","CT",""
24195,"190 WEST ROCK AV","New Haven","CT",""
24196,"184 WEST ROCK AV","New Haven","CT",""
24197,"180 WEST ROCK AV","New Haven","CT",""
24198,"172 WEST ROCK AV","New Haven","CT",""
24199,"168 WEST ROCK AV","New Haven","CT",""
24200,"162 WEST ROCK AV","New Haven","CT",""
24201,"156 WEST ROCK AV","New Haven","CT",""
24202,"154 WEST ROCK AV","New Haven","CT",""
24203,"150 WEST ROCK AV","New Haven","CT",""
24204,"144 WEST ROCK AV","New Haven","CT",""
24205,"138 WEST ROCK AV","New Haven","CT",""
24206,"134 WEST ROCK AV","New Haven","CT",""
24207,"130 WEST ROCK AV","New Haven","CT",""
24208,"124 WEST ROCK AV","New Haven","CT",""
24209,"120 WEST ROCK AV","New Haven","CT",""
24210,"763 EDGEWOOD AV","New Haven","CT",""
24211,"769 EDGEWOOD AV","New Haven","CT",""
24212,"775 EDGEWOOD AV","New Haven","CT",""
24213,"779 EDGEWOOD AV","New Haven","CT",""
24214,"785 EDGEWOOD AV","New Haven","CT",""
24215,"737 EDGEWOOD AV","New Haven","CT",""
24216,"127 WEST ROCK AV","New Haven","CT",""
24217,"131 WEST ROCK AV","New Haven","CT",""
24218,"137 WEST ROCK AV","New Haven","CT",""
24219,"141 WEST ROCK AV","New Haven","CT",""
24220,"147 WEST ROCK AV","New Haven","CT",""
24221,"151 WEST ROCK AV","New Haven","CT",""
24222,"155 WEST ROCK AV","New Haven","CT",""
24223,"161 WEST ROCK AV","New Haven","CT",""
24224,"167 WEST ROCK AV","New Haven","CT",""
24225,"173 WEST ROCK AV","New Haven","CT",""
24226,"177 WEST ROCK AV","New Haven","CT",""
24227,"179 WEST ROCK AV","New Haven","CT",""
24228,"183 WEST ROCK AV","New Haven","CT",""
24229,"187 WEST ROCK AV","New Haven","CT",""
24230,"195 WEST ROCK AV","New Haven","CT",""
24231,"199 WEST ROCK AV","New Haven","CT",""
24232,"205 WEST ROCK AV","New Haven","CT",""
24233,"209 WEST ROCK AV","New Haven","CT",""
24234,"215 WEST ROCK AV","New Haven","CT",""
24235,"221 WEST ROCK AV","New Haven","CT",""
24236,"28 WEST ELM ST","New Haven","CT",""
24237,"22 WEST ELM ST","New Haven","CT",""
24238,"18 WEST ELM ST","New Haven","CT",""
24239,"394 YALE AV","New Haven","CT",""
24240,"390 YALE AV","New Haven","CT",""
24241,"382 YALE AV","New Haven","CT",""
24242,"376 YALE AV","New Haven","CT",""
24243,"370 YALE AV","New Haven","CT",""
24244,"366 YALE AV","New Haven","CT",""
24245,"360 YALE AV","New Haven","CT",""
24246,"356 YALE AV","New Haven","CT",""
24247,"352 YALE AV","New Haven","CT",""
24248,"346 YALE AV","New Haven","CT",""
24249,"342 YALE AV","New Haven","CT",""
24250,"336 YALE AV","New Haven","CT",""
24251,"334 YALE AV","New Haven","CT",""
24252,"330 YALE AV","New Haven","CT",""
24253,"324 YALE AV","New Haven","CT",""
24254,"318 YALE AV","New Haven","CT",""
24255,"310 YALE AV","New Haven","CT",""
24256,"304 YALE AV","New Haven","CT",""
24257,"294 YALE AV","New Haven","CT",""
24258,"290 YALE AV","New Haven","CT",""
24259,"117 ALSTON AV","New Haven","CT",""
24260,"125 ALSTON AV","New Haven","CT",""
24261,"135 ALSTON AV","New Haven","CT",""
24262,"139 ALSTON AV","New Haven","CT",""
24263,"149 ALSTON AV","New Haven","CT",""
24264,"153 ALSTON AV","New Haven","CT",""
24265,"157 ALSTON AV","New Haven","CT",""
24266,"165 ALSTON AV","New Haven","CT",""
24267,"171 ALSTON AV","New Haven","CT",""
24268,"181 ALSTON AV","New Haven","CT",""
24269,"176 MCKINLEY AV","New Haven","CT",""
24270,"170 MCKINLEY AV","New Haven","CT",""
24271,"160 MCKINLEY AV","New Haven","CT",""
24272,"154 MCKINLEY AV","New Haven","CT",""
24273,"146 MCKINLEY AV","New Haven","CT",""
24274,"140 MCKINLEY AV","New Haven","CT",""
24275,"132 MCKINLEY AV","New Haven","CT",""
24276,"126 MCKINLEY AV","New Haven","CT",""
24277,"116 MCKINLEY AV","New Haven","CT",""
24278,"121 MCKINLEY AV","New Haven","CT",""
24279,"125 MCKINLEY AV","New Haven","CT",""
24280,"131 MCKINLEY AV","New Haven","CT",""
24281,"139 MCKINLEY AV","New Haven","CT",""
24282,"145 MCKINLEY AV","New Haven","CT",""
24283,"153 MCKINLEY AV","New Haven","CT",""
24284,"161 MCKINLEY AV","New Haven","CT",""
24285,"167 MCKINLEY AV","New Haven","CT",""
24286,"173 MCKINLEY AV","New Haven","CT",""
24287,"172 ALDEN AV","New Haven","CT",""
24288,"168 ALDEN AV","New Haven","CT",""
24289,"164 ALDEN AV","New Haven","CT",""
24290,"160 ALDEN AV","New Haven","CT",""
24291,"154 ALDEN AV","New Haven","CT",""
24292,"150 ALDEN AV","New Haven","CT",""
24293,"146 ALDEN AV","New Haven","CT",""
24294,"140 ALDEN AV","New Haven","CT",""
24295,"136 ALDEN AV","New Haven","CT",""
24296,"128 ALDEN AV","New Haven","CT",""
24297,"116 ALDEN AV","New Haven","CT",""
24298,"111 ALDEN AV","New Haven","CT",""
24299,"117 ALDEN AV","New Haven","CT",""
24300,"123 ALDEN AV","New Haven","CT",""
24301,"127 ALDEN AV","New Haven","CT",""
24302,"137 ALDEN AV","New Haven","CT",""
24303,"141 ALDEN AV","New Haven","CT",""
24304,"147 ALDEN AV","New Haven","CT",""
24305,"151 ALDEN AV","New Haven","CT",""
24306,"157 ALDEN AV","New Haven","CT",""
24307,"161 ALDEN AV","New Haven","CT",""
24308,"165 ALDEN AV","New Haven","CT",""
24309,"169 ALDEN AV","New Haven","CT",""
24310,"173 ALDEN AV","New Haven","CT",""
24311,"179 ALDEN AV","New Haven","CT",""
24312,"183 ALDEN AV","New Haven","CT",""
24313,"187 ALDEN AV","New Haven","CT",""
24314,"191 ALDEN AV","New Haven","CT",""
24315,"197 ALDEN AV","New Haven","CT",""
24316,"203 ALDEN AV","New Haven","CT",""
24317,"205 ALDEN AV","New Haven","CT",""
24318,"211 ALDEN AV","New Haven","CT",""
24319,"209 ALDEN AV","New Haven","CT",""
24320,"217 ALDEN AV","New Haven","CT",""
24321,"223 ALDEN AV","New Haven","CT",""
24322,"227 ALDEN AV","New Haven","CT",""
24323,"233 ALDEN AV","New Haven","CT",""
24324,"241 ALDEN AV","New Haven","CT",""
24325,"134 WEST ELM ST","New Haven","CT",""
24326,"132 WEST ELM ST","New Haven","CT",""
24327,"110 MARVEL RD","New Haven","CT",""
24328,"102 MARVEL RD","New Haven","CT",""
24329,"96 MARVEL RD","New Haven","CT",""
24330,"90 MARVEL RD","New Haven","CT",""
24331,"84 MARVEL RD","New Haven","CT",""
24332,"76 MARVEL RD","New Haven","CT",""
24333,"70 MARVEL RD","New Haven","CT",""
24334,"64 MARVEL RD","New Haven","CT",""
24335,"60 MARVEL RD","New Haven","CT",""
24336,"50 MARVEL RD","New Haven","CT",""
24337,"44 MARVEL RD","New Haven","CT",""
24338,"40 MARVEL RD","New Haven","CT",""
24339,"32 MARVEL RD","New Haven","CT",""
24340,"26 MARVEL RD","New Haven","CT",""
24341,"20 MARVEL RD","New Haven","CT",""
24342,"845 EDGEWOOD AV","New Haven","CT",""
24343,"851 EDGEWOOD AV","New Haven","CT",""
24344,"859 EDGEWOOD AV","New Haven","CT",""
24345,"201 ALSTON AV","New Haven","CT",""
24346,"219 ALSTON AV","New Haven","CT",""
24347,"225 ALSTON AV","New Haven","CT",""
24348,"235 ALSTON AV","New Haven","CT",""
24349,"245 ALSTON AV","New Haven","CT",""
24350,"212 WEST ELM ST","New Haven","CT",""
24351,"244 MCKINLEY AV","New Haven","CT",""
24352,"240 MCKINLEY AV","New Haven","CT",""
24353,NA,"New Haven","CT",""
24354,"226 MCKINLEY AV","New Haven","CT",""
24355,"220 MCKINLEY AV","New Haven","CT",""
24356,"208 MCKINLEY AV","New Haven","CT",""
24357,"198 MCKINLEY AV","New Haven","CT",""
24358,"190 MCKINLEY AV","New Haven","CT",""
24359,"191 MCKINLEY AV","New Haven","CT",""
24360,"197 MCKINLEY AV","New Haven","CT",""
24361,"203 MCKINLEY AV","New Haven","CT",""
24362,"227 MCKINLEY AV","New Haven","CT",""
24363,"233 MCKINLEY AV","New Haven","CT",""
24364,"239 MCKINLEY AV","New Haven","CT",""
24365,"245 MCKINLEY AV","New Haven","CT",""
24366,"242 ALDEN AV","New Haven","CT",""
24367,"238 ALDEN AV","New Haven","CT",""
24368,"234 ALDEN AV","New Haven","CT",""
24369,"228 ALDEN AV","New Haven","CT",""
24370,"222 ALDEN AV","New Haven","CT",""
24371,"218 ALDEN AV","New Haven","CT",""
24372,"212 ALDEN AV","New Haven","CT",""
24373,"206 ALDEN AV","New Haven","CT",""
24374,"200 ALDEN AV","New Haven","CT",""
24375,"198 ALDEN AV","New Haven","CT",""
24376,"192 ALDEN AV","New Haven","CT",""
24377,"190 ALDEN AV","New Haven","CT",""
24378,"5 WOODBRIDGE AV","New Haven","CT",""
24379,"11 WOODBRIDGE AV","New Haven","CT",""
24380,"255 MCKINLEY AV","New Haven","CT",""
24381,"267 MCKINLEY AV","New Haven","CT",""
24382,"277 MCKINLEY AV","New Haven","CT",""
24383,"289 MCKINLEY AV","New Haven","CT",""
24384,"293 MCKINLEY AV","New Haven","CT",""
24385,"299 MCKINLEY AV","New Haven","CT",""
24386,"309 MCKINLEY AV","New Haven","CT",""
24387,"308 ALDEN AV","New Haven","CT",""
24388,"302 ALDEN AV","New Haven","CT",""
24389,"296 ALDEN AV","New Haven","CT",""
24390,"292 ALDEN AV","New Haven","CT",""
24391,"284 ALDEN AV","New Haven","CT",""
24392,"280 ALDEN AV","New Haven","CT",""
24393,"276 ALDEN AV","New Haven","CT",""
24394,"270 ALDEN AV","New Haven","CT",""
24395,"266 ALDEN AV","New Haven","CT",""
24396,"258 ALDEN AV","New Haven","CT",""
24397,"252 ALDEN AV","New Haven","CT",""
24398,"243 ALDEN AV","New Haven","CT",""
24399,"259 ALDEN AV","New Haven","CT",""
24400,"265 ALDEN AV","New Haven","CT",""
24401,"273 ALDEN AV","New Haven","CT",""
24402,"50 BURTON ST","New Haven","CT",""
24403,"44 BURTON ST","New Haven","CT",""
24404,"40 BURTON ST","New Haven","CT",""
24405,"34 BURTON ST","New Haven","CT",""
24406,"30 BURTON ST","New Haven","CT",""
24407,"14 BURTON ST","New Haven","CT",""
24408,"10 BURTON ST","New Haven","CT",""
24409,"500 CENTRAL AV","New Haven","CT",""
24410,"494 CENTRAL AV","New Haven","CT",""
24411,"486 CENTRAL AV","New Haven","CT",""
24412,"482 CENTRAL AV","New Haven","CT",""
24413,"87 WEST ELM ST","New Haven","CT",""
24414,"101 WEST ELM ST","New Haven","CT",""
24415,"105 WEST ELM ST","New Haven","CT",""
24416,"107 WEST ELM ST","New Haven","CT",""
24417,"115 WEST ELM ST","New Haven","CT",""
24418,"119 WEST ELM ST","New Haven","CT",""
24419,"123 WEST ELM ST","New Haven","CT",""
24420,"131 WEST ELM ST","New Haven","CT",""
24421,"135 WEST ELM ST","New Haven","CT",""
24422,"325 MCKINLEY AV","New Haven","CT",""
24423,"337 MCKINLEY AV","New Haven","CT",""
24424,"345 MCKINLEY AV","New Haven","CT",""
24425,"112 FOUNTAIN ST","New Haven","CT",""
24426,"346 ALDEN AV","New Haven","CT",""
24427,"338 ALDEN AV","New Haven","CT",""
24428,"330 ALDEN AV","New Haven","CT",""
24429,"324 ALDEN AV","New Haven","CT",""
24430,"320 ALDEN AV","New Haven","CT",""
24431,"315 ALDEN AV","New Haven","CT",""
24432,"ALDEN AV","New Haven","CT",""
24433,"321 ALDEN AV","New Haven","CT",""
24434,"329 ALDEN AV","New Haven","CT",""
24435,"343 ALDEN AV #1","New Haven","CT",""
24436,"343 ALDEN AV #2","New Haven","CT",""
24437,"341 ALDEN AV #3","New Haven","CT",""
24438,"341 ALDEN AV #4","New Haven","CT",""
24439,"339 ALDEN AV #5","New Haven","CT",""
24440,"339 ALDEN AV #6","New Haven","CT",""
24441,"337 ALDEN AV #7","New Haven","CT",""
24442,"337 ALDEN AV #8","New Haven","CT",""
24443,"343 ALDEN AV #9","New Haven","CT",""
24444,"343 ALDEN AV #10","New Haven","CT",""
24445,"341 ALDEN AV #11","New Haven","CT",""
24446,"341 ALDEN AV #12","New Haven","CT",""
24447,"339 ALDEN AV #13","New Haven","CT",""
24448,"339 ALDEN AV #14","New Haven","CT",""
24449,"337 ALDEN AV #15","New Haven","CT",""
24450,"337 ALDEN AV #16","New Haven","CT",""
24451,"347 ALDEN AV","New Haven","CT",""
24452,"355 ALDEN AV","New Haven","CT",""
24453,"361 ALDEN AV","New Haven","CT",""
24454,"92 FOUNTAIN ST","New Haven","CT",""
24455,"84 FOUNTAIN ST","New Haven","CT",""
24456,"78 FOUNTAIN ST","New Haven","CT",""
24457,"70 FOUNTAIN ST UNIT A-1","New Haven","CT",""
24458,"64 FOUNTAIN ST #1","New Haven","CT",""
24459,"64 FOUNTAIN ST #2","New Haven","CT",""
24460,"64 FOUNTAIN ST #3","New Haven","CT",""
24461,"64 FOUNTAIN ST #4","New Haven","CT",""
24462,"64 FOUNTAIN ST #5","New Haven","CT",""
24463,"64 FOUNTAIN ST #6","New Haven","CT",""
24464,"64 FOUNTAIN ST #7","New Haven","CT",""
24465,"64 FOUNTAIN ST #8","New Haven","CT",""
24466,"64 FOUNTAIN ST #9","New Haven","CT",""
24467,"64 FOUNTAIN ST #10","New Haven","CT",""
24468,"64 FOUNTAIN ST #11","New Haven","CT",""
24469,"64 FOUNTAIN ST #12","New Haven","CT",""
24470,"64 FOUNTAIN ST #13","New Haven","CT",""
24471,"58 FOUNTAIN ST","New Haven","CT",""
24472,"46 FOUNTAIN ST","New Haven","CT",""
24473,"36 FOUNTAIN ST","New Haven","CT",""
24474,"614 CENTRAL AV","New Haven","CT",""
24475,"608 CENTRAL AV","New Haven","CT",""
24476,"602 CENTRAL AV","New Haven","CT",""
24477,"596 CENTRAL AV","New Haven","CT",""
24478,"594 CENTRAL AV","New Haven","CT",""
24479,"592 CENTRAL AV","New Haven","CT",""
24480,"582 CENTRAL AV","New Haven","CT",""
24481,"578 CENTRAL AV","New Haven","CT",""
24482,"562 CENTRAL AV","New Haven","CT",""
24483,"558 CENTRAL AV","New Haven","CT",""
24484,"552 CENTRAL AV","New Haven","CT",""
24485,"548 CENTRAL AV","New Haven","CT",""
24486,"15 WILLARD ST","New Haven","CT",""
24487,"17 WILLARD ST","New Haven","CT",""
24488,"21 WILLARD ST","New Haven","CT",""
24489,"27 WILLARD ST","New Haven","CT",""
24490,"31 WILLARD ST","New Haven","CT",""
24491,"37 WILLARD ST","New Haven","CT",""
24492,"41 WILLARD ST","New Haven","CT",""
24493,"47 WILLARD ST","New Haven","CT",""
24494,"285 ALDEN AV","New Haven","CT",""
24495,"301 ALDEN AV","New Haven","CT",""
24496,"307 ALDEN AV","New Haven","CT",""
24497,"48 WILLARD ST","New Haven","CT",""
24498,"42 WILLARD ST","New Haven","CT",""
24499,"34 WILLARD ST","New Haven","CT",""
24500,"30 WILLARD ST","New Haven","CT",""
24501,"22 WILLARD ST","New Haven","CT",""
24502,"16 WILLARD ST","New Haven","CT",""
24503,"538 CENTRAL AV","New Haven","CT",""
24504,"532 CENTRAL AV","New Haven","CT",""
24505,"522 CENTRAL AV","New Haven","CT",""
24506,"516 CENTRAL AV","New Haven","CT",""
24507,"508 CENTRAL AV","New Haven","CT",""
24508,"9 BURTON ST","New Haven","CT",""
24509,"17 BURTON ST","New Haven","CT",""
24510,"19 BURTON ST","New Haven","CT",""
24511,"21 BURTON ST","New Haven","CT",""
24512,"37 BURTON ST","New Haven","CT",""
24513,"471 CENTRAL AV","New Haven","CT",""
24514,"479 CENTRAL AV","New Haven","CT",""
24515,"483 CENTRAL AV","New Haven","CT",""
24516,"489 CENTRAL AV","New Haven","CT",""
24517,"493 CENTRAL AV","New Haven","CT",""
24518,"497 CENTRAL AV","New Haven","CT",""
24519,"501 CENTRAL AV","New Haven","CT",""
24520,"505 CENTRAL AV","New Haven","CT",""
24521,"511 CENTRAL AV","New Haven","CT",""
24522,"515 CENTRAL AV","New Haven","CT",""
24523,"521 CENTRAL AV","New Haven","CT",""
24524,"534 YALE AV","New Haven","CT",""
24525,"530 YALE AV","New Haven","CT",""
24526,"516 YALE AV","New Haven","CT",""
24527,"512 YALE AV","New Haven","CT",""
24528,"508 YALE AV","New Haven","CT",""
24529,"286 WEST ROCK AV","New Haven","CT",""
24530,"282 WEST ROCK AV","New Haven","CT",""
24531,"280 WEST ROCK AV","New Haven","CT",""
24532,"272 WEST ROCK AV","New Haven","CT",""
24533,"266 WEST ROCK AV","New Haven","CT",""
24534,"262 WEST ROCK AV","New Haven","CT",""
24535,"256 WEST ROCK AV","New Haven","CT",""
24536,"250 WEST ROCK AV","New Haven","CT",""
24537,"246 WEST ROCK AV","New Haven","CT",""
24538,"240 WEST ROCK AV","New Haven","CT",""
24539,"236 WEST ROCK AV","New Haven","CT",""
24540,"233 WEST ROCK AV","New Haven","CT",""
24541,"239 WEST ROCK AV","New Haven","CT",""
24542,"245 WEST ROCK AV","New Haven","CT",""
24543,"247 WEST ROCK AV","New Haven","CT",""
24544,"253 WEST ROCK AV","New Haven","CT",""
24545,"257 WEST ROCK AV","New Haven","CT",""
24546,"263 WEST ROCK AV","New Haven","CT",""
24547,"269 WEST ROCK AV","New Haven","CT",""
24548,"275 WEST ROCK AV","New Haven","CT",""
24549,"281 WEST ROCK AV","New Haven","CT",""
24550,"287 WEST ROCK AV","New Haven","CT",""
24551,"295 WEST ROCK AV","New Haven","CT",""
24552,"484 YALE AV","New Haven","CT",""
24553,"476 YALE AV","New Haven","CT",""
24554,"470 YALE AV","New Haven","CT",""
24555,"460 YALE AV","New Haven","CT",""
24556,"450 YALE AV","New Haven","CT",""
24557,"444 YALE AV","New Haven","CT",""
24558,"440 YALE AV","New Haven","CT",""
24559,"YALE AV","New Haven","CT",""
24560,"YALE AV","New Haven","CT",""
24561,"428 YALE AV","New Haven","CT",""
24562,"420 YALE AV","New Haven","CT",""
24563,"416 YALE AV","New Haven","CT",""
24564,"410 YALE AV","New Haven","CT",""
24565,"404 YALE AV","New Haven","CT",""
24566,"19 WEST ELM ST","New Haven","CT",""
24567,"25 WEST ELM ST","New Haven","CT",""
24568,"529 YALE AV","New Haven","CT",""
24569,"561 CENTRAL AV","New Haven","CT",""
24570,"565 CENTRAL AV","New Haven","CT",""
24571,"571 CENTRAL AV","New Haven","CT",""
24572,"575 CENTRAL AV","New Haven","CT",""
24573,"581 CENTRAL AV","New Haven","CT",""
24574,"587 CENTRAL AV","New Haven","CT",""
24575,"591 CENTRAL AV","New Haven","CT",""
24576,"595 CENTRAL AV","New Haven","CT",""
24577,"601 CENTRAL AV","New Haven","CT",""
24578,"607 CENTRAL AV","New Haven","CT",""
24579,"615 CENTRAL AV","New Haven","CT",""
24580,"22 FOUNTAIN ST","New Haven","CT",""
24581,"12 FOUNTAIN ST","New Haven","CT",""
24582,"6 FOUNTAIN ST","New Haven","CT",""
24583,"838 WHALLEY AV","New Haven","CT",""
24584,"368 WEST ROCK AV","New Haven","CT",""
24585,"364 WEST ROCK AV","New Haven","CT",""
24586,"360 WEST ROCK AV","New Haven","CT",""
24587,"356 WEST ROCK AV","New Haven","CT",""
24588,"352 WEST ROCK AV","New Haven","CT",""
24589,"346 WEST ROCK AV","New Haven","CT",""
24590,"340 WEST ROCK AV","New Haven","CT",""
24591,"336 WEST ROCK AV","New Haven","CT",""
24592,"332 WEST ROCK AV","New Haven","CT",""
24593,"326 WEST ROCK AV","New Haven","CT",""
24594,"509 YALE AV","New Haven","CT",""
24595,"515 YALE AV","New Haven","CT",""
24596,"519 YALE AV","New Haven","CT",""
24597,"523 YALE AV","New Haven","CT",""
24598,"37 HARRISON ST","New Haven","CT",""
24599,"32 PHILIP ST","New Haven","CT",""
24600,"28 PHILIP ST","New Haven","CT",""
24601,"22 PHILIP ST","New Haven","CT",""
24602,"18 PHILIP ST","New Haven","CT",""
24603,"16 PHILIP ST","New Haven","CT",""
24604,"95 FOUNTAIN ST","New Haven","CT",""
24605,"15 HARRISON ST","New Haven","CT",""
24606,"23 HARRISON ST","New Haven","CT",""
24607,"27 HARRISON ST","New Haven","CT",""
24608,"HARRISON ST","New Haven","CT",""
24609,"920 WHALLEY AV","New Haven","CT",""
24610,"914 WHALLEY AV","New Haven","CT",""
24611,"904 WHALLEY AV","New Haven","CT",""
24612,"908 WHALLEY AV","New Haven","CT",""
24613,"900 WHALLEY AV","New Haven","CT",""
24614,"898 WHALLEY AV","New Haven","CT",""
24615,"894 WHALLEY AV","New Haven","CT",""
24616,"882 WHALLEY AV","New Haven","CT",""
24617,"33 FOUNTAIN ST","New Haven","CT",""
24618,"45 FOUNTAIN ST","New Haven","CT",""
24619,"49 FOUNTAIN ST","New Haven","CT",""
24620,"55 FOUNTAIN ST","New Haven","CT",""
24621,"63 FOUNTAIN ST #A","New Haven","CT",""
24622,"63 FOUNTAIN ST #B","New Haven","CT",""
24623,"63 FOUNTAIN ST #C","New Haven","CT",""
24624,"63 FOUNTAIN ST #D","New Haven","CT",""
24625,"69 FOUNTAIN ST","New Haven","CT",""
24626,"77 FOUNTAIN ST","New Haven","CT",""
24627,"83 FOUNTAIN ST","New Haven","CT",""
24628,"17 PHILIP ST","New Haven","CT",""
24629,"21 PHILIP ST","New Haven","CT",""
24630,"29 PHILIP ST","New Haven","CT",""
24631,"33 PHILIP ST","New Haven","CT",""
24632,"41 PHILIP ST","New Haven","CT",""
24633,"864 WHALLEY AV","New Haven","CT",""
24634,"476 BLAKE ST","New Haven","CT",""
24635,"TOUR AV","New Haven","CT",""
24636,"24 TOUR AV","New Haven","CT",""
24637,"20 TOUR AV","New Haven","CT",""
24638,"16 TOUR AV","New Haven","CT",""
24639,"12 TOUR AV","New Haven","CT",""
24640,"865 WHALLEY AV","New Haven","CT",""
24641,"867 WHALLEY AV","New Haven","CT",""
24642,"873 WHALLEY AV","New Haven","CT",""
24643,"879 WHALLEY AV","New Haven","CT",""
24644,"881 WHALLEY AV","New Haven","CT",""
24645,"883 WHALLEY AV","New Haven","CT",""
24646,"893 WHALLEY AV","New Haven","CT",""
24647,"903 WHALLEY AV","New Haven","CT",""
24648,"512 BLAKE ST","New Haven","CT",""
24649,"506 BLAKE ST","New Haven","CT",""
24650,"500 BLAKE ST","New Haven","CT",""
24651,"TOUR AV","New Haven","CT",""
24652,"426 WEST ROCK AV","New Haven","CT",""
24653,"420 WEST ROCK AV","New Haven","CT",""
24654,"416 WEST ROCK AV","New Haven","CT",""
24655,"414 WEST ROCK AV","New Haven","CT",""
24656,"837 WHALLEY AV","New Haven","CT",""
24657,"843 WHALLEY AV","New Haven","CT",""
24658,"845 WHALLEY AV","New Haven","CT",""
24659,"859 WHALLEY AV","New Haven","CT",""
24660,"3 TOUR AV","New Haven","CT",""
24661,"11 TOUR AV","New Haven","CT",""
24662,"15 TOUR AV","New Haven","CT",""
24663,NA,"New Haven","CT",""
24664,"23 TOUR AV","New Haven","CT",""
24665,"109 HARRISON ST","New Haven","CT",""
24666,"105 HARRISON ST","New Haven","CT",""
24667,"101 HARRISON ST","New Haven","CT",""
24668,"97 HARRISON ST","New Haven","CT",""
24669,"85 HARRISON ST","New Haven","CT",""
24670,"967 WHALLEY AV","New Haven","CT",""
24671,"957 WHALLEY AV","New Haven","CT",""
24672,"949 WHALLEY AV","New Haven","CT",""
24673,NA,"New Haven","CT",""
24674,"927 WHALLEY AV","New Haven","CT",""
24675,"1 VALLEY ST","New Haven","CT",""
24676,"165 FOUNTAIN ST #A-1","New Haven","CT",""
24677,"165 FOUNTAIN ST #A-2","New Haven","CT",""
24678,"167 FOUNTAIN ST #B-1","New Haven","CT",""
24679,"167 FOUNTAIN ST #B-2","New Haven","CT",""
24680,"169 FOUNTAIN ST #C-1","New Haven","CT",""
24681,"169 FOUNTAIN ST #C-2","New Haven","CT",""
24682,"165 FOUNTAIN ST #A-3","New Haven","CT",""
24683,"165 FOUNTAIN ST #A-4","New Haven","CT",""
24684,"167 FOUNTAIN ST #B-3","New Haven","CT",""
24685,"167 FOUNTAIN ST #B-4","New Haven","CT",""
24686,"169 FOUNTAIN ST #C-3","New Haven","CT",""
24687,"169 FOUNTAIN ST #C-4","New Haven","CT",""
24688,"13 EMERSON ST","New Haven","CT",""
24689,"17 EMERSON ST","New Haven","CT",""
24690,"25 EMERSON ST","New Haven","CT",""
24691,"31 EMERSON ST","New Haven","CT",""
24692,"35 EMERSON ST","New Haven","CT",""
24693,"39 EMERSON ST","New Haven","CT",""
24694,"45 EMERSON ST","New Haven","CT",""
24695,"49 EMERSON ST","New Haven","CT",""
24696,"53 EMERSON ST","New Haven","CT",""
24697,"59 EMERSON ST","New Haven","CT",""
24698,"1050 WHALLEY AV","New Haven","CT",""
24699,"1040 WHALLEY AV","New Haven","CT",""
24700,NA,"New Haven","CT",""
24701,NA,"New Haven","CT",""
24702,"1020 WHALLEY AV #A","New Haven","CT",""
24703,"1020 WHALLEY AV #B","New Haven","CT",""
24704,"1020 WHALLEY AV #C","New Haven","CT",""
24705,"1022 WHALLEY AV #A","New Haven","CT",""
24706,"1022 WHALLEY AV #B","New Haven","CT",""
24707,"1024 WHALLEY AV #A","New Haven","CT",""
24708,"1024 WHALLEY AV #B","New Haven","CT",""
24709,"1024 WHALLEY AV #C","New Haven","CT",""
24710,"1012 WHALLEY AV #1","New Haven","CT",""
24711,"1012 WHALLEY AV #2","New Haven","CT",""
24712,"1014 WHALLEY AV #3","New Haven","CT",""
24713,"1014 WHALLEY AV #4","New Haven","CT",""
24714,"1014 WHALLEY AV #5","New Haven","CT",""
24715,"1016 WHALLEY AV #A","New Haven","CT",""
24716,"1016 WHALLEY AV #7","New Haven","CT",""
24717,"1016 WHALLEY AV #C","New Haven","CT",""
24718,"1018 WHALLEY AV #9","New Haven","CT",""
24719,"1018 WHALLEY AV #10","New Haven","CT",""
24720,"1018 WHALLEY AV #11","New Haven","CT",""
24721,"1002 WHALLEY AV #A","New Haven","CT",""
24722,"1002 WHALLEY AV #B","New Haven","CT",""
24723,"1002 WHALLEY AV #C","New Haven","CT",""
24724,"1002 WHALLEY AV #D","New Haven","CT",""
24725,"1002 WHALLEY AV #E","New Haven","CT",""
24726,"1002 WHALLEY AV #F","New Haven","CT",""
24727,"1002 WHALLEY AV #G","New Haven","CT",""
24728,"1002 WHALLEY AV #H","New Haven","CT",""
24729,"1006 WHALLEY AV #A","New Haven","CT",""
24730,"1006 WHALLEY AV #B","New Haven","CT",""
24731,"1006 WHALLEY AV #C","New Haven","CT",""
24732,"1010 WHALLEY AV #A","New Haven","CT",""
24733,"1010 WHALLEY AV #B","New Haven","CT",""
24734,"1010 WHALLEY AV #C","New Haven","CT",""
24735,"1010 WHALLEY AV #D","New Haven","CT",""
24736,"1010 WHALLEY AV #E","New Haven","CT",""
24737,"1010 WHALLEY AV #F","New Haven","CT",""
24738,"1010 WHALLEY AV #G","New Haven","CT",""
24739,"1010 WHALLEY AV #H","New Haven","CT",""
24740,"992 WHALLEY AV","New Haven","CT",""
24741,"986 WHALLEY AV","New Haven","CT",""
24742,"HARRISON ST","New Haven","CT",""
24743,"980 WHALLEY AV","New Haven","CT",""
24744,"44 HARRISON ST","New Haven","CT",""
24745,"40 HARRISON ST","New Haven","CT",""
24746,"34 HARRISON ST","New Haven","CT",""
24747,"28 HARRISON ST","New Haven","CT",""
24748,"22 HARRISON ST","New Haven","CT",""
24749,"105 FOUNTAIN ST","New Haven","CT",""
24750,"115 FOUNTAIN ST","New Haven","CT",""
24751,"121 FOUNTAIN ST","New Haven","CT",""
24752,"127 FOUNTAIN ST","New Haven","CT",""
24753,"131 FOUNTAIN ST #A1G2","New Haven","CT",""
24754,"131 FOUNTAIN ST #A-2","New Haven","CT",""
24755,"133 FOUNTAIN ST #A3G5","New Haven","CT",""
24756,"135 FOUNTAIN ST #A-4","New Haven","CT",""
24757,"135 FOUNTAIN ST #A-5","New Haven","CT",""
24758,"137 FOUNTAIN ST #A-6","New Haven","CT",""
24759,"137 FOUNTAIN ST #A-7","New Haven","CT",""
24760,"139 FOUNTAIN ST #A-8","New Haven","CT",""
24761,"139 FOUNTAIN ST #A-9","New Haven","CT",""
24762,"141 FOUNTAIN ST #A-10","New Haven","CT",""
24763,"143 FOUNTAIN ST #A-11","New Haven","CT",""
24764,"143 FOUNTAIN ST #A-1","New Haven","CT",""
24765,"131 FOUNTAIN ST #B1G3","New Haven","CT",""
24766,"131 FOUNTAIN ST #B-2","New Haven","CT",""
24767,"133 FOUNTAIN ST #B-3","New Haven","CT",""
24768,"135 FOUNTAIN ST #B-4","New Haven","CT",""
24769,"135 FOUNTAIN ST #B-5","New Haven","CT",""
24770,"137 FOUNTAIN ST #B-6","New Haven","CT",""
24771,"137 FOUNTAIN ST #B-7","New Haven","CT",""
24772,"139 FOUNTAIN ST #B-8","New Haven","CT",""
24773,"139 FOUNTAIN ST #B-9","New Haven","CT",""
24774,"141 FOUNTAIN ST #B-10","New Haven","CT",""
24775,"143 FOUNTAIN ST #B-11","New Haven","CT",""
24776,"143 FOUNTAIN ST #B-12","New Haven","CT",""
24777,NA,"New Haven","CT",""
24778,"157 FOUNTAIN ST","New Haven","CT",""
24779,"149 FOUNTAIN ST #001","New Haven","CT",""
24780,"149 FOUNTAIN ST #002","New Haven","CT",""
24781,"149 FOUNTAIN ST #003","New Haven","CT",""
24782,"149 FOUNTAIN ST #004","New Haven","CT",""
24783,"149 FOUNTAIN ST #005","New Haven","CT",""
24784,"149 FOUNTAIN ST #006","New Haven","CT",""
24785,"149 FOUNTAIN ST #007","New Haven","CT",""
24786,"149 FOUNTAIN ST #008","New Haven","CT",""
24787,"149 FOUNTAIN ST #009","New Haven","CT",""
24788,"149 FOUNTAIN ST #010","New Haven","CT",""
24789,"149 FOUNTAIN ST #011","New Haven","CT",""
24790,"149 FOUNTAIN ST #012","New Haven","CT",""
24791,"149 FOUNTAIN ST #013","New Haven","CT",""
24792,"149 FOUNTAIN ST #014","New Haven","CT",""
24793,"149 FOUNTAIN ST #015","New Haven","CT",""
24794,"149 FOUNTAIN ST #016","New Haven","CT",""
24795,"149 FOUNTAIN ST #017","New Haven","CT",""
24796,"149 FOUNTAIN ST #018","New Haven","CT",""
24797,"149 FOUNTAIN ST #019","New Haven","CT",""
24798,"149 FOUNTAIN ST #020","New Haven","CT",""
24799,"EMERSON ST","New Haven","CT",""
24800,"1045 WHALLEY AV","New Haven","CT",""
24801,"1035 WHALLEY AV","New Haven","CT",""
24802,"85 EMERSON ST","New Haven","CT",""
24803,"95 EMERSON ST","New Haven","CT",""
24804,"101 EMERSON ST","New Haven","CT",""
24805,"115 EMERSON ST","New Haven","CT",""
24806,"103 EMERSON ST","New Haven","CT",""
24807,"156 VALLEY ST","New Haven","CT",""
24808,"152 VALLEY ST","New Haven","CT",""
24809,"148 VALLEY ST","New Haven","CT",""
24810,"142 VALLEY ST","New Haven","CT",""
24811,"138 VALLEY ST","New Haven","CT",""
24812,"120 VALLEY ST","New Haven","CT",""
24813,"114 VALLEY ST","New Haven","CT",""
24814,"106 VALLEY ST","New Haven","CT",""
24815,"100 VALLEY ST","New Haven","CT",""
24816,"106 HARRISON ST","New Haven","CT",""
24817,"104 HARRISON ST","New Haven","CT",""
24818,"999 WHALLEY AV #1A","New Haven","CT",""
24819,"999 WHALLEY AV #1B","New Haven","CT",""
24820,"999 WHALLEY AV #1C","New Haven","CT",""
24821,"999 WHALLEY AV #1D","New Haven","CT",""
24822,"999 WHALLEY AV #1E","New Haven","CT",""
24823,"999 WHALLEY AV #1F","New Haven","CT",""
24824,"999 WHALLEY AV #1G","New Haven","CT",""
24825,"999 WHALLEY AV #1H","New Haven","CT",""
24826,"999 WHALLEY AV #1I","New Haven","CT",""
24827,"999 WHALLEY AV #2A","New Haven","CT",""
24828,"999 WHALLEY AV #2B","New Haven","CT",""
24829,"999 WHALLEY AV #2C","New Haven","CT",""
24830,"999 WHALLEY AV #2D","New Haven","CT",""
24831,"999 WHALLEY AV #2E","New Haven","CT",""
24832,"999 WHALLEY AV #2F","New Haven","CT",""
24833,"999 WHALLEY AV #2G","New Haven","CT",""
24834,"999 WHALLEY AV #2H","New Haven","CT",""
24835,"999 WHALLEY AV #2I","New Haven","CT",""
24836,"999 WHALLEY AV #3A","New Haven","CT",""
24837,"999 WHALLEY AV #3B","New Haven","CT",""
24838,"999 WHALLEY AV #3C","New Haven","CT",""
24839,"999 WHALLEY AV #3D","New Haven","CT",""
24840,"999 WHALLEY AV #3E","New Haven","CT",""
24841,"999 WHALLEY AV #3F","New Haven","CT",""
24842,"88 HARRISON ST","New Haven","CT",""
24843,"977 WHALLEY AV","New Haven","CT",""
24844,"985 WHALLEY AV","New Haven","CT",""
24845,"1003 WHALLEY AV","New Haven","CT",""
24846,"1007 WHALLEY AV","New Haven","CT",""
24847,"1015 WHALLEY AV","New Haven","CT",""
24848,"1033 WHALLEY AV","New Haven","CT",""
24849,"VALLEY ST","New Haven","CT",""
24850,"105 VALLEY ST","New Haven","CT",""
24851,"115 VALLEY ST","New Haven","CT",""
24852,"117 VALLEY ST","New Haven","CT",""
24853,"121 VALLEY ST","New Haven","CT",""
24854,"141 VALLEY ST","New Haven","CT",""
24855,NA,"New Haven","CT",""
24856,"147 VALLEY ST","New Haven","CT",""
24857,"155 VALLEY ST","New Haven","CT",""
24858,"159 VALLEY ST","New Haven","CT",""
24859,"165 VALLEY ST","New Haven","CT",""
24860,"VALLEY ST","New Haven","CT",""
24861,"SPRINGSIDE AV","New Haven","CT",""
24862,"358 SPRINGSIDE AV","New Haven","CT",""
24863,"122 WILMOT RD","New Haven","CT",""
24864,"100 WILMOT RD","New Haven","CT",""
24865,"455 WINTERGREEN AV","New Haven","CT",""
24866,"385 WINTERGREEN AV","New Haven","CT",""
24867,"200 WILMOT RD","New Haven","CT",""
24868,"1 WAYFARER ST","New Haven","CT",""
24869,"20 BROOKSIDE AV","New Haven","CT",""
24870,"34 LEVEL ST","New Haven","CT",""
24871,NA,"New Haven","CT",""
24872,"BROOKSIDE AV","New Haven","CT",""
24873,"270 WILMOT RD","New Haven","CT",""
24874,"WINTERGREEN AV","New Haven","CT",""
24875,"WINTERGREEN AV","New Haven","CT",""
24876,"26 ROCK CREEK RD","New Haven","CT",""
24877,"22 ROCK CREEK RD","New Haven","CT",""
24878,"18 ROCK CREEK RD","New Haven","CT",""
24879,"14 ROCK CREEK RD","New Haven","CT",""
24880,"10 ROCK CREEK RD","New Haven","CT",""
24881,"6 ROCK CREEK RD","New Haven","CT",""
24882,"2 ROCK CREEK RD","New Haven","CT",""
24883,"8 STRONG ST","New Haven","CT",""
24884,"12 STRONG ST","New Haven","CT",""
24885,"66 WEST HILLS RD","New Haven","CT",""
24886,"6 STRONG ST","New Haven","CT",""
24887,"4 STRONG ST","New Haven","CT",""
24888,"2 STRONG ST","New Haven","CT",""
24889,"261 VALLEY ST","New Haven","CT",""
24890,"269 VALLEY ST","New Haven","CT",""
24891,"285 VALLEY ST","New Haven","CT",""
24892,"295 VALLEY ST","New Haven","CT",""
24893,"299 VALLEY ST","New Haven","CT",""
24894,"311 VALLEY ST","New Haven","CT",""
24895,"333 VALLEY ST","New Haven","CT",""
24896,"1 VALLEY PL SOUTH","New Haven","CT",""
24897,"3 VALLEY PL SOUTH","New Haven","CT",""
24898,"5 VALLEY PL SOUTH","New Haven","CT",""
24899,"7 VALLEY PL SOUTH","New Haven","CT",""
24900,"9 VALLEY PL SOUTH","New Haven","CT",""
24901,"11 VALLEY PL SOUTH","New Haven","CT",""
24902,"12 VALLEY PL SOUTH","New Haven","CT",""
24903,"13 VALLEY PL SOUTH","New Haven","CT",""
24904,"14 VALLEY PL SOUTH","New Haven","CT",""
24905,"15 VALLEY PL SOUTH","New Haven","CT",""
24906,"VALLEY PL SOUTH","New Haven","CT",""
24907,"VALLEY PL #NORTH","New Haven","CT",""
24908,"17 VALLEY PL SOUTH","New Haven","CT",""
24909,"19 VALLEY PL SOUTH","New Haven","CT",""
24910,"21 VALLEY PL SOUTH","New Haven","CT",""
24911,"23 VALLEY PL SOUTH","New Haven","CT",""
24912,"25 VALLEY PL SOUTH","New Haven","CT",""
24913,"1 VALLEY PL #NORTH","New Haven","CT",""
24914,"3 VALLEY PL #NORTH","New Haven","CT",""
24915,"5 VALLEY PL #NORTH","New Haven","CT",""
24916,"7 VALLEY PL #NORTH","New Haven","CT",""
24917,"9 VALLEY PL #NORTH","New Haven","CT",""
24918,"11 VALLEY PL #NORTH","New Haven","CT",""
24919,"13 VALLEY PL #NORTH","New Haven","CT",""
24920,"15 VALLEY PL #NORTH","New Haven","CT",""
24921,"VALLEY PL #NORTH","New Haven","CT",""
24922,"ROCK CREEK RD","New Haven","CT",""
24923,"17 VALLEY PL #NORTH","New Haven","CT",""
24924,"20 VALLEY PL #NORTH","New Haven","CT",""
24925,"VALLEY PL #NORTH","New Haven","CT",""
24926,"ROCK CREEK RD","New Haven","CT",""
24927,"21 VALLEY PL #NORTH","New Haven","CT",""
24928,"23 VALLEY PL #NORTH","New Haven","CT",""
24929,"25 VALLEY PL #NORTH","New Haven","CT",""
24930,"26 VALLEY PL #NORTH","New Haven","CT",""
24931,"27 VALLEY PL #NORTH","New Haven","CT",""
24932,"28 VALLEY PL #NORTH","New Haven","CT",""
24933,"30 VALLEY PL #NORTH","New Haven","CT",""
24934,"389 VALLEY ST","New Haven","CT",""
24935,"395 VALLEY ST","New Haven","CT",""
24936,"2 VICTORY DR","New Haven","CT",""
24937,"4 VICTORY DR","New Haven","CT",""
24938,"6 VICTORY DR","New Haven","CT",""
24939,"8 VICTORY DR","New Haven","CT",""
24940,"136 ROCK CREEK RD","New Haven","CT",""
24941,"134 ROCK CREEK RD","New Haven","CT",""
24942,"132 ROCK CREEK RD","New Haven","CT",""
24943,"130 ROCK CREEK RD","New Haven","CT",""
24944,"128 ROCK CREEK RD","New Haven","CT",""
24945,"56 WEST HILLS RD","New Haven","CT",""
24946,"50 WEST HILLS RD","New Haven","CT",""
24947,"41 WEST HILLS RD","New Haven","CT",""
24948,"18 WEST HILLS RD","New Haven","CT",""
24949,NA,"New Haven","CT",""
24950,"221 VALLEY ST","New Haven","CT",""
24951,"223 VALLEY ST","New Haven","CT",""
24952,"225 VALLEY ST","New Haven","CT",""
24953,"227 VALLEY ST","New Haven","CT",""
24954,"233 VALLEY ST","New Haven","CT",""
24955,"1 STRONG ST","New Haven","CT",""
24956,"21 STRONG ST","New Haven","CT",""
24957,"5 STRONG ST","New Haven","CT",""
24958,"3 ROCK CREEK RD","New Haven","CT",""
24959,"5 ROCK CREEK RD","New Haven","CT",""
24960,"9 ROCK CREEK RD","New Haven","CT",""
24961,"13 ROCK CREEK RD","New Haven","CT",""
24962,"17 ROCK CREEK RD","New Haven","CT",""
24963,"21 ROCK CREEK RD","New Haven","CT",""
24964,"25 ROCK CREEK RD","New Haven","CT",""
24965,"29 ROCK CREEK RD","New Haven","CT",""
24966,"33 ROCK CREEK RD","New Haven","CT",""
24967,"37 ROCK CREEK RD","New Haven","CT",""
24968,"41 ROCK CREEK RD","New Haven","CT",""
24969,"45 ROCK CREEK RD","New Haven","CT",""
24970,"49 ROCK CREEK RD","New Haven","CT",""
24971,"53 ROCK CREEK RD","New Haven","CT",""
24972,"57 ROCK CREEK RD","New Haven","CT",""
24973,"61 ROCK CREEK RD","New Haven","CT",""
24974,"63 ROCK CREEK RD","New Haven","CT",""
24975,"67 ROCK CREEK RD","New Haven","CT",""
24976,"71 ROCK CREEK RD","New Haven","CT",""
24977,"73 ROCK CREEK RD","New Haven","CT",""
24978,"77 ROCK CREEK RD","New Haven","CT",""
24979,"81 ROCK CREEK RD","New Haven","CT",""
24980,"85 ROCK CREEK RD","New Haven","CT",""
24981,"87 ROCK CREEK RD","New Haven","CT",""
24982,"91 ROCK CREEK RD","New Haven","CT",""
24983,"95 ROCK CREEK RD","New Haven","CT",""
24984,"300 VALLEY ST","New Haven","CT",""
24985,"VALLEY ST","New Haven","CT",""
24986,"206 VALLEY ST","New Haven","CT",""
24987,"200 VALLEY ST","New Haven","CT",""
24988,"196 VALLEY ST","New Haven","CT",""
24989,"190 VALLEY ST","New Haven","CT",""
24990,"120 EMERSON ST","New Haven","CT",""
24991,"112 EMERSON ST","New Haven","CT",""
24992,"106 EMERSON ST","New Haven","CT",""
24993,"102 EMERSON ST","New Haven","CT",""
24994,"96 EMERSON ST","New Haven","CT",""
24995,"92 EMERSON ST","New Haven","CT",""
24996,"88 EMERSON ST","New Haven","CT",""
24997,"84 EMERSON ST","New Haven","CT",""
24998,"1057 WHALLEY AV","New Haven","CT",""
24999,"1079 WHALLEY AV","New Haven","CT",""
25000,"WHALLEY AV","New Haven","CT",""
