"pid","location","city","state","zip"
1001,"18 MANSION ST","New Haven","CT",""
1002,"14 MANSION ST","New Haven","CT",""
1003,"8 MANSION ST","New Haven","CT",""
1004,"4 MANSION ST","New Haven","CT",""
1005,"28 PARKER PL","New Haven","CT",""
1006,"PARKER PL","New Haven","CT",""
1007,"24 PARKER PL","New Haven","CT",""
1008,"PARKER PL","New Haven","CT",""
1009,"18 PARKER PL","New Haven","CT",""
1010,"207 TOWNSEND AV","New Haven","CT",""
1011,"211 TOWNSEND AV","New Haven","CT",""
1012,"215 TOWNSEND AV","New Haven","CT",""
1013,"219 TOWNSEND AV","New Haven","CT",""
1014,"223 TOWNSEND AV","New Haven","CT",""
1015,"225 TOWNSEND AV","New Haven","CT",""
1016,"229 TOWNSEND AV","New Haven","CT",""
1017,"235 TOWNSEND AV","New Haven","CT",""
1018,"239 TOWNSEND AV","New Haven","CT",""
1019,"241 TOWNSEND AV","New Haven","CT",""
1020,"245 TOWNSEND AV","New Haven","CT",""
1021,"53 FLORENCE AV","New Haven","CT",""
1022,"57 FLORENCE AV","New Haven","CT",""
1023,"61 FLORENCE AV","New Haven","CT",""
1024,"65 FLORENCE AV","New Haven","CT",""
1025,"69 FLORENCE AV","New Haven","CT",""
1026,"236 CONCORD ST","New Haven","CT",""
1027,"230 CONCORD ST","New Haven","CT",""
1028,"224 CONCORD ST","New Haven","CT",""
1029,"220 CONCORD ST","New Haven","CT",""
1030,"210 CONCORD ST","New Haven","CT",""
1031,"50 PARKER PL","New Haven","CT",""
1032,"11 MANSION ST","New Haven","CT",""
1033,"15 MANSION ST","New Haven","CT",""
1034,"25 MANSION ST","New Haven","CT",""
1035,"27 MANSION ST","New Haven","CT",""
1036,"29 MANSION ST","New Haven","CT",""
1037,"33 MANSION ST","New Haven","CT",""
1038,"227 CONCORD ST","New Haven","CT",""
1039,"11 NELSON ST","New Haven","CT",""
1040,"15 NELSON ST","New Haven","CT",""
1041,"23 NELSON ST","New Haven","CT",""
1042,"41 NELSON ST","New Haven","CT",""
1043,"47 NELSON ST","New Haven","CT",""
1044,"1610 DEAN ST","New Haven","CT",""
1045,"110 PARKER PL","New Haven","CT",""
1046,"100 PARKER PL","New Haven","CT",""
1047,"94 PARKER PL","New Haven","CT",""
1048,"80 PARKER PL","New Haven","CT",""
1049,"76 PARKER PL","New Haven","CT",""
1050,"74 PARKER PL","New Haven","CT",""
1051,"72 PARKER PL","New Haven","CT",""
1052,"68 PARKER PL","New Haven","CT",""
1053,"219 CONCORD ST","New Haven","CT",""
1054,"223 CONCORD ST","New Haven","CT",""
1055,"168 TOWNSEND AV","New Haven","CT",""
1056,"TOWNSEND AV","New Haven","CT",""
1057,"154 TOWNSEND AV","New Haven","CT",""
1058,"150 TOWNSEND AV","New Haven","CT",""
1059,"146 TOWNSEND AV","New Haven","CT",""
1060,"144 TOWNSEND AV","New Haven","CT",""
1061,"138 TOWNSEND AV","New Haven","CT",""
1062,"TOWNSEND AV","New Haven","CT",""
1063,"126 TOWNSEND AV","New Haven","CT",""
1064,"120 TOWNSEND AV","New Haven","CT",""
1065,"112 TOWNSEND AV","New Haven","CT",""
1066,"110 TOWNSEND AV","New Haven","CT",""
1067,"100 TOWNSEND AV","New Haven","CT",""
1068,"92 TOWNSEND AV","New Haven","CT",""
1069,"90 TOWNSEND AV","New Haven","CT",""
1070,"TOWNSEND AV","New Haven","CT",""
1071,"88 TOWNSEND AV","New Haven","CT",""
1072,"80 TOWNSEND AV","New Haven","CT",""
1073,"31 ALDEN ST","New Haven","CT",""
1074,"25 ALDEN ST","New Haven","CT",""
1075,"1366 DEAN ST","New Haven","CT",""
1076,"1340 DEAN ST","New Haven","CT",""
1077,"1354 DEAN ST","New Haven","CT",""
1078,"1330 DEAN ST","New Haven","CT",""
1079,"1320 DEAN ST","New Haven","CT",""
1080,"1310 DEAN ST","New Haven","CT",""
1081,"1294 DEAN ST","New Haven","CT",""
1082,"1284 DEAN ST","New Haven","CT",""
1083,"1274 DEAN ST","New Haven","CT",""
1084,"1264 DEAN ST","New Haven","CT",""
1085,"1254 DEAN ST","New Haven","CT",""
1086,"1244 DEAN ST","New Haven","CT",""
1087,"1236 DEAN ST","New Haven","CT",""
1088,"1224 DEAN ST","New Haven","CT",""
1089,"50 MORRIS CSWY","New Haven","CT",""
1090,"44 MORRIS CSWY","New Haven","CT",""
1091,"38 MORRIS CSWY","New Haven","CT",""
1092,"32 MORRIS CSWY","New Haven","CT",""
1093,"7 CONCORD ST","New Haven","CT",""
1094,"9 CONCORD ST","New Haven","CT",""
1095,"23 CONCORD ST","New Haven","CT",""
1096,"27 CONCORD ST","New Haven","CT",""
1097,"31 CONCORD ST","New Haven","CT",""
1098,"37 CONCORD ST","New Haven","CT",""
1099,"43 CONCORD ST","New Haven","CT",""
1100,"49 CONCORD ST","New Haven","CT",""
1101,"55 CONCORD ST","New Haven","CT",""
1102,"61 CONCORD ST","New Haven","CT",""
1103,"67 CONCORD ST","New Haven","CT",""
1104,"71 CONCORD ST","New Haven","CT",""
1105,"77 CONCORD ST","New Haven","CT",""
1106,"81 CONCORD ST","New Haven","CT",""
1107,"85 CONCORD ST","New Haven","CT",""
1108,"91 CONCORD ST","New Haven","CT",""
1109,"97 CONCORD ST","New Haven","CT",""
1110,"101 CONCORD ST","New Haven","CT",""
1111,"107 CONCORD ST","New Haven","CT",""
1112,"109 CONCORD ST","New Haven","CT",""
1113,"111 CONCORD ST","New Haven","CT",""
1114,"121 CONCORD ST","New Haven","CT",""
1115,"127 CONCORD ST","New Haven","CT",""
1116,"17 ALDEN ST","New Haven","CT",""
1117,"37 SHOREHAM RD","New Haven","CT",""
1118,"80 CONCORD ST","New Haven","CT",""
1119,"78 CONCORD ST","New Haven","CT",""
1120,"92 CONCORD ST","New Haven","CT",""
1121,"90 CONCORD ST","New Haven","CT",""
1122,"88 CONCORD ST","New Haven","CT",""
1123,"87 TOWNSEND AV","New Haven","CT",""
1124,"89 TOWNSEND AV","New Haven","CT",""
1125,"TOWNSEND AV","New Haven","CT",""
1126,"99 TOWNSEND AV","New Haven","CT",""
1127,"105 TOWNSEND AV","New Haven","CT",""
1128,"115 TOWNSEND AV","New Haven","CT",""
1129,"117 TOWNSEND AV","New Haven","CT",""
1130,"129 TOWNSEND AV","New Haven","CT",""
1131,"17 SHOREHAM RD","New Haven","CT",""
1132,"19 SHOREHAM RD","New Haven","CT",""
1133,"25 SHOREHAM RD","New Haven","CT",""
1134,"33 SHOREHAM RD","New Haven","CT",""
1135,"51 BEECHER PL","New Haven","CT",""
1136,"156 CONCORD ST","New Haven","CT",""
1137,"150 CONCORD ST","New Haven","CT",""
1138,"146 CONCORD ST","New Haven","CT",""
1139,"140 CONCORD ST","New Haven","CT",""
1140,"136 CONCORD ST","New Haven","CT",""
1141,"132 CONCORD ST","New Haven","CT",""
1142,"36 SHOREHAM RD","New Haven","CT",""
1143,"32 SHOREHAM RD","New Haven","CT",""
1144,"28 SHOREHAM RD","New Haven","CT",""
1145,"22 SHOREHAM RD","New Haven","CT",""
1146,"16 SHOREHAM RD","New Haven","CT",""
1147,"14 SHOREHAM RD","New Haven","CT",""
1148,"139 TOWNSEND AV","New Haven","CT",""
1149,"143 TOWNSEND AV","New Haven","CT",""
1150,"147 TOWNSEND AV","New Haven","CT",""
1151,"151 TOWNSEND AV","New Haven","CT",""
1152,"155 TOWNSEND AV","New Haven","CT",""
1153,"165 TOWNSEND AV","New Haven","CT",""
1154,"171 TOWNSEND AV","New Haven","CT",""
1155,"15 BEECHER PL","New Haven","CT",""
1156,"23 BEECHER PL","New Haven","CT",""
1157,"37 BEECHER PL","New Haven","CT",""
1158,"39 BEECHER PL","New Haven","CT",""
1159,"41 BEECHER PL","New Haven","CT",""
1160,"45 BEECHER PL","New Haven","CT",""
1161,"49 BEECHER PL","New Haven","CT",""
1162,"35 EDEN ST","New Haven","CT",""
1163,"1414 DEAN ST","New Haven","CT",""
1164,"30 ALDEN ST","New Haven","CT",""
1165,"14 ALDEN ST","New Haven","CT",""
1166,"20 ALDEN ST","New Haven","CT",""
1167,"135 CONCORD ST","New Haven","CT",""
1168,"141 CONCORD ST","New Haven","CT",""
1169,"145 CONCORD ST","New Haven","CT",""
1170,"151 CONCORD ST","New Haven","CT",""
1171,"11 EDEN ST","New Haven","CT",""
1172,"15 EDEN ST","New Haven","CT",""
1173,"21 EDEN ST","New Haven","CT",""
1174,NA,"New Haven","CT",""
1175,"25 EDEN ST","New Haven","CT",""
1176,"41 ARDEN ST","New Haven","CT",""
1177,"1500 DEAN ST","New Haven","CT",""
1178,"1490 DEAN ST","New Haven","CT",""
1179,"34 EDEN ST","New Haven","CT",""
1180,"26 EDEN ST","New Haven","CT",""
1181,"20 EDEN ST","New Haven","CT",""
1182,"14 EDEN ST","New Haven","CT",""
1183,"161 CONCORD ST","New Haven","CT",""
1184,"165 CONCORD ST","New Haven","CT",""
1185,"169 CONCORD ST","New Haven","CT",""
1186,"11 ARDEN ST","New Haven","CT",""
1187,"15 ARDEN ST","New Haven","CT",""
1188,"17 ARDEN ST","New Haven","CT",""
1189,"31 ARDEN ST","New Haven","CT",""
1190,"33 ARDEN ST","New Haven","CT",""
1191,NA,"New Haven","CT",""
1192,NA,"New Haven","CT",""
1193,NA,"New Haven","CT",""
1194,"208 COVE ST","New Haven","CT",""
1195,"78 TOWNSEND AV","New Haven","CT",""
1196,"74 TOWNSEND AV","New Haven","CT",""
1197,"70 TOWNSEND AV","New Haven","CT",""
1198,"66 TOWNSEND AV","New Haven","CT",""
1199,"60 TOWNSEND AV","New Haven","CT",""
1200,"56 TOWNSEND AV","New Haven","CT",""
1201,"48 TOWNSEND AV","New Haven","CT",""
1202,"42 TOWNSEND AV","New Haven","CT",""
1203,"94 MORRIS COVE RD","New Haven","CT",""
1204,"90 MORRIS COVE RD","New Haven","CT",""
1205,"86 MORRIS COVE RD","New Haven","CT",""
1206,"82 MORRIS COVE RD","New Haven","CT",""
1207,"76 MORRIS COVE RD","New Haven","CT",""
1208,"70 MORRIS COVE RD","New Haven","CT",""
1209,"64 MORRIS COVE RD","New Haven","CT",""
1210,"56 MORRIS COVE RD","New Haven","CT",""
1211,"50 MORRIS COVE RD","New Haven","CT",""
1212,NA,"New Haven","CT",""
1213,"509 LIGHTHOUSE RD","New Haven","CT",""
1214,"22 TOWNSEND AV","New Haven","CT",""
1215,"TOWNSEND AV","New Haven","CT",""
1216,"20 TOWNSEND AV","New Haven","CT",""
1217,"18 TOWNSEND AV","New Haven","CT",""
1218,"16 TOWNSEND AV","New Haven","CT",""
1219,"14 TOWNSEND AV","New Haven","CT",""
1220,"12 TOWNSEND AV","New Haven","CT",""
1221,"10 TOWNSEND AV","New Haven","CT",""
1222,"8 TOWNSEND AV","New Haven","CT",""
1223,"6 TOWNSEND AV","New Haven","CT",""
1224,"4 TOWNSEND AV","New Haven","CT",""
1225,"8 DOUGLASS AV","New Haven","CT",""
1226,"453 LIGHTHOUSE RD","New Haven","CT",""
1227,"457 LIGHTHOUSE RD","New Haven","CT",""
1228,"461 LIGHTHOUSE RD","New Haven","CT",""
1229,NA,"New Haven","CT",""
1230,"471 LIGHTHOUSE RD","New Haven","CT",""
1231,"475 LIGHTHOUSE RD","New Haven","CT",""
1232,"479 LIGHTHOUSE RD","New Haven","CT",""
1233,"485 LIGHTHOUSE RD","New Haven","CT",""
1234,"491 LIGHTHOUSE RD","New Haven","CT",""
1235,"499 LIGHTHOUSE RD","New Haven","CT",""
1236,"38 TOWNSEND AV","New Haven","CT",""
1237,"32 TOWNSEND AV","New Haven","CT",""
1238,"30 TOWNSEND AV","New Haven","CT",""
1239,"TOWNSEND AV","New Haven","CT",""
1240,"28 TOWNSEND AV","New Haven","CT",""
1241,"26 TOWNSEND AV","New Haven","CT",""
1242,"488 LIGHTHOUSE RD","New Haven","CT",""
1243,"506 LIGHTHOUSE RD","New Haven","CT",""
1244,"502 LIGHTHOUSE RD","New Haven","CT",""
1245,"496 LIGHTHOUSE RD","New Haven","CT",""
1246,"490 LIGHTHOUSE RD","New Haven","CT",""
1247,"482 LIGHTHOUSE RD","New Haven","CT",""
1248,"35 MORRIS COVE RD","New Haven","CT",""
1249,"43 MORRIS COVE RD","New Haven","CT",""
1250,"47 MORRIS COVE RD","New Haven","CT",""
1251,"53 MORRIS COVE RD","New Haven","CT",""
1252,"57 MORRIS COVE RD","New Haven","CT",""
1253,"67 MORRIS COVE RD","New Haven","CT",""
1254,"MORRIS COVE RD","New Haven","CT",""
1255,"MORRIS COVE RD","New Haven","CT",""
1256,"MORRIS COVE RD","New Haven","CT",""
1257,NA,"New Haven","CT",""
1258,"70 CONCORD ST","New Haven","CT",""
1259,"66 CONCORD ST","New Haven","CT",""
1260,"60 CONCORD ST","New Haven","CT",""
1261,"54 CONCORD ST","New Haven","CT",""
1262,"50 CONCORD ST","New Haven","CT",""
1263,NA,"New Haven","CT",""
1264,"42 CONCORD ST","New Haven","CT",""
1265,"38 CONCORD ST","New Haven","CT",""
1266,"30 CONCORD ST","New Haven","CT",""
1267,"27 TOWNSEND AV","New Haven","CT",""
1268,"27 TOWNSEND AV","New Haven","CT",""
1269,"29 TOWNSEND AV","New Haven","CT",""
1270,"33 TOWNSEND AV","New Haven","CT",""
1271,"35 TOWNSEND AV","New Haven","CT",""
1272,"41 TOWNSEND AV","New Haven","CT",""
1273,"TOWNSEND AV","New Haven","CT",""
1274,"43 TOWNSEND AV","New Haven","CT",""
1275,"45 TOWNSEND AV","New Haven","CT",""
1276,"49 TOWNSEND AV","New Haven","CT",""
1277,"53 TOWNSEND AV","New Haven","CT",""
1278,"57 TOWNSEND AV","New Haven","CT",""
1279,"61 TOWNSEND AV","New Haven","CT",""
1280,"65 TOWNSEND AV","New Haven","CT",""
1281,"67 TOWNSEND AV","New Haven","CT",""
1282,"75 TOWNSEND AV","New Haven","CT",""
1283,"81 TOWNSEND AV","New Haven","CT",""
1284,"1 DOUGLASS AV","New Haven","CT",""
1285,"2 TOWNSEND AV","New Haven","CT",""
1286,"129 OCEAN VIEW ST","New Haven","CT",""
1287,"125 OCEAN VIEW ST","New Haven","CT",""
1288,"55 CLIFFORD TER","New Haven","CT",""
1289,"59 CLIFFORD TER","New Haven","CT",""
1290,"CLIFFORD TER","New Haven","CT",""
1291,"106 MEADOW VIEW TER","New Haven","CT",""
1292,NA,"New Haven","CT",""
1293,NA,"New Haven","CT",""
1294,"104 MEADOW VIEW ST","New Haven","CT",""
1295,"100 MEADOW VIEW ST","New Haven","CT",""
1296,"58 SHEPARD AV","New Haven","CT",""
1297,"54 SHEPARD AV","New Haven","CT",""
1298,"50 SHEPARD AV","New Haven","CT",""
1299,"115 OCEAN VIEW ST","New Haven","CT",""
1300,"415 LIGHTHOUSE RD","New Haven","CT",""
1301,"340 MARION ST","New Haven","CT",""
1302,"334 MARION ST","New Haven","CT",""
1303,"328 MARION ST","New Haven","CT",""
1304,"324 MARION ST","New Haven","CT",""
1305,"6 CONSTANCE ST","New Haven","CT",""
1306,"7 CONSTANCE ST","New Haven","CT",""
1307,"314 MARION ST","New Haven","CT",""
1308,"308 MARION ST","New Haven","CT",""
1309,"300 MARION ST","New Haven","CT",""
1310,"296 MARION ST","New Haven","CT",""
1311,"286 MARION ST","New Haven","CT",""
1312,"280 MARION ST","New Haven","CT",""
1313,"272 MARION ST","New Haven","CT",""
1314,"264 MARION ST","New Haven","CT",""
1315,NA,"New Haven","CT",""
1316,NA,"New Haven","CT",""
1317,NA,"New Haven","CT",""
1318,"62 CLIFFORD TER","New Haven","CT",""
1319,"60 CLIFFORD TER","New Haven","CT",""
1320,"137 OCEAN VIEW ST","New Haven","CT",""
1321,"143 OCEAN VIEW ST","New Haven","CT",""
1322,"147 OCEAN VIEW ST","New Haven","CT",""
1323,"157 OCEAN VIEW ST","New Haven","CT",""
1324,"161 OCEAN VIEW ST","New Haven","CT",""
1325,"163 OCEAN VIEW ST","New Haven","CT",""
1326,"167 OCEAN VIEW ST","New Haven","CT",""
1327,"357 LIGHTHOUSE RD","New Haven","CT",""
1328,"361 LIGHTHOUSE RD","New Haven","CT",""
1329,"365 LIGHTHOUSE RD","New Haven","CT",""
1330,"28 ANTHONY DR","New Haven","CT",""
1331,"24 ANTHONY DR","New Haven","CT",""
1332,"18 ANTHONY DR","New Haven","CT",""
1333,"12 ANTHONY DR","New Haven","CT",""
1334,"6 ANTHONY DR","New Haven","CT",""
1335,"ANTHONY DR","New Haven","CT",""
1336,"3 ANTHONY DR","New Haven","CT",""
1337,"9 ANTHONY DR","New Haven","CT",""
1338,"15 ANTHONY DR","New Haven","CT",""
1339,"21 ANTHONY DR","New Haven","CT",""
1340,"ANTHONY DR","New Haven","CT",""
1341,"27 ANTHONY DR","New Haven","CT",""
1342,"387 LIGHTHOUSE RD","New Haven","CT",""
1343,"397 LIGHTHOUSE RD","New Haven","CT",""
1344,"401 LIGHTHOUSE RD","New Haven","CT",""
1345,"411 LIGHTHOUSE RD","New Haven","CT",""
1346,"435 LIGHTHOUSE RD","New Haven","CT",""
1347,NA,"New Haven","CT",""
1348,NA,"New Haven","CT",""
1349,"230 SOUTH END RD","New Haven","CT",""
1350,"220 SOUTH END RD","New Haven","CT",""
1351,"214 SOUTH END RD","New Haven","CT",""
1352,"210 SOUTH END RD","New Haven","CT",""
1353,"194 SOUTH END RD","New Haven","CT",""
1354,"184 SOUTH END RD","New Haven","CT",""
1355,"182 SOUTH END RD","New Haven","CT",""
1356,"172 SOUTH END RD","New Haven","CT",""
1357,"158 SOUTH END RD","New Haven","CT",""
1358,"144 SOUTH END RD","New Haven","CT",""
1359,"180 MEADOW VIEW ST","New Haven","CT",""
1360,"174 MEADOW VIEW ST","New Haven","CT",""
1361,"170 MEADOW VIEW ST","New Haven","CT",""
1362,"158 MEADOW VIEW ST","New Haven","CT",""
1363,"168 MEADOW VIEW ST","New Haven","CT",""
1364,"265 MARION ST","New Haven","CT",""
1365,"279 MARION ST","New Haven","CT",""
1366,"285 MARION ST","New Haven","CT",""
1367,"307 MARION ST","New Haven","CT",""
1368,"309 MARION ST","New Haven","CT",""
1369,"309 MARION ST #1/2","New Haven","CT",""
1370,"311 MARION ST","New Haven","CT",""
1371,"315 MARION ST","New Haven","CT",""
1372,"319 MARION ST","New Haven","CT",""
1373,"323 MARION ST","New Haven","CT",""
1374,"329 MARION ST","New Haven","CT",""
1375,"337 MARION ST","New Haven","CT",""
1376,"341 MARION ST","New Haven","CT",""
1377,NA,"New Haven","CT",""
1378,"425 LIGHTHOUSE RD","New Haven","CT",""
1379,NA,"New Haven","CT",""
1380,"149 COVE ST","New Haven","CT",""
1381,"190 OCEAN VIEW ST","New Haven","CT",""
1382,"346 LIGHTHOUSE RD","New Haven","CT",""
1383,"338 LIGHTHOUSE RD","New Haven","CT",""
1384,"330 LIGHTHOUSE RD","New Haven","CT",""
1385,"328 LIGHTHOUSE RD","New Haven","CT",""
1386,"115 COVE ST","New Haven","CT",""
1387,"119 COVE ST","New Haven","CT",""
1388,"COVE ST","New Haven","CT",""
1389,"133 COVE ST","New Haven","CT",""
1390,"141 COVE ST","New Haven","CT",""
1391,"145 COVE ST","New Haven","CT",""
1392,"198 COVE ST","New Haven","CT",""
1393,"190 COVE ST","New Haven","CT",""
1394,"184 COVE ST","New Haven","CT",""
1395,"180 COVE ST","New Haven","CT",""
1396,"178 COVE ST","New Haven","CT",""
1397,"174 COVE ST","New Haven","CT",""
1398,"170 COVE ST","New Haven","CT",""
1399,"160 COVE ST","New Haven","CT",""
1400,"156 COVE ST","New Haven","CT",""
1401,NA,"New Haven","CT",""
1402,NA,"New Haven","CT",""
1403,"144 COVE ST","New Haven","CT",""
1404,"138 COVE ST","New Haven","CT",""
1405,"134 COVE ST","New Haven","CT",""
1406,"132 COVE ST","New Haven","CT",""
1407,"130 COVE ST","New Haven","CT",""
1408,"COVE ST","New Haven","CT",""
1409,"COVE ST","New Haven","CT",""
1410,"114 COVE ST","New Haven","CT",""
1411,"211 COVE ST","New Haven","CT",""
1412,"434 LIGHTHOUSE RD","New Haven","CT",""
1413,"430 LIGHTHOUSE RD","New Haven","CT",""
1414,"420 LIGHTHOUSE RD","New Haven","CT",""
1415,"416 LIGHTHOUSE RD","New Haven","CT",""
1416,"412 LIGHTHOUSE RD","New Haven","CT",""
1417,"402 LIGHTHOUSE RD","New Haven","CT",""
1418,"392 LIGHTHOUSE RD","New Haven","CT",""
1419,"386 LIGHTHOUSE RD","New Haven","CT",""
1420,"382 LIGHTHOUSE RD","New Haven","CT",""
1421,"376 LIGHTHOUSE RD","New Haven","CT",""
1422,"370 LIGHTHOUSE RD","New Haven","CT",""
1423,"360 LIGHTHOUSE RD","New Haven","CT",""
1424,"165 COVE ST","New Haven","CT",""
1425,"171 COVE ST","New Haven","CT",""
1426,"179 COVE ST","New Haven","CT",""
1427,"181 COVE ST","New Haven","CT",""
1428,"197 COVE ST","New Haven","CT",""
1429,"203 COVE ST","New Haven","CT",""
1430,"205 COVE ST","New Haven","CT",""
1431,"207 COVE ST","New Haven","CT",""
1432,"180 MARION ST","New Haven","CT",""
1433,"MARION ST","New Haven","CT",""
1434,"196 MARION ST","New Haven","CT",""
1435,"202 MARION ST","New Haven","CT",""
1436,"206 MARION ST","New Haven","CT",""
1437,"5 MARION ST","New Haven","CT",""
1438,"MARION ST","New Haven","CT",""
1439,"105 MEADOW VIEW ST","New Haven","CT",""
1440,"MARION ST","New Haven","CT",""
1441,"MARION ST","New Haven","CT",""
1442,"179 MARION ST","New Haven","CT",""
1443,"MARION ST","New Haven","CT",""
1444,"187 MARION ST","New Haven","CT",""
1445,"40 MARION ST","New Haven","CT",""
1446,NA,"New Haven","CT",""
1447,"203 MARION ST","New Haven","CT",""
1448,"MARION ST","New Haven","CT",""
1449,"215 MARION ST","New Haven","CT",""
1450,"136 ROAD DAM & CREEK","New Haven","CT",""
1451,"143 MEADOW VIEW ST","New Haven","CT",""
1452,"6 LIGHTHOUSE POINT TER","New Haven","CT",""
1453,"146 ROAD DAM & CREEK","New Haven","CT",""
1454,"CART RD","New Haven","CT",""
1455,"ROAD DAM & CREEK","New Haven","CT",""
1456,"190 CART RD","New Haven","CT",""
1457,"52 CART RD","New Haven","CT",""
1458,"62 CART RD","New Haven","CT",""
1459,"68 CART RD","New Haven","CT",""
1460,"CART RD","New Haven","CT",""
1461,"68 ROAD DAM & CREEK","New Haven","CT",""
1462,"64 ROAD DAM & CREEK","New Haven","CT",""
1463,"10 LIGHTHOUSE POINT TER","New Haven","CT",""
1464,"14 LIGHTHOUSE POINT TER","New Haven","CT",""
1465,"16 LIGHTHOUSE POINT TER","New Haven","CT",""
1466,NA,"New Haven","CT",""
1467,"14 1/2 LIGHTHOUSE POINT TER","New Haven","CT",""
1468,"30 LIGHTHOUSE POINT TER","New Haven","CT",""
1469,"40 LIGHTHOUSE POINT TER","New Haven","CT",""
1470,"150 ROAD DAM & CREEK","New Haven","CT",""
1471,"ROAD DAM & CREEK","New Haven","CT",""
1472,"114 CART RD","New Haven","CT",""
1473,NA,"New Haven","CT",""
1474,"18 ROAD DAM & CREEK","New Haven","CT",""
1475,"75 MEADOW VIEW ST","New Haven","CT",""
1476,"71 MEADOW VIEW ST","New Haven","CT",""
1477,"79 MEADOW VIEW ST","New Haven","CT",""
1478,"120 SOUTH END RD","New Haven","CT",""
1479,"110 SOUTH END RD","New Haven","CT",""
1480,"100 SOUTH END RD","New Haven","CT",""
1481,"90 SOUTH END RD","New Haven","CT",""
1482,"21 LIGHTHOUSE POINT TER","New Haven","CT",""
1483,"66 SOUTH END RD","New Haven","CT",""
1484,"SOUTH END RD","New Haven","CT",""
1485,"58 SOUTH END RD","New Haven","CT",""
1486,"44 SOUTH END RD","New Haven","CT",""
1487,"40 SOUTH END RD","New Haven","CT",""
1488,"SOUTH END RD","New Haven","CT",""
1489,"LIGHTHOUSE POINT TER","New Haven","CT",""
1490,"LIGHTHOUSE POINT TER","New Haven","CT",""
1491,"LIGHTHOUSE POINT TER","New Haven","CT",""
1492,"LIGHTHOUSE POINT TER","New Haven","CT",""
1493,"19 LIGHTHOUSE POINT TER","New Haven","CT",""
1494,"11 LIGHTHOUSE POINT TER","New Haven","CT",""
1495,"7 LIGHTHOUSE POINT TER","New Haven","CT",""
1496,"1 CORA ST","New Haven","CT",""
1497,"7 CORA ST","New Haven","CT",""
1498,"11 CORA ST","New Haven","CT",""
1499,"19 CORA ST","New Haven","CT",""
1500,"21 CORA ST","New Haven","CT",""
1501,"27 CORA ST","New Haven","CT",""
1502,"251 LIGHTHOUSE RD","New Haven","CT",""
1503,"257 LIGHTHOUSE RD","New Haven","CT",""
1504,"265 LIGHTHOUSE RD","New Haven","CT",""
1505,"269 LIGHTHOUSE RD","New Haven","CT",""
1506,"273 LIGHTHOUSE RD","New Haven","CT",""
1507,"277 LIGHTHOUSE RD","New Haven","CT",""
1508,"287 LIGHTHOUSE RD","New Haven","CT",""
1509,"293 LIGHTHOUSE RD","New Haven","CT",""
1510,"305 LIGHTHOUSE RD","New Haven","CT",""
1511,"307 LIGHTHOUSE RD","New Haven","CT",""
1512,"311 LIGHTHOUSE RD","New Haven","CT",""
1513,"128 MORRIS AV","New Haven","CT",""
1514,"124 MORRIS AV","New Haven","CT",""
1515,"6 DOTY PL","New Haven","CT",""
1516,"10 DOTY PL","New Haven","CT",""
1517,"16 DOTY PL","New Haven","CT",""
1518,"24 DOTY PL","New Haven","CT",""
1519,"32 DOTY PL","New Haven","CT",""
1520,"18 MARIN RD","New Haven","CT",""
1521,"175 LIGHTHOUSE RD","New Haven","CT",""
1522,"105 MORRIS AV","New Haven","CT",""
1523,"9 CLIFFORD TER","New Haven","CT",""
1524,"19 CLIFFORD TER","New Haven","CT",""
1525,"25 CLIFFORD TER","New Haven","CT",""
1526,"128 OCEAN VIEW ST","New Haven","CT",""
1527,"34 SHEPARD AV","New Haven","CT",""
1528,"26 SHEPARD AV","New Haven","CT",""
1529,"20 SHEPARD AV","New Haven","CT",""
1530,"16 SHEPARD AV","New Haven","CT",""
1531,"12 SHEPARD AV","New Haven","CT",""
1532,"4 SHEPARD AV","New Haven","CT",""
1533,"325 LIGHTHOUSE RD","New Haven","CT",""
1534,"345 LIGHTHOUSE RD","New Haven","CT",""
1535,"347 LIGHTHOUSE RD","New Haven","CT",""
1536,"170 OCEAN VIEW ST","New Haven","CT",""
1537,"164 OCEAN VIEW ST","New Haven","CT",""
1538,"158 OCEAN VIEW ST","New Haven","CT",""
1539,"152 OCEAN VIEW ST","New Haven","CT",""
1540,"OCEAN VIEW ST","New Haven","CT",""
1541,"148 OCEAN VIEW ST","New Haven","CT",""
1542,"140 OCEAN VIEW ST","New Haven","CT",""
1543,"22 CLIFFORD TER","New Haven","CT",""
1544,"14 CLIFFORD TER","New Haven","CT",""
1545,"8 CLIFFORD TER","New Haven","CT",""
1546,"115 MORRIS AV","New Haven","CT",""
1547,"2 CLIFFORD TER","New Haven","CT",""
1548,"117 MORRIS AV","New Haven","CT",""
1549,"121 MORRIS AV","New Haven","CT",""
1550,"123 MORRIS AV","New Haven","CT",""
1551,"7 COVE ST","New Haven","CT",""
1552,"COVE ST","New Haven","CT",""
1553,"11 COVE ST","New Haven","CT",""
1554,"15 COVE ST","New Haven","CT",""
1555,"21 COVE ST","New Haven","CT",""
1556,"29 COVE ST","New Haven","CT",""
1557,"37 COVE ST","New Haven","CT",""
1558,"49 COVE ST","New Haven","CT",""
1559,"270 LIGHTHOUSE RD","New Haven","CT",""
1560,"266 LIGHTHOUSE RD","New Haven","CT",""
1561,"262 LIGHTHOUSE RD","New Haven","CT",""
1562,"256 LIGHTHOUSE RD","New Haven","CT",""
1563,"252 LIGHTHOUSE RD","New Haven","CT",""
1564,"246 LIGHTHOUSE RD","New Haven","CT",""
1565,"240 LIGHTHOUSE RD","New Haven","CT",""
1566,"236 LIGHTHOUSE RD","New Haven","CT",""
1567,"234 LIGHTHOUSE RD","New Haven","CT",""
1568,"230 LIGHTHOUSE RD","New Haven","CT",""
1569,"222 LIGHTHOUSE RD","New Haven","CT",""
1570,"8 COVE ST","New Haven","CT",""
1571,"14 COVE ST","New Haven","CT",""
1572,"20 COVE ST","New Haven","CT",""
1573,"COVE ST","New Haven","CT",""
1574,"COVE ST","New Haven","CT",""
1575,"20 COVE ST","New Haven","CT",""
1576,"COVE ST","New Haven","CT",""
1577,"COVE ST","New Haven","CT",""
1578,"COVE ST","New Haven","CT",""
1579,"COVE ST","New Haven","CT",""
1580,"COVE ST","New Haven","CT",""
1581,"COVE ST","New Haven","CT",""
1582,"COVE ST","New Haven","CT",""
1583,"COVE ST","New Haven","CT",""
1584,"COVE ST","New Haven","CT",""
1585,"20 COVE ST","New Haven","CT",""
1586,"COVE ST","New Haven","CT",""
1587,"COVE ST","New Haven","CT",""
1588,"COVE ST","New Haven","CT",""
1589,"COVE ST","New Haven","CT",""
1590,"COVE ST","New Haven","CT",""
1591,"COVE ST","New Haven","CT",""
1592,"COVE ST","New Haven","CT",""
1593,"COVE ST","New Haven","CT",""
1594,"20 COVE ST","New Haven","CT",""
1595,"COVE ST","New Haven","CT",""
1596,"20 COVE ST","New Haven","CT",""
1597,"COVE ST","New Haven","CT",""
1598,"20 COVE ST","New Haven","CT",""
1599,"COVE ST","New Haven","CT",""
1600,"COVE ST","New Haven","CT",""
1601,"COVE ST","New Haven","CT",""
1602,"COVE ST","New Haven","CT",""
1603,"COVE ST","New Haven","CT",""
1604,"20 COVE ST","New Haven","CT",""
1605,"20 COVE ST","New Haven","CT",""
1606,"COVE ST","New Haven","CT",""
1607,"20 COVE ST","New Haven","CT",""
1608,"COVE ST","New Haven","CT",""
1609,"20 COVE ST","New Haven","CT",""
1610,"20 COVE ST","New Haven","CT",""
1611,"20 COVE ST","New Haven","CT",""
1612,"COVE ST","New Haven","CT",""
1613,"20 COVE ST","New Haven","CT",""
1614,"20 COVE ST","New Haven","CT",""
1615,"24 COVE ST","New Haven","CT",""
1616,"30 COVE ST","New Haven","CT",""
1617,"34 COVE ST","New Haven","CT",""
1618,"38 COVE ST","New Haven","CT",""
1619,"62 COVE ST","New Haven","CT",""
1620,"64 COVE ST","New Haven","CT",""
1621,"70 COVE ST","New Haven","CT",""
1622,"74 COVE ST","New Haven","CT",""
1623,"78 COVE ST","New Haven","CT",""
1624,"82 COVE ST","New Haven","CT",""
1625,"88 COVE ST #A","New Haven","CT",""
1626,"88 COVE ST #B","New Haven","CT",""
1627,"86 COVE ST #A","New Haven","CT",""
1628,"86 COVE ST #B","New Haven","CT",""
1629,"94 COVE ST","New Haven","CT",""
1630,"104 COVE ST","New Haven","CT",""
1631,"176 MORRIS AV","New Haven","CT",""
1632,"19 RHEA ST","New Haven","CT",""
1633,"75 COVE ST","New Haven","CT",""
1634,NA,"New Haven","CT",""
1635,NA,"New Haven","CT",""
1636,"81 COVE ST","New Haven","CT",""
1637,"87 COVE ST","New Haven","CT",""
1638,"93 COVE ST","New Haven","CT",""
1639,"103 COVE ST","New Haven","CT",""
1640,"312 LIGHTHOUSE RD","New Haven","CT",""
1641,"310 LIGHTHOUSE RD","New Haven","CT",""
1642,"308 LIGHTHOUSE RD","New Haven","CT",""
1643,"300 LIGHTHOUSE RD","New Haven","CT",""
1644,"296 LIGHTHOUSE RD","New Haven","CT",""
1645,"290 LIGHTHOUSE RD","New Haven","CT",""
1646,"284 LIGHTHOUSE RD","New Haven","CT",""
1647,"280 LIGHTHOUSE RD","New Haven","CT",""
1648,"11 RHEA ST","New Haven","CT",""
1649,"DOTY PL","New Haven","CT",""
1650,"9 DOTY PL","New Haven","CT",""
1651,"7 DOTY PL","New Haven","CT",""
1652,"5 DOTY PL","New Haven","CT",""
1653,"1 DOTY PL","New Haven","CT",""
1654,"MORRIS AV","New Haven","CT",""
1655,"100 MORRIS AV","New Haven","CT",""
1656,NA,"New Haven","CT",""
1657,"92 MORRIS AV","New Haven","CT",""
1658,"88 MORRIS AV","New Haven","CT",""
1659,"MARIN RD","New Haven","CT",""
1660,"MARIN RD","New Haven","CT",""
1661,"MARIN RD","New Haven","CT",""
1662,"MARIN RD","New Haven","CT",""
1663,"MARIN RD","New Haven","CT",""
1664,"80 MORRIS AV","New Haven","CT",""
1665,"76 MORRIS AV","New Haven","CT",""
1666,"70 MORRIS AV","New Haven","CT",""
1667,"66 MORRIS AV","New Haven","CT",""
1668,"58 MORRIS AV","New Haven","CT",""
1669,"54 MORRIS AV","New Haven","CT",""
1670,"48 MORRIS AV","New Haven","CT",""
1671,"46 MORRIS AV","New Haven","CT",""
1672,"44 MORRIS AV","New Haven","CT",""
1673,"40 MORRIS AV","New Haven","CT",""
1674,"36 MORRIS AV","New Haven","CT",""
1675,"32 MORRIS AV","New Haven","CT",""
1676,"28 MORRIS AV","New Haven","CT",""
1677,"24 MORRIS AV","New Haven","CT",""
1678,"16 MORRIS AV","New Haven","CT",""
1679,"3 MEADOW VIEW ST","New Haven","CT",""
1680,"9 MEADOW VIEW ST","New Haven","CT",""
1681,"15 MEADOW VIEW ST","New Haven","CT",""
1682,"MORRIS AV","New Haven","CT",""
1683,"17 ORCHARD AV","New Haven","CT",""
1684,"7 ORCHARD AV","New Haven","CT",""
1685,"72 OCEAN VIEW ST","New Haven","CT",""
1686,"66 OCEAN VIEW ST","New Haven","CT",""
1687,"10 MEADOW VIEW ST","New Haven","CT",""
1688,"33 MORRIS AV","New Haven","CT",""
1689,"39 MORRIS AV","New Haven","CT",""
1690,"45 MORRIS AV","New Haven","CT",""
1691,"71 MORRIS AV","New Haven","CT",""
1692,"15 SHEPARD AV","New Haven","CT",""
1693,"19 SHEPARD AV","New Haven","CT",""
1694,"25 SHEPARD AV","New Haven","CT",""
1695,"104 OCEAN VIEW ST","New Haven","CT",""
1696,"94 OCEAN VIEW ST","New Haven","CT",""
1697,"16 ORCHARD AV","New Haven","CT",""
1698,"20 ORCHARD AV","New Haven","CT",""
1699,"59 MORRIS AV","New Haven","CT",""
1700,"69 MORRIS AV","New Haven","CT",""
1701,"103 OCEAN VIEW ST","New Haven","CT",""
1702,"61 SHEPARD AV","New Haven","CT",""
1703,"SHEPARD AV","New Haven","CT",""
1704,"86 MEADOW VIEW ST","New Haven","CT",""
1705,"74 MEADOW VIEW ST","New Haven","CT",""
1706,"63 OCEAN VIEW ST","New Haven","CT",""
1707,"79 OCEAN VIEW ST","New Haven","CT",""
1708,"83 OCEAN VIEW ST","New Haven","CT",""
1709,"87 OCEAN VIEW ST","New Haven","CT",""
1710,"95 OCEAN VIEW ST","New Haven","CT",""
1711,"38 MORRIS AV","New Haven","CT",""
1712,"MARION ST","New Haven","CT",""
1713,"MARION ST","New Haven","CT",""
1714,"160 MARION ST","New Haven","CT",""
1715,"156 MARION ST","New Haven","CT",""
1716,"152 MARION ST","New Haven","CT",""
1717,"115 MORRIS CREEK & DY","New Haven","CT",""
1718,"MORRIS CREEK & DY","New Haven","CT",""
1719,"MORRIS CREEK & DY","New Haven","CT",""
1720,"10 MORRIS AV","New Haven","CT",""
1721,"23 MEADOW VIEW ST","New Haven","CT",""
1722,"175 MARION ST","New Haven","CT",""
1723,"MARION ST","New Haven","CT",""
1724,"165 MARION ST","New Haven","CT",""
1725,"159 MARION ST","New Haven","CT",""
1726,"81 MORRIS CREEK & DY","New Haven","CT",""
1727,"89 MORRIS CREEK & DY","New Haven","CT",""
1728,"93 MORRIS CREEK & DY","New Haven","CT",""
1729,"99 MORRIS CREEK & DY","New Haven","CT",""
1730,"101 MORRIS CREEK & DY","New Haven","CT",""
1731,"155 MARION ST","New Haven","CT",""
1732,"149 MARION ST","New Haven","CT",""
1733,"21 LIGHTHOUSE RD","New Haven","CT",""
1734,"6 RAYNHAM RD","New Haven","CT",""
1735,"307 WOODWARD AV","New Haven","CT",""
1736,"315 WOODWARD AV","New Haven","CT",""
1737,"321 WOODWARD AV","New Haven","CT",""
1738,"327 WOODWARD AV","New Haven","CT",""
1739,"333 WOODWARD AV","New Haven","CT",""
1740,"337 WOODWARD AV","New Haven","CT",""
1741,"TUTTLE ST","New Haven","CT",""
1742,"196 KNEELAND RD","New Haven","CT",""
1743,"19 TUTTLE ST","New Haven","CT",""
1744,"190 KNEELAND RD","New Haven","CT",""
1745,"184 KNEELAND RD","New Haven","CT",""
1746,"176 KNEELAND RD","New Haven","CT",""
1747,"170 KNEELAND RD","New Haven","CT",""
1748,"164 KNEELAND RD","New Haven","CT",""
1749,"34 RAYNHAM RD","New Haven","CT",""
1750,"26 RAYNHAM RD","New Haven","CT",""
1751,"20 RAYNHAM RD","New Haven","CT",""
1752,"12 RAYNHAM RD","New Haven","CT",""
1753,"50 RAYNHAM RD","New Haven","CT",""
1754,"165 KNEELAND RD","New Haven","CT",""
1755,"173 KNEELAND RD","New Haven","CT",""
1756,"179 KNEELAND RD","New Haven","CT",""
1757,"185 KNEELAND RD","New Haven","CT",""
1758,"191 KNEELAND RD","New Haven","CT",""
1759,"197 KNEELAND RD","New Haven","CT",""
1760,"203 KNEELAND RD","New Haven","CT",""
1761,"774 TOWNSEND AV","New Haven","CT",""
1762,"766 TOWNSEND AV","New Haven","CT",""
1763,"760 TOWNSEND AV","New Haven","CT",""
1764,"752 TOWNSEND AV","New Haven","CT",""
1765,"744 TOWNSEND AV","New Haven","CT",""
1766,"738 TOWNSEND AV","New Haven","CT",""
1767,"720 TOWNSEND AV","New Haven","CT",""
1768,"54 RAYNHAM RD","New Haven","CT",""
1769,"10 TUTTLE ST","New Haven","CT",""
1770,"363 WOODWARD AV","New Haven","CT",""
1771,"367 WOODWARD AV","New Haven","CT",""
1772,"375 WOODWARD AV","New Haven","CT",""
1773,"383 WOODWARD AV","New Haven","CT",""
1774,"393 WOODWARD AV","New Haven","CT",""
1775,"399 WOODWARD AV","New Haven","CT",""
1776,"405 WOODWARD AV","New Haven","CT",""
1777,"411 WOODWARD AV","New Haven","CT",""
1778,"415 WOODWARD AV","New Haven","CT",""
1779,"421 WOODWARD AV","New Haven","CT",""
1780,"429 WOODWARD AV","New Haven","CT",""
1781,"3 UPSON TER","New Haven","CT",""
1782,"11 UPSON TER","New Haven","CT",""
1783,"294 KNEELAND RD","New Haven","CT",""
1784,"290 KNEELAND RD","New Haven","CT",""
1785,"280 KNEELAND RD","New Haven","CT",""
1786,"276 KNEELAND RD","New Haven","CT",""
1787,"270 KNEELAND RD","New Haven","CT",""
1788,"264 KNEELAND RD","New Haven","CT",""
1789,"258 KNEELAND RD","New Haven","CT",""
1790,"252 KNEELAND RD","New Haven","CT",""
1791,"246 KNEELAND RD","New Haven","CT",""
1792,"240 KNEELAND RD","New Haven","CT",""
1793,"234 KNEELAND RD","New Haven","CT",""
1794,"228 KNEELAND RD","New Haven","CT",""
1795,"222 KNEELAND RD","New Haven","CT",""
1796,"214 KNEELAND RD","New Haven","CT",""
1797,"16 TUTTLE ST","New Haven","CT",""
1798,"215 KNEELAND RD","New Haven","CT",""
1799,"223 KNEELAND RD","New Haven","CT",""
1800,"229 KNEELAND RD","New Haven","CT",""
1801,"241 KNEELAND RD","New Haven","CT",""
1802,"245 KNEELAND RD","New Haven","CT",""
1803,"249 KNEELAND RD","New Haven","CT",""
1804,"253 KNEELAND RD","New Haven","CT",""
1805,"259 KNEELAND RD","New Haven","CT",""
1806,"265 KNEELAND RD","New Haven","CT",""
1807,"271 KNEELAND RD","New Haven","CT",""
1808,"277 KNEELAND RD","New Haven","CT",""
1809,"283 KNEELAND RD","New Haven","CT",""
1810,"289 KNEELAND RD","New Haven","CT",""
1811,"295 KNEELAND RD","New Haven","CT",""
1812,"864 TOWNSEND AV","New Haven","CT",""
1813,"856 TOWNSEND AV","New Haven","CT",""
1814,"850 TOWNSEND AV","New Haven","CT",""
1815,"840 TOWNSEND AV","New Haven","CT",""
1816,"820 TOWNSEND AV","New Haven","CT",""
1817,"818 TOWNSEND AV","New Haven","CT",""
1818,"816 TOWNSEND AV","New Haven","CT",""
1819,"810 TOWNSEND AV","New Haven","CT",""
1820,"802 TOWNSEND AV","New Haven","CT",""
1821,"794 TOWNSEND AV","New Haven","CT",""
1822,"786 TOWNSEND AV","New Haven","CT",""
1823,"418 WOODWARD AV #1","New Haven","CT",""
1824,"418 WOODWARD AV #2","New Haven","CT",""
1825,"418 WOODWARD AV #3","New Haven","CT",""
1826,"418 WOODWARD AV #4","New Haven","CT",""
1827,"418 WOODWARD AV #5","New Haven","CT",""
1828,"418 WOODWARD AV #6","New Haven","CT",""
1829,"418 WOODWARD AV #7","New Haven","CT",""
1830,"418 WOODWARD AV #8","New Haven","CT",""
1831,"418 WOODWARD AV #9","New Haven","CT",""
1832,"418 WOODWARD AV #10","New Haven","CT",""
1833,"418 WOODWARD AV #11","New Haven","CT",""
1834,"418 WOODWARD AV #12","New Haven","CT",""
1835,"418 WOODWARD AV #13","New Haven","CT",""
1836,"418 WOODWARD AV #14","New Haven","CT",""
1837,"418 WOODWARD AV #15","New Haven","CT",""
1838,"418 WOODWARD AV #16","New Haven","CT",""
1839,"418 WOODWARD AV #17","New Haven","CT",""
1840,"418 WOODWARD AV #18","New Haven","CT",""
1841,"418 WOODWARD AV #19","New Haven","CT",""
1842,"418 WOODWARD AV #20","New Haven","CT",""
1843,"418 WOODWARD AV #21","New Haven","CT",""
1844,"418 WOODWARD AV #22","New Haven","CT",""
1845,"418 WOODWARD AV #23","New Haven","CT",""
1846,"418 WOODWARD AV #24","New Haven","CT",""
1847,"418 WOODWARD AV #25","New Haven","CT",""
1848,"418 WOODWARD AV #26","New Haven","CT",""
1849,"418 WOODWARD AV #27","New Haven","CT",""
1850,"418 WOODWARD AV #28","New Haven","CT",""
1851,"432 WOODWARD AV","New Haven","CT",""
1852,"436 WOODWARD AV","New Haven","CT",""
1853,"82 FORT HALE RD","New Haven","CT",""
1854,"FORT HALE RD","New Haven","CT",""
1855,"153 WOODWARD AV","New Haven","CT",""
1856,"159 WOODWARD AV","New Haven","CT",""
1857,"163 WOODWARD AV","New Haven","CT",""
1858,"169 WOODWARD AV","New Haven","CT",""
1859,"175 WOODWARD AV","New Haven","CT",""
1860,"181 WOODWARD AV","New Haven","CT",""
1861,"3 HERVEY ST","New Haven","CT",""
1862,"9 HERVEY ST","New Haven","CT",""
1863,"17 HERVEY ST","New Haven","CT",""
1864,"25 HERVEY ST","New Haven","CT",""
1865,"29 HERVEY ST","New Haven","CT",""
1866,"35 HERVEY ST","New Haven","CT",""
1867,"42 KNEELAND RD","New Haven","CT",""
1868,"36 KNEELAND RD","New Haven","CT",""
1869,"30 KNEELAND RD","New Haven","CT",""
1870,"24 KNEELAND RD","New Haven","CT",""
1871,"20 KNEELAND RD","New Haven","CT",""
1872,"114 FORT HALE RD","New Haven","CT",""
1873,"110 FORT HALE RD","New Haven","CT",""
1874,"104 FORT HALE RD","New Haven","CT",""
1875,"100 FORT HALE RD","New Haven","CT",""
1876,"94 FORT HALE RD","New Haven","CT",""
1877,"90 FORT HALE RD","New Haven","CT",""
1878,"84 FORT HALE RD","New Haven","CT",""
1879,"9 KNEELAND RD","New Haven","CT",""
1880,"25 KNEELAND RD","New Haven","CT",""
1881,"33 KNEELAND RD","New Haven","CT",""
1882,"35 KNEELAND RD","New Haven","CT",""
1883,"37 KNEELAND RD","New Haven","CT",""
1884,"51 KNEELAND RD","New Haven","CT",""
1885,"47 KNEELAND RD","New Haven","CT",""
1886,"59 HERVEY ST","New Haven","CT",""
1887,"65 HERVEY ST","New Haven","CT",""
1888,"71 HERVEY ST","New Haven","CT",""
1889,"630 TOWNSEND AV","New Haven","CT",""
1890,"620 TOWNSEND AV","New Haven","CT",""
1891,"610 TOWNSEND AV","New Haven","CT",""
1892,"602 TOWNSEND AV","New Haven","CT",""
1893,"596 TOWNSEND AV","New Haven","CT",""
1894,NA,"New Haven","CT",""
1895,"138 FORT HALE RD","New Haven","CT",""
1896,"132 FORT HALE RD","New Haven","CT",""
1897,"6 HERVEY ST","New Haven","CT",""
1898,"219 WOODWARD AV","New Haven","CT",""
1899,"225 WOODWARD AV","New Haven","CT",""
1900,"231 WOODWARD AV","New Haven","CT",""
1901,"235 WOODWARD AV","New Haven","CT",""
1902,"241 WOODWARD AV","New Haven","CT",""
1903,"245 WOODWARD AV","New Haven","CT",""
1904,"WOODWARD AV","New Haven","CT",""
1905,"WOODWARD AV","New Haven","CT",""
1906,"WOODWARD AV","New Haven","CT",""
1907,"WOODWARD AV","New Haven","CT",""
1908,"WOODWARD AV","New Haven","CT",""
1909,"255 WOODWARD AV","New Haven","CT",""
1910,"3 RAYNHAM RD","New Haven","CT",""
1911,"11 RAYNHAM RD","New Haven","CT",""
1912,"19 RAYNHAM RD","New Haven","CT",""
1913,"25 RAYNHAM RD","New Haven","CT",""
1914,"130 KNEELAND RD","New Haven","CT",""
1915,"120 KNEELAND RD","New Haven","CT",""
1916,"114 KNEELAND RD","New Haven","CT",""
1917,"108 KNEELAND RD","New Haven","CT",""
1918,"KNEELAND RD","New Haven","CT",""
1919,"KNEELAND RD","New Haven","CT",""
1920,"102 KNEELAND RD","New Haven","CT",""
1921,"96 KNEELAND RD","New Haven","CT",""
1922,"90 KNEELAND RD","New Haven","CT",""
1923,"86 KNEELAND RD","New Haven","CT",""
1924,"38 HERVEY ST","New Haven","CT",""
1925,"30 HERVEY ST","New Haven","CT",""
1926,"22 HERVEY ST","New Haven","CT",""
1927,"16 HERVEY ST","New Haven","CT",""
1928,NA,"New Haven","CT",""
1929,"85 KNEELAND RD","New Haven","CT",""
1930,"91 KNEELAND RD","New Haven","CT",""
1931,"95 KNEELAND RD","New Haven","CT",""
1932,"101 KNEELAND RD","New Haven","CT",""
1933,"107 KNEELAND RD","New Haven","CT",""
1934,"113 KNEELAND RD","New Haven","CT",""
1935,"119 KNEELAND RD","New Haven","CT",""
1936,"125 KNEELAND RD","New Haven","CT",""
1937,"131 KNEELAND RD","New Haven","CT",""
1938,"55 RAYNHAM RD","New Haven","CT",""
1939,"700 TOWNSEND AV","New Haven","CT",""
1940,"694 TOWNSEND AV","New Haven","CT",""
1941,"690 TOWNSEND AV","New Haven","CT",""
1942,"680 TOWNSEND AV","New Haven","CT",""
1943,"672 TOWNSEND AV","New Haven","CT",""
1944,"664 TOWNSEND AV","New Haven","CT",""
1945,"656 TOWNSEND AV","New Haven","CT",""
1946,"650 TOWNSEND AV","New Haven","CT",""
1947,"640 TOWNSEND AV","New Haven","CT",""
1948,"74 HERVEY ST","New Haven","CT",""
1949,"66 HERVEY ST","New Haven","CT",""
1950,"60 HERVEY ST","New Haven","CT",""
1951,"54 HERVEY ST","New Haven","CT",""
1952,"5 POPE ST","New Haven","CT",""
1953,"17 POPE ST","New Haven","CT",""
1954,"25 POPE ST","New Haven","CT",""
1955,"35 POPE ST","New Haven","CT",""
1956,"41 POPE ST","New Haven","CT",""
1957,"43 POPE ST","New Haven","CT",""
1958,"49 POPE ST","New Haven","CT",""
1959,"51 POPE ST","New Haven","CT",""
1960,"59 POPE ST","New Haven","CT",""
1961,"65 POPE ST","New Haven","CT",""
1962,"69 POPE ST","New Haven","CT",""
1963,"73 POPE ST","New Haven","CT",""
1964,"480 TOWNSEND AV","New Haven","CT",""
1965,"458 TOWNSEND AV","New Haven","CT",""
1966,"450 TOWNSEND AV","New Haven","CT",""
1967,"444 TOWNSEND AV","New Haven","CT",""
1968,"440 TOWNSEND AV","New Haven","CT",""
1969,"430 TOWNSEND AV","New Haven","CT",""
1970,"TOWNSEND AV","New Haven","CT",""
1971,"24 WOODWARD AV #1","New Haven","CT",""
1972,"24 WOODWARD AV #2","New Haven","CT",""
1973,"24 WOODWARD AV #3","New Haven","CT",""
1974,"24 WOODWARD AV #4","New Haven","CT",""
1975,"24 WOODWARD AV #5","New Haven","CT",""
1976,"24 WOODWARD AV #6","New Haven","CT",""
1977,"24 WOODWARD AV #7","New Haven","CT",""
1978,"24 WOODWARD AV #8","New Haven","CT",""
1979,"24 WOODWARD AV #9","New Haven","CT",""
1980,"24 WOODWARD AV #10","New Haven","CT",""
1981,"24 WOODWARD AV #11","New Haven","CT",""
1982,"24 WOODWARD AV #12","New Haven","CT",""
1983,"24 WOODWARD AV #13","New Haven","CT",""
1984,"24 WOODWARD AV #14","New Haven","CT",""
1985,"24 WOODWARD AV #15","New Haven","CT",""
1986,"24 WOODWARD AV #16","New Haven","CT",""
1987,"24 WOODWARD AV #17","New Haven","CT",""
1988,"24 WOODWARD AV #18","New Haven","CT",""
1989,"24 WOODWARD AV #19","New Haven","CT",""
1990,"24 WOODWARD AV #20","New Haven","CT",""
1991,"24 WOODWARD AV #21","New Haven","CT",""
1992,"24 WOODWARD AV #22","New Haven","CT",""
1993,"24 WOODWARD AV #23","New Haven","CT",""
1994,"24 WOODWARD AV #24","New Haven","CT",""
1995,"24 WOODWARD AV #25","New Haven","CT",""
1996,"24 WOODWARD AV #26","New Haven","CT",""
1997,"24 WOODWARD AV #27","New Haven","CT",""
1998,"24 WOODWARD AV #28","New Haven","CT",""
1999,"24 WOODWARD AV #29","New Haven","CT",""
2000,"24 WOODWARD AV #30","New Haven","CT",""
