"pid","location","city","state","zip"
1,"51 SOUTH END RD","New Haven","CT",""
2,"75 SOUTH END RD","New Haven","CT",""
3,"199 SOUTH END RD","New Haven","CT",""
4,"11 URIAH ST","New Haven","CT",""
5,"181 SOUTH END RD","New Haven","CT",""
6,"169 SOUTH END RD","New Haven","CT",""
7,"173 SOUTH END RD","New Haven","CT",""
8,"165 SOUTH END RD","New Haven","CT",""
9,"161 SOUTH END RD","New Haven","CT",""
10,"157 SOUTH END RD","New Haven","CT",""
11,"153 SOUTH END RD","New Haven","CT",""
12,"SOUTH END RD","New Haven","CT",""
13,"107 SOUTH END RD","New Haven","CT",""
14,"101 SOUTH END RD","New Haven","CT",""
15,"95 SOUTH END RD","New Haven","CT",""
16,"SOUTH END RD","New Haven","CT",""
17,"91 SOUTH END RD","New Haven","CT",""
18,"103 SOUTH END RD","New Haven","CT",""
19,"SOUTH END RD","New Haven","CT",""
20,"URIAH ST","New Haven","CT",""
21,"SOUTH END RD","New Haven","CT",""
22,"SOUTH END RD","New Haven","CT",""
23,"5 DOUGLASS AV","New Haven","CT",""
24,"11 DOUGLASS AV","New Haven","CT",""
25,"17 DOUGLASS AV","New Haven","CT",""
26,"23 DOUGLASS AV","New Haven","CT",""
27,"29 DOUGLASS AV","New Haven","CT",""
28,"32 URIAH ST","New Haven","CT",""
29,"24 URIAH ST","New Haven","CT",""
30,"20 URIAH ST","New Haven","CT",""
31,"1 TOWNSEND AV","New Haven","CT",""
32,"1 TOWNSEND AV #A","New Haven","CT",""
33,"1 TOWNSEND AV #B","New Haven","CT",""
34,"9 TOWNSEND AV","New Haven","CT",""
35,"17 JOHNSTON ST","New Haven","CT",""
36,"30 DOUGLASS AV","New Haven","CT",""
37,"24 DOUGLASS AV","New Haven","CT",""
38,"20 DOUGLASS AV","New Haven","CT",""
39,"3 TOWNSEND AV","New Haven","CT",""
40,"3A TOWNSEND AV","New Haven","CT",""
41,"5 TOWNSEND AV","New Haven","CT",""
42,"7 TOWNSEND AV","New Haven","CT",""
43,"MORRIS CSWY","New Haven","CT",""
44,"URIAH ST","New Haven","CT",""
45,"MORRIS CSWY","New Haven","CT",""
46,"25 TOWNSEND AV","New Haven","CT",""
47,"19 MORRIS CSWY","New Haven","CT",""
48,"25 MORRIS CSWY","New Haven","CT",""
49,"31 MORRIS CSWY","New Haven","CT",""
50,"39 MORRIS CSWY","New Haven","CT",""
51,"43 MORRIS CSWY","New Haven","CT",""
52,"49 MORRIS CSWY","New Haven","CT",""
53,"11 TOWNSEND AV","New Haven","CT",""
54,"13 TOWNSEND AV","New Haven","CT",""
55,"15 TOWNSEND AV","New Haven","CT",""
56,"17 TOWNSEND AV","New Haven","CT",""
57,"19 TOWNSEND AV","New Haven","CT",""
58,"21 TOWNSEND AV","New Haven","CT",""
59,"1209 DEAN ST","New Haven","CT",""
60,"1227 DEAN ST","New Haven","CT",""
61,"1237 DEAN ST","New Haven","CT",""
62,"1251 DEAN ST","New Haven","CT",""
63,"DEAN ST","New Haven","CT",""
64,"1271 DEAN ST","New Haven","CT",""
65,"DEAN ST","New Haven","CT",""
66,"1285 DEAN ST","New Haven","CT",""
67,"1305 DEAN ST","New Haven","CT",""
68,"1327 DEAN ST","New Haven","CT",""
69,"191 BURR ST","New Haven","CT",""
70,"269 BURR ST","New Haven","CT",""
71,"353 BURR ST","New Haven","CT",""
72,"425 DODGE AV","New Haven","CT",""
73,"392 BURR ST","New Haven","CT",""
74,"400 BURR ST #1","New Haven","CT",""
75,"400 BURR ST #2","New Haven","CT",""
76,"400 BURR ST #3","New Haven","CT",""
77,"396 BURR ST #4","New Haven","CT",""
78,"400 BURR ST #5","New Haven","CT",""
79,"400 BURR ST #6","New Haven","CT",""
80,"400 BURR ST #7","New Haven","CT",""
81,"400 BURR ST #8","New Haven","CT",""
82,"400 BURR ST #9","New Haven","CT",""
83,"392 BURR ST","New Haven","CT",""
84,"384 BURR ST","New Haven","CT",""
85,"374 BURR ST","New Haven","CT",""
86,"366 BURR ST","New Haven","CT",""
87,"360 BURR ST","New Haven","CT",""
88,"354 BURR ST","New Haven","CT",""
89,"348 BURR ST","New Haven","CT",""
90,"344 BURR ST","New Haven","CT",""
91,"342 BURR ST","New Haven","CT",""
92,"340 BURR ST","New Haven","CT",""
93,"336 BURR ST","New Haven","CT",""
94,"330 BURR ST","New Haven","CT",""
95,"320 BURR ST","New Haven","CT",""
96,"310 BURR ST","New Haven","CT",""
97,"175 TOWNSEND TER","New Haven","CT",""
98,"155 TOWNSEND TER","New Haven","CT",""
99,"147 TOWNSEND TER","New Haven","CT",""
100,"135 TOWNSEND TER","New Haven","CT",""
101,"215 HYDE ST","New Haven","CT",""
102,"223 HYDE ST","New Haven","CT",""
103,"235 HYDE ST","New Haven","CT",""
104,"118 TOWNSEND TER","New Haven","CT",""
105,"126 TOWNSEND TER","New Haven","CT",""
106,"132 TOWNSEND TER","New Haven","CT",""
107,"140 TOWNSEND TER","New Haven","CT",""
108,"144 TOWNSEND TER","New Haven","CT",""
109,"150 TOWNSEND TER","New Haven","CT",""
110,"158 TOWNSEND TER","New Haven","CT",""
111,"164 TOWNSEND TER","New Haven","CT",""
112,"168 TOWNSEND TER","New Haven","CT",""
113,"172 TOWNSEND TER","New Haven","CT",""
114,"176 TOWNSEND TER","New Haven","CT",""
115,"400 BURR ST","New Haven","CT",""
116,"393 BURR ST","New Haven","CT",""
117,"15 HOLMES ST","New Haven","CT",""
118,"25 HOLMES ST","New Haven","CT",""
119,"437 BURR ST","New Haven","CT",""
120,"427 BURR ST","New Haven","CT",""
121,"419 BURR ST","New Haven","CT",""
122,"409 BURR ST","New Haven","CT",""
123,"401 BURR ST","New Haven","CT",""
124,"18 HOLMES ST","New Haven","CT",""
125,"BURR ST","New Haven","CT",""
126,"402 BURR ST","New Haven","CT",""
127,"404 BURR ST","New Haven","CT",""
128,"412 BURR ST","New Haven","CT",""
129,"416 BURR ST","New Haven","CT",""
130,"420 BURR ST","New Haven","CT",""
131,"434 BURR ST","New Haven","CT",""
132,"440 BURR ST","New Haven","CT",""
133,"408 BURR ST","New Haven","CT",""
134,"428 BURR ST","New Haven","CT",""
135,"44 LAURA LA","New Haven","CT",""
136,"675 TOWNSEND AV #116","New Haven","CT",""
137,"675 TOWNSEND AV #117","New Haven","CT",""
138,"675 TOWNSEND AV #118","New Haven","CT",""
139,"675 TOWNSEND AV #119","New Haven","CT",""
140,"675 TOWNSEND AV #120","New Haven","CT",""
141,"675 TOWNSEND AV #121","New Haven","CT",""
142,"675 TOWNSEND AV #132","New Haven","CT",""
143,"675 TOWNSEND AV #133","New Haven","CT",""
144,"675 TOWNSEND AV #134","New Haven","CT",""
145,"675 TOWNSEND AV #135","New Haven","CT",""
146,"675 TOWNSEND AV #136","New Haven","CT",""
147,"675 TOWNSEND AV #137","New Haven","CT",""
148,"675 TOWNSEND AV #138","New Haven","CT",""
149,"675 TOWNSEND AV #139","New Haven","CT",""
150,"675 TOWNSEND AV #140","New Haven","CT",""
151,"675 TOWNSEND AV #141","New Haven","CT",""
152,"675 TOWNSEND AV #142","New Haven","CT",""
153,"675 TOWNSEND AV #143","New Haven","CT",""
154,"675 TOWNSEND AV #154","New Haven","CT",""
155,"675 TOWNSEND AV #155","New Haven","CT",""
156,"675 TOWNSEND AV #156","New Haven","CT",""
157,"675 TOWNSEND AV #157","New Haven","CT",""
158,"675 TOWNSEND AV #158","New Haven","CT",""
159,"675 TOWNSEND AV #159","New Haven","CT",""
160,"675 TOWNSEND AV #160","New Haven","CT",""
161,"675 TOWNSEND AV #161","New Haven","CT",""
162,"675 TOWNSEND AV #162","New Haven","CT",""
163,"675 TOWNSEND AV #163","New Haven","CT",""
164,"675 TOWNSEND AV #164","New Haven","CT",""
165,"675 TOWNSEND AV #165","New Haven","CT",""
166,"675 TOWNSEND AV #166","New Haven","CT",""
167,"675 TOWNSEND AV #167","New Haven","CT",""
168,"675 TOWNSEND AV #168","New Haven","CT",""
169,"675 TOWNSEND AV #169","New Haven","CT",""
170,"675 TOWNSEND AV #170","New Haven","CT",""
171,"675 TOWNSEND AV #171","New Haven","CT",""
172,"675 TOWNSEND AV #178","New Haven","CT",""
173,"675 TOWNSEND AV #179","New Haven","CT",""
174,"675 TOWNSEND AV #180","New Haven","CT",""
175,"675 TOWNSEND AV #181","New Haven","CT",""
176,"675 TOWNSEND AV #190","New Haven","CT",""
177,"675 TOWNSEND AV #191","New Haven","CT",""
178,"675 TOWNSEND AV #192","New Haven","CT",""
179,"675 TOWNSEND AV #193","New Haven","CT",""
180,"675 TOWNSEND AV #186","New Haven","CT",""
181,"675 TOWNSEND AV #187","New Haven","CT",""
182,"675 TOWNSEND AV #188","New Haven","CT",""
183,"675 TOWNSEND AV #189","New Haven","CT",""
184,"675 TOWNSEND AV #182","New Haven","CT",""
185,"675 TOWNSEND AV #183","New Haven","CT",""
186,"675 TOWNSEND AV #184","New Haven","CT",""
187,"675 TOWNSEND AV #185","New Haven","CT",""
188,"675 TOWNSEND AV #176","New Haven","CT",""
189,"675 TOWNSEND AV #177","New Haven","CT",""
190,"675 TOWNSEND AV #172","New Haven","CT",""
191,"675 TOWNSEND AV #173","New Haven","CT",""
192,"675 TOWNSEND AV #174","New Haven","CT",""
193,"675 TOWNSEND AV #175","New Haven","CT",""
194,"675 TOWNSEND AV #152","New Haven","CT",""
195,"675 TOWNSEND AV #153","New Haven","CT",""
196,"675 TOWNSEND AV #148","New Haven","CT",""
197,"675 TOWNSEND AV #149","New Haven","CT",""
198,"675 TOWNSEND AV #150","New Haven","CT",""
199,"675 TOWNSEND AV #151","New Haven","CT",""
200,"675 TOWNSEND AV #144","New Haven","CT",""
201,"675 TOWNSEND AV #145","New Haven","CT",""
202,"675 TOWNSEND AV #146","New Haven","CT",""
203,"675 TOWNSEND AV #147","New Haven","CT",""
204,"675 TOWNSEND AV #128","New Haven","CT",""
205,"675 TOWNSEND AV #129","New Haven","CT",""
206,"675 TOWNSEND AV #130","New Haven","CT",""
207,"675 TOWNSEND AV #131","New Haven","CT",""
208,"675 TOWNSEND AV #126","New Haven","CT",""
209,"675 TOWNSEND AV #127","New Haven","CT",""
210,"675 TOWNSEND AV #122","New Haven","CT",""
211,"675 TOWNSEND AV #123","New Haven","CT",""
212,"675 TOWNSEND AV #124","New Haven","CT",""
213,"675 TOWNSEND AV #125","New Haven","CT",""
214,"675 TOWNSEND AV #112","New Haven","CT",""
215,"675 TOWNSEND AV #113","New Haven","CT",""
216,"675 TOWNSEND AV #114","New Haven","CT",""
217,"675 TOWNSEND AV #115","New Haven","CT",""
218,"675 TOWNSEND AV #108","New Haven","CT",""
219,"675 TOWNSEND AV #109","New Haven","CT",""
220,"675 TOWNSEND AV #110","New Haven","CT",""
221,"675 TOWNSEND AV #111","New Haven","CT",""
222,"675 TOWNSEND AV #104","New Haven","CT",""
223,"675 TOWNSEND AV #105","New Haven","CT",""
224,"675 TOWNSEND AV #106","New Haven","CT",""
225,"675 TOWNSEND AV #107","New Haven","CT",""
226,"675 TOWNSEND AV #101","New Haven","CT",""
227,"675 TOWNSEND AV #102","New Haven","CT",""
228,"675 TOWNSEND AV #103","New Haven","CT",""
229,"108 LAURA LA","New Haven","CT",""
230,"102 LAURA LA","New Haven","CT",""
231,"96 LAURA LA","New Haven","CT",""
232,"LAURA LA","New Haven","CT",""
233,"LAURA LA","New Haven","CT",""
234,"86 LAURA LA","New Haven","CT",""
235,"80 LAURA LA","New Haven","CT",""
236,"76 LAURA LA","New Haven","CT",""
237,"72 LAURA LA","New Haven","CT",""
238,"68 LAURA LA","New Haven","CT",""
239,"62 LAURA LA","New Haven","CT",""
240,"56 LAURA LA","New Haven","CT",""
241,"50 LAURA LA","New Haven","CT",""
242,"46 LAURA LA","New Haven","CT",""
243,"42 LAURA LA","New Haven","CT",""
244,"38 LAURA LA","New Haven","CT",""
245,"32 LAURA LA","New Haven","CT",""
246,"24 LAURA LA","New Haven","CT",""
247,"16 LAURA LA","New Haven","CT",""
248,"10 LAURA LA","New Haven","CT",""
249,"4 LAURA LA","New Haven","CT",""
250,"115 LAURA LA","New Haven","CT",""
251,"107 LAURA LA","New Haven","CT",""
252,"101 LAURA LA","New Haven","CT",""
253,"95 LAURA LA","New Haven","CT",""
254,"87 LAURA LA","New Haven","CT",""
255,"81 LAURA LA","New Haven","CT",""
256,"35 LAURA LA","New Haven","CT",""
257,"29 LAURA LA","New Haven","CT",""
258,"23 LAURA LA","New Haven","CT",""
259,"17 LAURA LA","New Haven","CT",""
260,"11 LAURA LA","New Haven","CT",""
261,"5 LAURA LA","New Haven","CT",""
262,"159 HUNTINGTON RD","New Haven","CT",""
263,"157 HUNTINGTON RD","New Haven","CT",""
264,"151 HUNTINGTON RD","New Haven","CT",""
265,"155 HUNTINGTON RD","New Haven","CT",""
266,"145 HUNTINGTON RD","New Haven","CT",""
267,"137 HUNTINGTON RD","New Haven","CT",""
268,"129 HUNTINGTON RD","New Haven","CT",""
269,"123 HUNTINGTON RD","New Haven","CT",""
270,"115 HUNTINGTON RD","New Haven","CT",""
271,"107 HUNTINGTON RD","New Haven","CT",""
272,"99 HUNTINGTON RD","New Haven","CT",""
273,"91 HUNTINGTON RD","New Haven","CT",""
274,"83 HUNTINGTON RD","New Haven","CT",""
275,"75 HUNTINGTON RD","New Haven","CT",""
276,"65 HUNTINGTON RD","New Haven","CT",""
277,"44 ELIZABETH ANN DR","New Haven","CT",""
278,"52 ELIZABETH ANN DR","New Haven","CT",""
279,"56 ELIZABETH ANN DR","New Haven","CT",""
280,"60 ELIZABETH ANN DR","New Haven","CT",""
281,"66 ELIZABETH ANN DR","New Haven","CT",""
282,"CHARTER OAK AV","New Haven","CT",""
283,"CHARTER OAK AV","New Haven","CT",""
284,"CHARTER OAK AV","New Haven","CT",""
285,"CHARTER OAK AV","New Haven","CT",""
286,"CHARTER OAK AV","New Haven","CT",""
287,"CHARTER OAK AV","New Haven","CT",""
288,"125 HUNTINGTON RD","New Haven","CT",""
289,"CHARTER OAK AV","New Haven","CT",""
290,"CHARTER OAK AV","New Haven","CT",""
291,"4 HUGHES ST EX","New Haven","CT",""
292,"8 HUGHES ST EX","New Haven","CT",""
293,"72 ELIZABETH ANN DR","New Haven","CT",""
294,"78 ELIZABETH ANN DR","New Haven","CT",""
295,"84 ELIZABETH ANN DR","New Haven","CT",""
296,"88 ELIZABETH ANN DR","New Haven","CT",""
297,"94 ELIZABETH ANN DR","New Haven","CT",""
298,"100 ELIZABETH ANN DR","New Haven","CT",""
299,"104 ELIZABETH ANN DR","New Haven","CT",""
300,"110 ELIZABETH ANN DR","New Haven","CT",""
301,"118 ELIZABETH ANN DR","New Haven","CT",""
302,"124 ELIZABETH ANN DR","New Haven","CT",""
303,"132 ELIZABETH ANN DR","New Haven","CT",""
304,"138 ELIZABETH ANN DR","New Haven","CT",""
305,"146 ELIZABETH ANN DR","New Haven","CT",""
306,"5 MASSACHUSETTS AV","New Haven","CT",""
307,"11 MASSACHUSETTS AV","New Haven","CT",""
308,"MASSACHUSETTS AV","New Haven","CT",""
309,"75 ELIZABETH ANN DR","New Haven","CT",""
310,"55 ELIZABETH ANN DR","New Haven","CT",""
311,"49 ELIZABETH ANN DR","New Haven","CT",""
312,"41 ELIZABETH ANN DR","New Haven","CT",""
313,"35 ELIZABETH ANN DR","New Haven","CT",""
314,"29 ELIZABETH ANN DR","New Haven","CT",""
315,"21 ELIZABETH ANN DR","New Haven","CT",""
316,"15 ELIZABETH ANN DR","New Haven","CT",""
317,"7 ELIZABETH ANN DR","New Haven","CT",""
318,"CLARENDON ST","New Haven","CT",""
319,"147 ELIZABETH ANN DR","New Haven","CT",""
320,"141 ELIZABETH ANN DR","New Haven","CT",""
321,"131 ELIZABETH ANN DR","New Haven","CT",""
322,"125 ELIZABETH ANN DR","New Haven","CT",""
323,"117 ELIZABETH ANN DR","New Haven","CT",""
324,"103 ELIZABETH ANN DR","New Haven","CT",""
325,"109 ELIZABETH ANN DR","New Haven","CT",""
326,"83 ELIZABETH ANN DR","New Haven","CT",""
327,"53 HUNTINGTON RD","New Haven","CT",""
328,"41 HUNTINGTON RD","New Haven","CT",""
329,"37 HUNTINGTON RD","New Haven","CT",""
330,"29 HUNTINGTON RD","New Haven","CT",""
331,"23 HUNTINGTON RD","New Haven","CT",""
332,NA,"New Haven","CT",""
333,"87 CLARENDON ST","New Haven","CT",""
334,"95 CLARENDON ST","New Haven","CT",""
335,"105 CLARENDON ST","New Haven","CT",""
336,"8 ELIZABETH ANN DR","New Haven","CT",""
337,"18 ELIZABETH ANN DR","New Haven","CT",""
338,"28 ELIZABETH ANN DR","New Haven","CT",""
339,"32 ELIZABETH ANN DR","New Haven","CT",""
340,"821 TOWNSEND AV","New Haven","CT",""
341,"29 SOUND VIEW TER","New Haven","CT",""
342,"39 SOUND VIEW TER","New Haven","CT",""
343,"49 SOUND VIEW TER","New Haven","CT",""
344,"59 SOUND VIEW TER","New Haven","CT",""
345,"75 SOUND VIEW TER","New Haven","CT",""
346,"85 SOUND VIEW TER","New Haven","CT",""
347,"95 SOUND VIEW TER","New Haven","CT",""
348,"105 SOUND VIEW TER","New Haven","CT",""
349,"115 SOUND VIEW TER","New Haven","CT",""
350,"125 SOUND VIEW TER","New Haven","CT",""
351,"135 SOUND VIEW TER","New Haven","CT",""
352,"145 SOUND VIEW TER","New Haven","CT",""
353,"4 HORSLEY AV","New Haven","CT",""
354,"2 HORSLEY AV","New Haven","CT",""
355,"HORSLEY AV","New Haven","CT",""
356,"TUTTLE DR","New Haven","CT",""
357,"174 TUTTLE DR","New Haven","CT",""
358,"168 TUTTLE DR","New Haven","CT",""
359,"160 TUTTLE DR","New Haven","CT",""
360,"150 TUTTLE DR","New Haven","CT",""
361,"144 TUTTLE DR","New Haven","CT",""
362,"136 TUTTLE DR","New Haven","CT",""
363,"128 TUTTLE DR","New Haven","CT",""
364,"120 TUTTLE DR","New Haven","CT",""
365,"112 TUTTLE DR","New Haven","CT",""
366,"104 TUTTLE DR","New Haven","CT",""
367,"785 TOWNSEND AV","New Haven","CT",""
368,"795 TOWNSEND AV","New Haven","CT",""
369,"801 TOWNSEND AV","New Haven","CT",""
370,"TOWNSEND AV","New Haven","CT",""
371,"809 TOWNSEND AV","New Haven","CT",""
372,"91 HORSLEY AV","New Haven","CT",""
373,"265 UPSON TER","New Haven","CT",""
374,"285 UPSON TER","New Haven","CT",""
375,"40 HOPKINS DR","New Haven","CT",""
376,"30 HOPKINS DR","New Haven","CT",""
377,"22 HOPKINS DR","New Haven","CT",""
378,"14 HOPKINS DR","New Haven","CT",""
379,"8 HOPKINS DR","New Haven","CT",""
380,"4 HOPKINS DR","New Haven","CT",""
381,"HORSLEY AV","New Haven","CT",""
382,"1 HORSLEY AV","New Haven","CT",""
383,"5 HORSLEY AV","New Haven","CT",""
384,"11 HORSLEY AV","New Haven","CT",""
385,"35 HORSLEY AV","New Haven","CT",""
386,"45 HORSLEY AV","New Haven","CT",""
387,"61 HORSLEY AV","New Haven","CT",""
388,"75 HORSLEY AV","New Haven","CT",""
389,"305 UPSON TER","New Haven","CT",""
390,"335 UPSON TER","New Haven","CT",""
391,"112 HUNTINGTON RD","New Haven","CT",""
392,"120 HUNTINGTON RD","New Haven","CT",""
393,"128 HUNTINGTON RD","New Haven","CT",""
394,"136 HUNTINGTON RD","New Haven","CT",""
395,"144 HUNTINGTON RD","New Haven","CT",""
396,"150 HUNTINGTON RD","New Haven","CT",""
397,"160 HUNTINGTON RD","New Haven","CT",""
398,"HOPKINS DR","New Haven","CT",""
399,"3 HOPKINS DR","New Haven","CT",""
400,"5 HOPKINS DR","New Haven","CT",""
401,"15 HOPKINS DR","New Haven","CT",""
402,"19 HOPKINS DR","New Haven","CT",""
403,"25 HOPKINS DR","New Haven","CT",""
404,"39 HOPKINS DR","New Haven","CT",""
405,"873 TOWNSEND AV","New Haven","CT",""
406,"131 UPSON TER","New Haven","CT",""
407,"20 LEROY TER","New Haven","CT",""
408,"16 LEROY TER","New Haven","CT",""
409,"60 SOUND VIEW TER","New Haven","CT",""
410,"44 SOUND VIEW TER","New Haven","CT",""
411,"30 SOUND VIEW TER","New Haven","CT",""
412,"835 TOWNSEND AV","New Haven","CT",""
413,"845 TOWNSEND AV","New Haven","CT",""
414,"853 TOWNSEND AV","New Haven","CT",""
415,"LEROY TER","New Haven","CT",""
416,"155 UPSON TER","New Haven","CT",""
417,"165 UPSON TER","New Haven","CT",""
418,"175 UPSON TER","New Haven","CT",""
419,"185 UPSON TER","New Haven","CT",""
420,"195 UPSON TER","New Haven","CT",""
421,"205 UPSON TER","New Haven","CT",""
422,"215 UPSON TER","New Haven","CT",""
423,"140 SOUND VIEW TER","New Haven","CT",""
424,"70 HORSLEY AV","New Haven","CT",""
425,"136 SOUND VIEW TER","New Haven","CT",""
426,"126 SOUND VIEW TER","New Haven","CT",""
427,"114 SOUND VIEW TER","New Haven","CT",""
428,"104 SOUND VIEW TER","New Haven","CT",""
429,"92 SOUND VIEW TER","New Haven","CT",""
430,"80 SOUND VIEW TER","New Haven","CT",""
431,"15 LEROY TER","New Haven","CT",""
432,"773 TOWNSEND AV","New Haven","CT",""
433,"105 TUTTLE DR","New Haven","CT",""
434,"115 TUTTLE DR","New Haven","CT",""
435,"123 TUTTLE DR","New Haven","CT",""
436,"129 TUTTLE DR","New Haven","CT",""
437,"139 TUTTLE DR","New Haven","CT",""
438,"147 TUTTLE DR","New Haven","CT",""
439,"155 TUTTLE DR","New Haven","CT",""
440,"167 TUTTLE DR","New Haven","CT",""
441,"171 TUTTLE DR","New Haven","CT",""
442,"110 TOWNSEND TER","New Haven","CT",""
443,"102 TOWNSEND TER","New Haven","CT",""
444,"96 TOWNSEND TER","New Haven","CT",""
445,"90 TOWNSEND TER","New Haven","CT",""
446,"84 TOWNSEND TER","New Haven","CT",""
447,"80 TOWNSEND TER","New Haven","CT",""
448,"72 TOWNSEND TER","New Haven","CT",""
449,"66 TOWNSEND TER","New Haven","CT",""
450,"60 TOWNSEND TER","New Haven","CT",""
451,"52 TOWNSEND TER","New Haven","CT",""
452,"46 TOWNSEND TER","New Haven","CT",""
453,"38 TOWNSEND TER","New Haven","CT",""
454,"30 TOWNSEND TER","New Haven","CT",""
455,"22 TOWNSEND TER","New Haven","CT",""
456,"663 TOWNSEND AV","New Haven","CT",""
457,"701 TOWNSEND AV","New Haven","CT",""
458,"TOWNSEND AV","New Haven","CT",""
459,"709 TOWNSEND AV","New Haven","CT",""
460,"725 TOWNSEND AV","New Haven","CT",""
461,"745 TOWNSEND AV","New Haven","CT",""
462,"757 TOWNSEND AV","New Haven","CT",""
463,"765 TOWNSEND AV","New Haven","CT",""
464,"601 TOWNSEND AV","New Haven","CT",""
465,"23 HALL ST","New Haven","CT",""
466,"27 HALL ST","New Haven","CT",""
467,"33 HALL ST","New Haven","CT",""
468,"41 HALL ST","New Haven","CT",""
469,"47 HALL ST","New Haven","CT",""
470,"55 HALL ST","New Haven","CT",""
471,"61 HALL ST","New Haven","CT",""
472,"65 HALL ST","New Haven","CT",""
473,"71 HALL ST","New Haven","CT",""
474,"77 HALL ST","New Haven","CT",""
475,"83 HALL ST","New Haven","CT",""
476,"89 HALL ST","New Haven","CT",""
477,"95 HALL ST","New Haven","CT",""
478,"103 HALL ST","New Haven","CT",""
479,"105 HALL ST","New Haven","CT",""
480,"424 FORT HALE RD","New Haven","CT",""
481,"408 FORT HALE RD","New Haven","CT",""
482,"400 FORT HALE RD","New Haven","CT",""
483,"386 FORT HALE RD","New Haven","CT",""
484,"368 FORT HALE RD","New Haven","CT",""
485,"FORT HALE RD","New Haven","CT",""
486,"350 FORT HALE RD","New Haven","CT",""
487,"340 FORT HALE RD","New Haven","CT",""
488,"330 FORT HALE RD","New Haven","CT",""
489,"320 FORT HALE RD","New Haven","CT",""
490,"306 FORT HALE RD","New Haven","CT",""
491,"294 FORT HALE RD","New Haven","CT",""
492,"280 FORT HALE RD","New Haven","CT",""
493,"270 FORT HALE RD","New Haven","CT",""
494,"260 FORT HALE RD","New Haven","CT",""
495,"581 TOWNSEND AV","New Haven","CT",""
496,"591 TOWNSEND AV","New Haven","CT",""
497,"106 HALL ST","New Haven","CT",""
498,"100 HALL ST","New Haven","CT",""
499,"94 HALL ST","New Haven","CT",""
500,"88 HALL ST","New Haven","CT",""
501,"82 HALL ST","New Haven","CT",""
502,"76 HALL ST","New Haven","CT",""
503,"72 HALL ST","New Haven","CT",""
504,"66 HALL ST","New Haven","CT",""
505,"60 HALL ST","New Haven","CT",""
506,"54 HALL ST","New Haven","CT",""
507,"46 HALL ST","New Haven","CT",""
508,"40 HALL ST","New Haven","CT",""
509,"34 HALL ST","New Haven","CT",""
510,"28 HALL ST","New Haven","CT",""
511,"22 HALL ST","New Haven","CT",""
512,"HALL ST","New Haven","CT",""
513,"8 HALL ST","New Haven","CT",""
514,"621 TOWNSEND AV","New Haven","CT",""
515,"635 TOWNSEND AV","New Haven","CT",""
516,"641 TOWNSEND AV","New Haven","CT",""
517,"49 TOWNSEND TER","New Haven","CT",""
518,"645 TOWNSEND AV","New Haven","CT",""
519,"655 TOWNSEND AV","New Haven","CT",""
520,"25 TOWNSEND TER","New Haven","CT",""
521,"33 TOWNSEND TER","New Haven","CT",""
522,"37 TOWNSEND TER","New Haven","CT",""
523,"43 TOWNSEND TER","New Haven","CT",""
524,"TOWNSEND TER","New Haven","CT",""
525,"51 TOWNSEND TER","New Haven","CT",""
526,"59 TOWNSEND TER","New Haven","CT",""
527,"65 TOWNSEND TER","New Haven","CT",""
528,"71 TOWNSEND TER","New Haven","CT",""
529,"77 TOWNSEND TER","New Haven","CT",""
530,"85 TOWNSEND TER","New Haven","CT",""
531,"91 TOWNSEND TER","New Haven","CT",""
532,"99 TOWNSEND TER","New Haven","CT",""
533,"105 TOWNSEND TER","New Haven","CT",""
534,"111 TOWNSEND TER","New Haven","CT",""
535,"220 HYDE ST","New Haven","CT",""
536,"15 TOLLI TER","New Haven","CT",""
537,"19 TOLLI TER","New Haven","CT",""
538,"27 TOLLI TER","New Haven","CT",""
539,"35 TOLLI TER","New Haven","CT",""
540,"43 TOLLI TER","New Haven","CT",""
541,"59 TOLLI TER","New Haven","CT",""
542,"52 TOLLI TER","New Haven","CT",""
543,"48 TOLLI TER","New Haven","CT",""
544,"40 TOLLI TER","New Haven","CT",""
545,"30 TOLLI TER","New Haven","CT",""
546,"20 TOLLI TER","New Haven","CT",""
547,"10 TOLLI TER","New Haven","CT",""
548,"4 TOLLI TER","New Haven","CT",""
549,"503 TOWNSEND AV","New Haven","CT",""
550,"STUYVESANT AV","New Haven","CT",""
551,"21 STUYVESANT AV","New Haven","CT",""
552,"27 STUYVESANT AV","New Haven","CT",""
553,"33 STUYVESANT AV","New Haven","CT",""
554,"41 STUYVESANT AV","New Haven","CT",""
555,"45 STUYVESANT AV","New Haven","CT",""
556,"47 STUYVESANT AV","New Haven","CT",""
557,"53 STUYVESANT AV","New Haven","CT",""
558,"57 STUYVESANT AV","New Haven","CT",""
559,"61 STUYVESANT AV","New Haven","CT",""
560,"65 STUYVESANT AV","New Haven","CT",""
561,"71 STUYVESANT AV","New Haven","CT",""
562,"75 STUYVESANT AV","New Haven","CT",""
563,"87 STUYVESANT AV","New Haven","CT",""
564,"88 HYDE ST","New Haven","CT",""
565,"82 HYDE ST","New Haven","CT",""
566,"74 HYDE ST","New Haven","CT",""
567,"76 GIRARD AV","New Haven","CT",""
568,"70 GIRARD AV","New Haven","CT",""
569,"64 GIRARD AV","New Haven","CT",""
570,"56 GIRARD AV","New Haven","CT",""
571,"52 GIRARD AV","New Haven","CT",""
572,"48 GIRARD AV","New Haven","CT",""
573,"44 GIRARD AV","New Haven","CT",""
574,"38 GIRARD AV","New Haven","CT",""
575,"32 GIRARD AV","New Haven","CT",""
576,"24 GIRARD AV","New Haven","CT",""
577,"18 GIRARD AV","New Haven","CT",""
578,"483 TOWNSEND AV","New Haven","CT",""
579,"487 TOWNSEND AV","New Haven","CT",""
580,"493 TOWNSEND AV","New Haven","CT",""
581,"497 TOWNSEND AV","New Haven","CT",""
582,"565 TOWNSEND AV","New Haven","CT",""
583,"255 FORT HALE RD","New Haven","CT",""
584,"267 FORT HALE RD","New Haven","CT",""
585,"287 FORT HALE RD","New Haven","CT",""
586,"303 FORT HALE RD","New Haven","CT",""
587,"315 FORT HALE RD","New Haven","CT",""
588,"325 FORT HALE RD","New Haven","CT",""
589,"339 FORT HALE RD","New Haven","CT",""
590,"355 FORT HALE RD","New Haven","CT",""
591,"369 FORT HALE RD","New Haven","CT",""
592,"387 FORT HALE RD","New Haven","CT",""
593,"405 FORT HALE RD","New Haven","CT",""
594,"425 FORT HALE RD","New Haven","CT",""
595,"136 HYDE ST","New Haven","CT",""
596,"130 HYDE ST","New Haven","CT",""
597,"126 HYDE ST","New Haven","CT",""
598,"120 HYDE ST","New Haven","CT",""
599,"116 HYDE ST","New Haven","CT",""
600,"108 HYDE ST","New Haven","CT",""
601,"76 STUYVESANT AV","New Haven","CT",""
602,NA,"New Haven","CT",""
603,"72 STUYVESANT AV","New Haven","CT",""
604,"68 STUYVESANT AV","New Haven","CT",""
605,"62 STUYVESANT AV","New Haven","CT",""
606,"58 STUYVESANT AV","New Haven","CT",""
607,"52 STUYVESANT AV","New Haven","CT",""
608,"48 STUYVESANT AV","New Haven","CT",""
609,"42 STUYVESANT AV","New Haven","CT",""
610,"38 STUYVESANT AV","New Haven","CT",""
611,"30 STUYVESANT AV","New Haven","CT",""
612,"16 STUYVESANT AV","New Haven","CT",""
613,"14 STUYVESANT AV","New Haven","CT",""
614,"511 TOWNSEND AV","New Haven","CT",""
615,"519 TOWNSEND AV","New Haven","CT",""
616,"523 TOWNSEND AV","New Haven","CT",""
617,"527 TOWNSEND AV","New Haven","CT",""
618,"535 TOWNSEND AV","New Haven","CT",""
619,"541 TOWNSEND AV","New Haven","CT",""
620,"551 TOWNSEND AV","New Haven","CT",""
621,"555 TOWNSEND AV","New Haven","CT",""
622,"73 HYDE ST","New Haven","CT",""
623,"77 HYDE ST","New Haven","CT",""
624,"81 HYDE ST","New Haven","CT",""
625,"85 HYDE ST","New Haven","CT",""
626,"91 HYDE ST","New Haven","CT",""
627,"97 HYDE ST","New Haven","CT",""
628,"111 STUYVESANT AV","New Haven","CT",""
629,"121 STUYVESANT AV","New Haven","CT",""
630,"14 STEWART ST","New Haven","CT",""
631,"STEWART ST","New Haven","CT",""
632,"112 GIRARD AV","New Haven","CT",""
633,"104 GIRARD AV","New Haven","CT",""
634,"5 STEWART ST","New Haven","CT",""
635,"21 STEWART ST","New Haven","CT",""
636,"137 STUYVESANT AV","New Haven","CT",""
637,"143 STUYVESANT AV","New Haven","CT",""
638,"145 STUYVESANT AV","New Haven","CT",""
639,"204 BURR ST","New Haven","CT",""
640,"174 BURR ST","New Haven","CT",""
641,"140 GIRARD AV","New Haven","CT",""
642,"132 GIRARD AV","New Haven","CT",""
643,"105 HYDE ST","New Haven","CT",""
644,"109 HYDE ST","New Haven","CT",""
645,"115 HYDE ST","New Haven","CT",""
646,"121 HYDE ST","New Haven","CT",""
647,"127 HYDE ST","New Haven","CT",""
648,"133 HYDE ST","New Haven","CT",""
649,"141 HYDE ST","New Haven","CT",""
650,"471 FORT HALE RD","New Haven","CT",""
651,"FORT HALE RD","New Haven","CT",""
652,NA,"New Haven","CT",""
653,"487 FORT HALE RD","New Haven","CT",""
654,"495 FORT HALE RD","New Haven","CT",""
655,"54 STEWART ST","New Haven","CT",""
656,"50 STEWART ST","New Haven","CT",""
657,"44 STEWART ST","New Haven","CT",""
658,"120 STUYVESANT AV","New Haven","CT",""
659,"35 STEWART ST","New Haven","CT",""
660,"41 STEWART ST","New Haven","CT",""
661,"43 STEWART ST","New Haven","CT",""
662,"49 STEWART ST","New Haven","CT",""
663,"57 STEWART ST","New Haven","CT",""
664,"515 FORT HALE RD","New Haven","CT",""
665,"535 FORT HALE RD","New Haven","CT",""
666,"555 FORT HALE RD","New Haven","CT",""
667,"569 FORT HALE RD","New Haven","CT",""
668,"585 FORT HALE RD","New Haven","CT",""
669,"230 BURR ST","New Haven","CT",""
670,"226 BURR ST","New Haven","CT",""
671,"220 BURR ST","New Haven","CT",""
672,"210 BURR ST","New Haven","CT",""
673,"150 STUYVESANT AV","New Haven","CT",""
674,"146 STUYVESANT AV","New Haven","CT",""
675,"151 HYDE ST","New Haven","CT",""
676,"159 HYDE ST","New Haven","CT",""
677,"165 HYDE ST","New Haven","CT",""
678,"119 HALL ST","New Haven","CT",""
679,"129 HALL ST","New Haven","CT",""
680,"137 HALL ST","New Haven","CT",""
681,"145 HALL ST","New Haven","CT",""
682,"151 HALL ST","New Haven","CT",""
683,"155 HALL ST","New Haven","CT",""
684,"159 HALL ST","New Haven","CT",""
685,"163 HALL ST","New Haven","CT",""
686,"175 HALL ST","New Haven","CT",""
687,"274 BURR ST","New Haven","CT",""
688,"266 BURR ST","New Haven","CT",""
689,"258 BURR ST","New Haven","CT",""
690,"250 BURR ST","New Haven","CT",""
691,"570 FORT HALE RD","New Haven","CT",""
692,"550 FORT HALE RD","New Haven","CT",""
693,"540 FORT HALE RD","New Haven","CT",""
694,"530 FORT HALE RD","New Haven","CT",""
695,"520 FORT HALE RD","New Haven","CT",""
696,"510 FORT HALE RD","New Haven","CT",""
697,"488 FORT HALE RD","New Haven","CT",""
698,"478 FORT HALE RD","New Haven","CT",""
699,"468 FORT HALE RD","New Haven","CT",""
700,"120 HALL ST","New Haven","CT",""
701,"203 HYDE ST","New Haven","CT",""
702,"211 HYDE ST","New Haven","CT",""
703,"296 BURR ST","New Haven","CT",""
704,"292 BURR ST","New Haven","CT",""
705,"286 BURR ST","New Haven","CT",""
706,"180 HALL ST","New Haven","CT",""
707,"HALL ST","New Haven","CT",""
708,"174 HALL ST","New Haven","CT",""
709,"180 TOWNSEND TER","New Haven","CT",""
710,"166 HALL ST","New Haven","CT",""
711,"158 HALL ST","New Haven","CT",""
712,"177 TOWNSEND TER","New Haven","CT",""
713,"148 HALL ST","New Haven","CT",""
714,"136 HALL ST","New Haven","CT",""
715,"130 HALL ST","New Haven","CT",""
716,"351 CONCORD ST","New Haven","CT",""
717,"87 BURR ST","New Haven","CT",""
718,"97 BURR ST","New Haven","CT",""
719,"103 BURR ST","New Haven","CT",""
720,"109 BURR ST","New Haven","CT",""
721,"1850 DEAN ST","New Haven","CT",""
722,"1840 DEAN ST","New Haven","CT",""
723,"1836 DEAN ST","New Haven","CT",""
724,"1832 DEAN ST","New Haven","CT",""
725,"1820 DEAN ST","New Haven","CT",""
726,"40 ELMER ST","New Haven","CT",""
727,"34 ELMER ST","New Haven","CT",""
728,"30 ELMER ST","New Haven","CT",""
729,"24 ELMER ST","New Haven","CT",""
730,"20 ELMER ST","New Haven","CT",""
731,"4 ELMER ST","New Haven","CT",""
732,"327 CONCORD ST","New Haven","CT",""
733,"331 CONCORD ST","New Haven","CT",""
734,"337 CONCORD ST","New Haven","CT",""
735,"341 CONCORD ST","New Haven","CT",""
736,"349 CONCORD ST","New Haven","CT",""
737,"BURR ST","New Haven","CT",""
738,"421 TOWNSEND AV","New Haven","CT",""
739,"385 TOWNSEND AV","New Haven","CT",""
740,"CONCORD ST","New Haven","CT",""
741,"398 CONCORD ST","New Haven","CT",""
742,"396 CONCORD ST","New Haven","CT",""
743,"388 CONCORD ST","New Haven","CT",""
744,"66 BURR ST","New Haven","CT",""
745,"54 BURR ST","New Haven","CT",""
746,"60 BURR ST","New Haven","CT",""
747,"44 BURR ST","New Haven","CT",""
748,"34 BURR ST","New Haven","CT",""
749,"431 TOWNSEND AV","New Haven","CT",""
750,"439 TOWNSEND AV","New Haven","CT",""
751,"15 LEY ST","New Haven","CT",""
752,"19 LEY ST","New Haven","CT",""
753,"25 LEY ST","New Haven","CT",""
754,"31 LEY ST","New Haven","CT",""
755,"37 LEY ST","New Haven","CT",""
756,"45 LEY ST","New Haven","CT",""
757,"51 LEY ST","New Haven","CT",""
758,"57 LEY ST","New Haven","CT",""
759,"63 LEY ST","New Haven","CT",""
760,"71 LEY ST","New Haven","CT",""
761,"77 LEY ST","New Haven","CT",""
762,"81 LEY ST","New Haven","CT",""
763,"89 LEY ST","New Haven","CT",""
764,"95 LEY ST","New Haven","CT",""
765,"110 BURR ST","New Haven","CT",""
766,"106 BURR ST","New Haven","CT",""
767,"104 BURR ST","New Haven","CT",""
768,"100 BURR ST","New Haven","CT",""
769,"375 CONCORD ST","New Haven","CT",""
770,"383 CONCORD ST","New Haven","CT",""
771,"473 TOWNSEND AV","New Haven","CT",""
772,"17 GIRARD AV","New Haven","CT",""
773,"23 GIRARD AV","New Haven","CT",""
774,"27 GIRARD AV","New Haven","CT",""
775,"33 GIRARD AV","New Haven","CT",""
776,"35 GIRARD AV","New Haven","CT",""
777,"37 GIRARD AV","New Haven","CT",""
778,"47 GIRARD AV","New Haven","CT",""
779,"51 GIRARD AV","New Haven","CT",""
780,"57 GIRARD AV","New Haven","CT",""
781,"GIRARD AV","New Haven","CT",""
782,"63 GIRARD AV","New Haven","CT",""
783,"69 GIRARD AV","New Haven","CT",""
784,"75 GIRARD AV","New Haven","CT",""
785,"79 GIRARD AV","New Haven","CT",""
786,"89 GIRARD AV","New Haven","CT",""
787,"95 GIRARD AV","New Haven","CT",""
788,"99 GIRARD AV","New Haven","CT",""
789,"105 GIRARD AV","New Haven","CT",""
790,"115 GIRARD AV","New Haven","CT",""
791,"119 GIRARD AV","New Haven","CT",""
792,"125 GIRARD AV","New Haven","CT",""
793,"133 GIRARD AV","New Haven","CT",""
794,"118 BURR ST","New Haven","CT",""
795,"100 LEY ST","New Haven","CT",""
796,"94 LEY ST","New Haven","CT",""
797,"90 LEY ST","New Haven","CT",""
798,"78 LEY ST","New Haven","CT",""
799,"74 LEY ST","New Haven","CT",""
800,"70 LEY ST","New Haven","CT",""
801,"68 LEY ST","New Haven","CT",""
802,"64 LEY ST","New Haven","CT",""
803,"54 LEY ST","New Haven","CT",""
804,"48 LEY ST","New Haven","CT",""
805,"42 LEY ST","New Haven","CT",""
806,"38 LEY ST","New Haven","CT",""
807,"34 LEY ST","New Haven","CT",""
808,"26 LEY ST","New Haven","CT",""
809,"24 LEY ST","New Haven","CT",""
810,"20 LEY ST","New Haven","CT",""
811,"445 TOWNSEND AV","New Haven","CT",""
812,"449 TOWNSEND AV","New Haven","CT",""
813,"455 TOWNSEND AV","New Haven","CT",""
814,"461 TOWNSEND AV","New Haven","CT",""
815,"155 BURR ST","New Haven","CT",""
816,"257 CONCORD ST","New Haven","CT",""
817,"15 ALFRED ST","New Haven","CT",""
818,"19 ALFRED ST","New Haven","CT",""
819,"23 ALFRED ST","New Haven","CT",""
820,"29 ALFRED ST","New Haven","CT",""
821,"37 ALFRED ST","New Haven","CT",""
822,"ALFRED ST","New Haven","CT",""
823,"47 ALFRED ST","New Haven","CT",""
824,"50 NELSON ST","New Haven","CT",""
825,"44 NELSON ST","New Haven","CT",""
826,"40 NELSON ST","New Haven","CT",""
827,"30 NELSON ST","New Haven","CT",""
828,"26 NELSON ST","New Haven","CT",""
829,"20 NELSON ST","New Haven","CT",""
830,"16 NELSON ST","New Haven","CT",""
831,"239 CONCORD ST","New Haven","CT",""
832,"245 CONCORD ST","New Haven","CT",""
833,"247 CONCORD ST","New Haven","CT",""
834,"253 CONCORD ST","New Haven","CT",""
835,NA,"New Haven","CT",""
836,"MYRON ST","New Haven","CT",""
837,"25 MYRON ST","New Haven","CT",""
838,"33 MYRON ST","New Haven","CT",""
839,"37 MYRON ST","New Haven","CT",""
840,"43 MYRON ST","New Haven","CT",""
841,"47 MYRON ST","New Haven","CT",""
842,"53 MYRON ST","New Haven","CT",""
843,"57 MYRON ST","New Haven","CT",""
844,"63 MYRON ST","New Haven","CT",""
845,"288 CONCORD ST","New Haven","CT",""
846,"280 CONCORD ST","New Haven","CT",""
847,"274 CONCORD ST","New Haven","CT",""
848,"270 CONCORD ST","New Haven","CT",""
849,"264 CONCORD ST","New Haven","CT",""
850,"260 CONCORD ST","New Haven","CT",""
851,"256 CONCORD ST","New Haven","CT",""
852,"58 FLORENCE AV","New Haven","CT",""
853,"54 FLORENCE AV","New Haven","CT",""
854,"52 FLORENCE AV","New Haven","CT",""
855,"46 FLORENCE AV","New Haven","CT",""
856,"40 FLORENCE AV","New Haven","CT",""
857,"4 DORCHESTER TER","New Haven","CT",""
858,"2 DORCHESTER TER","New Haven","CT",""
859,"34 FLORENCE AV","New Haven","CT",""
860,"26 FLORENCE AV","New Haven","CT",""
861,"22 FLORENCE AV","New Haven","CT",""
862,"18 FLORENCE AV","New Haven","CT",""
863,"255 TOWNSEND AV","New Haven","CT",""
864,"261 TOWNSEND AV","New Haven","CT",""
865,"265 TOWNSEND AV","New Haven","CT",""
866,"271 TOWNSEND AV","New Haven","CT",""
867,"277 TOWNSEND AV","New Haven","CT",""
868,"291 TOWNSEND AV","New Haven","CT",""
869,"295 TOWNSEND AV","New Haven","CT",""
870,"293 TOWNSEND AV","New Haven","CT",""
871,"299 TOWNSEND AV","New Haven","CT",""
872,"305 TOWNSEND AV","New Haven","CT",""
873,"309 TOWNSEND AV","New Haven","CT",""
874,"91 MYRON ST","New Haven","CT",""
875,"95 MYRON ST","New Haven","CT",""
876,"99 MYRON ST","New Haven","CT",""
877,"109 MYRON ST","New Haven","CT",""
878,"105 MYRON ST","New Haven","CT",""
879,"115 MYRON ST","New Haven","CT",""
880,"131 MYRON ST","New Haven","CT",""
881,"ALFRED ST","New Haven","CT",""
882,"38 ALFRED ST","New Haven","CT",""
883,"32 ALFRED ST","New Haven","CT",""
884,"28 ALFRED ST","New Haven","CT",""
885,"18 ALFRED ST","New Haven","CT",""
886,"16 ALFRED ST","New Haven","CT",""
887,"263 CONCORD ST","New Haven","CT",""
888,"273 CONCORD ST","New Haven","CT",""
889,"275 CONCORD ST","New Haven","CT",""
890,"281 CONCORD ST","New Haven","CT",""
891,"371 TOWNSEND AV","New Haven","CT",""
892,"17 BURR ST","New Haven","CT",""
893,"25 BURR ST","New Haven","CT",""
894,"7 IRA ST","New Haven","CT",""
895,"24 IRA ST","New Haven","CT",""
896,"20 IRA ST","New Haven","CT",""
897,"12 IRA ST","New Haven","CT",""
898,"2 IRA ST","New Haven","CT",""
899,"1A IRA ST","New Haven","CT",""
900,"325 TOWNSEND AV","New Haven","CT",""
901,"333 TOWNSEND AV","New Haven","CT",""
902,"TOWNSEND AV","New Haven","CT",""
903,"343 TOWNSEND AV","New Haven","CT",""
904,"341 TOWNSEND AV","New Haven","CT",""
905,"351 TOWNSEND AV","New Haven","CT",""
906,"357 TOWNSEND AV","New Haven","CT",""
907,"361 TOWNSEND AV","New Haven","CT",""
908,"365 TOWNSEND AV","New Haven","CT",""
909,"37 BURR ST","New Haven","CT",""
910,"39 BURR ST","New Haven","CT",""
911,"45 BURR ST","New Haven","CT",""
912,"55 BURR ST","New Haven","CT",""
913,"65 BURR ST","New Haven","CT",""
914,"346 CONCORD ST","New Haven","CT",""
915,"338 CONCORD ST","New Haven","CT",""
916,"334 CONCORD ST","New Haven","CT",""
917,"324 CONCORD ST","New Haven","CT",""
918,"320 CONCORD ST","New Haven","CT",""
919,"CONCORD ST","New Haven","CT",""
920,"72 MYRON ST","New Haven","CT",""
921,"64 MYRON ST","New Haven","CT",""
922,"60 MYRON ST","New Haven","CT",""
923,"MYRON ST","New Haven","CT",""
924,"1 IRA ST","New Haven","CT",""
925,"1B IRA ST","New Haven","CT",""
926,"1C IRA ST","New Haven","CT",""
927,"3 IRA ST","New Haven","CT",""
928,"5 IRA ST","New Haven","CT",""
929,"9 IRA ST","New Haven","CT",""
930,NA,"New Haven","CT",""
931,"21 IRA ST","New Haven","CT",""
932,"23 IRA ST","New Haven","CT",""
933,"5 ELMER ST","New Haven","CT",""
934,"7 ELMER ST","New Haven","CT",""
935,"15 ELMER ST","New Haven","CT",""
936,"25 ELMER ST","New Haven","CT",""
937,"35 ELMER ST","New Haven","CT",""
938,"1800 DEAN ST","New Haven","CT",""
939,"1760 DEAN ST","New Haven","CT",""
940,"130 MYRON ST","New Haven","CT",""
941,"DEAN ST","New Haven","CT",""
942,"124 MYRON ST","New Haven","CT",""
943,"118 MYRON ST","New Haven","CT",""
944,"112 MYRON ST","New Haven","CT",""
945,"106 MYRON ST","New Haven","CT",""
946,"100 MYRON ST","New Haven","CT",""
947,"96 MYRON ST","New Haven","CT",""
948,"297 CONCORD ST","New Haven","CT",""
949,"301 CONCORD ST","New Haven","CT",""
950,"307 CONCORD ST","New Haven","CT",""
951,"54 TOWNSEND AV","New Haven","CT",""
952,"TOWNSEND AV","New Haven","CT",""
953,"197 TOWNSEND AV","New Haven","CT",""
954,"15 PARKER PL","New Haven","CT",""
955,"21 PARKER PL","New Haven","CT",""
956,"25 PARKER PL","New Haven","CT",""
957,"29 PARKER PL","New Haven","CT",""
958,"35 PARKER PL","New Haven","CT",""
959,"37 PARKER PL","New Haven","CT",""
960,"41 PARKER PL","New Haven","CT",""
961,"45 PARKER PL","New Haven","CT",""
962,"51 PARKER PL","New Haven","CT",""
963,"55 PARKER PL","New Haven","CT",""
964,"52 BEECHER PL","New Haven","CT",""
965,"50 BEECHER PL","New Haven","CT",""
966,"46 BEECHER PL","New Haven","CT",""
967,"42 BEECHER PL","New Haven","CT",""
968,"38 BEECHER PL","New Haven","CT",""
969,"34 BEECHER PL","New Haven","CT",""
970,"26 BEECHER PL","New Haven","CT",""
971,"18 BEECHER PL","New Haven","CT",""
972,"14 BEECHER PL","New Haven","CT",""
973,"183 TOWNSEND AV","New Haven","CT",""
974,"187 TOWNSEND AV","New Haven","CT",""
975,"201 CONCORD ST","New Haven","CT",""
976,"71 PARKER PL","New Haven","CT",""
977,"73 PARKER PL","New Haven","CT",""
978,"91 PARKER PL","New Haven","CT",""
979,"95 PARKER PL","New Haven","CT",""
980,"103 PARKER PL","New Haven","CT",""
981,"107 PARKER PL","New Haven","CT",""
982,"40 ARDEN ST","New Haven","CT",""
983,"28 ARDEN ST","New Haven","CT",""
984,"24 ARDEN ST","New Haven","CT",""
985,"20 ARDEN ST","New Haven","CT",""
986,"14 ARDEN ST","New Haven","CT",""
987,"12 ARDEN ST","New Haven","CT",""
988,"173 CONCORD ST","New Haven","CT",""
989,"189 CONCORD ST","New Haven","CT",""
990,"193 CONCORD ST","New Haven","CT",""
991,"249 TOWNSEND AV","New Haven","CT",""
992,"19 FLORENCE AV","New Haven","CT",""
993,"25 FLORENCE AV","New Haven","CT",""
994,"35 FLORENCE AV","New Haven","CT",""
995,"37 FLORENCE AV","New Haven","CT",""
996,"41 FLORENCE AV","New Haven","CT",""
997,"32 MANSION ST","New Haven","CT",""
998,"30 MANSION ST","New Haven","CT",""
999,"28 MANSION ST","New Haven","CT",""
1000,"22 MANSION ST","New Haven","CT",""
