"pid","location","city","state","zip"
17001,"HENRY ST","New Haven","CT",""
17002,"32 HENRY ST","New Haven","CT",""
17003,"30 HENRY ST","New Haven","CT",""
17004,"28 HENRY ST","New Haven","CT",""
17005,NA,"New Haven","CT",""
17006,"230 ASHMUN ST","New Haven","CT",""
17007,"69 WEBSTER ST","New Haven","CT",""
17008,NA,"New Haven","CT",""
17009,"187 DIXWELL AV","New Haven","CT",""
17010,"64 GREGORY ST","New Haven","CT",""
17011,"16 ADMIRAL ST","New Haven","CT",""
17012,"195 DIXWELL AV","New Haven","CT",""
17013,"217 DIXWELL AV","New Haven","CT",""
17014,"197 DIXWELL AV","New Haven","CT",""
17015,"229 DIXWELL AV","New Haven","CT",""
17016,NA,"New Haven","CT",""
17017,"235 DIXWELL AV","New Haven","CT",""
17018,"241 DIXWELL AV","New Haven","CT",""
17019,"82 ADMIRAL ST","New Haven","CT",""
17020,"80 ADMIRAL ST","New Haven","CT",""
17021,"70 ADMIRAL ST","New Haven","CT",""
17022,"68 ADMIRAL ST","New Haven","CT",""
17023,"66 ADMIRAL ST","New Haven","CT",""
17024,"64 ADMIRAL ST","New Haven","CT",""
17025,"62 ADMIRAL ST","New Haven","CT",""
17026,"60 ADMIRAL ST","New Haven","CT",""
17027,"50 ADMIRAL ST","New Haven","CT",""
17028,"48 ADMIRAL ST","New Haven","CT",""
17029,"44 ADMIRAL ST","New Haven","CT",""
17030,NA,"New Haven","CT",""
17031,"340 DIXWELL AV","New Haven","CT",""
17032,NA,"New Haven","CT",""
17033,"316 DIXWELL AV","New Haven","CT",""
17034,"314 DIXWELL AV","New Haven","CT",""
17035,"312 DIXWELL AV","New Haven","CT",""
17036,"310 DIXWELL AV","New Haven","CT",""
17037,"308 DIXWELL AV","New Haven","CT",""
17038,"306 DIXWELL AV","New Haven","CT",""
17039,"304 DIXWELL AV","New Haven","CT",""
17040,"300 DIXWELL AV","New Haven","CT",""
17041,"294 DIXWELL AV","New Haven","CT",""
17042,"288 DIXWELL AV","New Haven","CT",""
17043,"127 HENRY ST","New Haven","CT",""
17044,"131 HENRY ST","New Haven","CT",""
17045,"133 HENRY ST","New Haven","CT",""
17046,"139 HENRY ST","New Haven","CT",""
17047,"147 HENRY ST","New Haven","CT",""
17048,"759 ORCHARD ST","New Haven","CT",""
17049,"763 ORCHARD ST","New Haven","CT",""
17050,NA,"New Haven","CT",""
17051,"ORCHARD ST","New Haven","CT",""
17052,"781 ORCHARD ST","New Haven","CT",""
17053,"783 ORCHARD ST","New Haven","CT",""
17054,"7 SHELTON AV","New Haven","CT",""
17055,NA,"New Haven","CT",""
17056,"260 MUNSON ST","New Haven","CT",""
17057,"238 MUNSON ST","New Haven","CT",""
17058,"234 MUNSON ST","New Haven","CT",""
17059,"232 MUNSON ST","New Haven","CT",""
17060,"228 MUNSON ST","New Haven","CT",""
17061,"224 MUNSON ST","New Haven","CT",""
17062,"220 MUNSON ST","New Haven","CT",""
17063,"218 MUNSON ST","New Haven","CT",""
17064,"216 MUNSON ST","New Haven","CT",""
17065,"214 MUNSON ST","New Haven","CT",""
17066,"212 MUNSON ST","New Haven","CT",""
17067,"210 MUNSON ST","New Haven","CT",""
17068,"208 MUNSON ST","New Haven","CT",""
17069,"206 MUNSON ST","New Haven","CT",""
17070,"204 MUNSON ST","New Haven","CT",""
17071,NA,"New Haven","CT",""
17072,"320 ASHMUN ST","New Haven","CT",""
17073,NA,"New Haven","CT",""
17074,"31 HENRY ST","New Haven","CT",""
17075,"33 HENRY ST","New Haven","CT",""
17076,"37 HENRY ST","New Haven","CT",""
17077,"39 HENRY ST","New Haven","CT",""
17078,"41 HENRY ST","New Haven","CT",""
17079,"43 HENRY ST","New Haven","CT",""
17080,"49 HENRY ST","New Haven","CT",""
17081,"51 HENRY ST","New Haven","CT",""
17082,"57 HENRY ST","New Haven","CT",""
17083,"59 HENRY ST","New Haven","CT",""
17084,"65 HENRY ST","New Haven","CT",""
17085,"69 HENRY ST","New Haven","CT",""
17086,"73 HENRY ST","New Haven","CT",""
17087,"75 HENRY ST","New Haven","CT",""
17088,"81 HENRY ST","New Haven","CT",""
17089,"85 HENRY ST","New Haven","CT",""
17090,"89 HENRY ST","New Haven","CT",""
17091,"91 HENRY ST","New Haven","CT",""
17092,"93 HENRY ST","New Haven","CT",""
17093,"101 HENRY ST","New Haven","CT",""
17094,"287 DIXWELL AV","New Haven","CT",""
17095,"297 DIXWELL AV","New Haven","CT",""
17096,"309 DIXWELL AV","New Haven","CT",""
17097,NA,"New Haven","CT",""
17098,"317 DIXWELL AV","New Haven","CT",""
17099,"321 DIXWELL AV","New Haven","CT",""
17100,"325 DIXWELL AV","New Haven","CT",""
17101,"329 DIXWELL AV","New Haven","CT",""
17102,"1 SHELTON AV","New Haven","CT",""
17103,"HENRY ST","New Haven","CT",""
17104,"201 MUNSON ST","New Haven","CT",""
17105,"GIBBS ST","New Haven","CT",""
17106,"241 MUNSON ST","New Haven","CT",""
17107,"243 MUNSON ST","New Haven","CT",""
17108,"245 MUNSON ST","New Haven","CT",""
17109,"247 MUNSON ST","New Haven","CT",""
17110,"249 MUNSON ST","New Haven","CT",""
17111,"269 MUNSON ST","New Haven","CT",""
17112,"271 MUNSON ST","New Haven","CT",""
17113,"273 MUNSON ST","New Haven","CT",""
17114,"277 MUNSON ST","New Haven","CT",""
17115,"281 MUNSON ST","New Haven","CT",""
17116,"283 MUNSON ST","New Haven","CT",""
17117,"13 SHELTON AV","New Haven","CT",""
17118,"17 SHELTON AV","New Haven","CT",""
17119,"19 SHELTON AV","New Haven","CT",""
17120,"21 SHELTON AV","New Haven","CT",""
17121,"23 SHELTON AV","New Haven","CT",""
17122,"25 SHELTON AV","New Haven","CT",""
17123,"27 SHELTON AV","New Haven","CT",""
17124,"33 SHELTON AV","New Haven","CT",""
17125,"35 SHELTON AV","New Haven","CT",""
17126,"47 SHELTON AV","New Haven","CT",""
17127,"53 SHELTON AV","New Haven","CT",""
17128,"57 SHELTON AV","New Haven","CT",""
17129,"59 SHELTON AV","New Haven","CT",""
17130,"61 SHELTON AV","New Haven","CT",""
17131,"71 SHELTON AV","New Haven","CT",""
17132,"99 SHELTON AV","New Haven","CT",""
17133,NA,"New Haven","CT",""
17134,NA,"New Haven","CT",""
17135,"GIBBS ST","New Haven","CT",""
17136,"344 WINCHESTER AV","New Haven","CT",""
17137,"276 WINCHESTER AV","New Haven","CT",""
17138,"304 WINCHESTER AV","New Haven","CT",""
17139,"161 SHELTON AV","New Haven","CT",""
17140,"209 DIVISION ST","New Haven","CT",""
17141,"118 THOMPSON ST","New Haven","CT",""
17142,"106 THOMPSON ST","New Haven","CT",""
17143,"102 THOMPSON ST","New Haven","CT",""
17144,"98 THOMPSON ST","New Haven","CT",""
17145,"94 THOMPSON ST","New Haven","CT",""
17146,"92 THOMPSON ST","New Haven","CT",""
17147,"88 THOMPSON ST","New Haven","CT",""
17148,"84 THOMPSON ST","New Haven","CT",""
17149,"80 THOMPSON ST","New Haven","CT",""
17150,"76 THOMPSON ST","New Haven","CT",""
17151,"72 THOMPSON ST","New Haven","CT",""
17152,"68 THOMPSON ST","New Haven","CT",""
17153,"106 NEWHALL ST","New Haven","CT",""
17154,"100 NEWHALL ST","New Haven","CT",""
17155,"98 NEWHALL ST","New Haven","CT",""
17156,NA,"New Haven","CT",""
17157,"NEWHALL ST","New Haven","CT",""
17158,"193 DIVISION ST","New Haven","CT",""
17159,"207 DIVISION ST","New Haven","CT",""
17160,"231 DIVISION ST","New Haven","CT",""
17161,"155 SHELTON AV","New Haven","CT",""
17162,"183 DIVISION ST","New Haven","CT",""
17163,"199 DIVISION ST #0001","New Haven","CT",""
17164,"201 DIVISION ST #0002","New Haven","CT",""
17165,"203 DIVISION ST #0003","New Haven","CT",""
17166,"205 DIVISION ST","New Haven","CT",""
17167,"105 NEWHALL ST","New Haven","CT",""
17168,"52 THOMPSON ST","New Haven","CT",""
17169,"50 THOMPSON ST","New Haven","CT",""
17170,"28 THOMPSON ST","New Haven","CT",""
17171,"THOMPSON ST","New Haven","CT",""
17172,"30 THOMPSON ST","New Haven","CT",""
17173,"22 THOMPSON ST","New Haven","CT",""
17174,"20 THOMPSON ST","New Haven","CT",""
17175,"16 THOMPSON ST","New Haven","CT",""
17176,"12 THOMPSON ST","New Haven","CT",""
17177,"518 WINCHESTER AV","New Haven","CT",""
17178,NA,"New Haven","CT",""
17179,NA,"New Haven","CT",""
17180,"502 WINCHESTER AV","New Haven","CT",""
17181,NA,"New Haven","CT",""
17182,"89 NEWHALL ST","New Haven","CT",""
17183,"79 NEWHALL ST","New Haven","CT",""
17184,"147 DIVISION ST","New Haven","CT",""
17185,"141 DIVISION ST","New Haven","CT",""
17186,"137 DIVISION ST","New Haven","CT",""
17187,"133 DIVISION ST","New Haven","CT",""
17188,"129 DIVISION ST","New Haven","CT",""
17189,"484 WINCHESTER AV","New Haven","CT",""
17190,"506 WINCHESTER AV","New Haven","CT",""
17191,"93 NEWHALL ST","New Haven","CT",""
17192,"95 NEWHALL ST","New Haven","CT",""
17193,"99 NEWHALL ST","New Haven","CT",""
17194,"280 STARR ST","New Haven","CT",""
17195,"THOMPSON ST","New Haven","CT",""
17196,"274 STARR ST","New Haven","CT",""
17197,"266 STARR ST","New Haven","CT",""
17198,"260 STARR ST","New Haven","CT",""
17199,"258 STARR ST","New Haven","CT",""
17200,"254 STARR ST","New Haven","CT",""
17201,"250 STARR ST","New Haven","CT",""
17202,"242 STARR ST","New Haven","CT",""
17203,"240 STARR ST","New Haven","CT",""
17204,"234 STARR ST","New Haven","CT",""
17205,"228 STARR ST","New Haven","CT",""
17206,"226 STARR ST","New Haven","CT",""
17207,"222 STARR ST","New Haven","CT",""
17208,"216 STARR ST","New Haven","CT",""
17209,"212 STARR ST","New Haven","CT",""
17210,"208 STARR ST","New Haven","CT",""
17211,"204 STARR ST","New Haven","CT",""
17212,"200 STARR ST","New Haven","CT",""
17213,NA,"New Haven","CT",""
17214,"132 NEWHALL ST","New Haven","CT",""
17215,"128 NEWHALL ST","New Haven","CT",""
17216,"124 NEWHALL ST","New Haven","CT",""
17217,"55 THOMPSON ST","New Haven","CT",""
17218,"65 THOMPSON ST","New Haven","CT",""
17219,"69 THOMPSON ST","New Haven","CT",""
17220,"73 THOMPSON ST","New Haven","CT",""
17221,"77 THOMPSON ST","New Haven","CT",""
17222,"81 THOMPSON ST","New Haven","CT",""
17223,"85 THOMPSON ST","New Haven","CT",""
17224,"87 THOMPSON ST","New Haven","CT",""
17225,"91 THOMPSON ST","New Haven","CT",""
17226,"95 THOMPSON ST","New Haven","CT",""
17227,"103 THOMPSON ST","New Haven","CT",""
17228,"105 THOMPSON ST","New Haven","CT",""
17229,"109 THOMPSON ST","New Haven","CT",""
17230,"115 THOMPSON ST","New Haven","CT",""
17231,"119 THOMPSON ST","New Haven","CT",""
17232,"121 THOMPSON ST","New Haven","CT",""
17233,"123 THOMPSON ST","New Haven","CT",""
17234,"127 THOMPSON ST","New Haven","CT",""
17235,NA,"New Haven","CT",""
17236,"185 SHELTON AV","New Haven","CT",""
17237,NA,"New Haven","CT",""
17238,"135 NEWHALL ST","New Haven","CT",""
17239,"170 STARR ST","New Haven","CT",""
17240,"170 STARR ST","New Haven","CT",""
17241,"164 STARR ST","New Haven","CT",""
17242,"160 STARR ST","New Haven","CT",""
17243,"158 STARR ST","New Haven","CT",""
17244,"152 STARR ST","New Haven","CT",""
17245,"146 STARR ST","New Haven","CT",""
17246,"136 STARR ST","New Haven","CT",""
17247,"558 WINCHESTER AV","New Haven","CT",""
17248,"552 WINCHESTER AV","New Haven","CT",""
17249,"550 WINCHESTER AV","New Haven","CT",""
17250,"546 WINCHESTER AV","New Haven","CT",""
17251,"540 WINCHESTER AV","New Haven","CT",""
17252,"532 WINCHESTER AV","New Haven","CT",""
17253,"526 WINCHESTER AV","New Haven","CT",""
17254,"15 THOMPSON ST","New Haven","CT",""
17255,"19 THOMPSON ST","New Haven","CT",""
17256,"23 THOMPSON ST","New Haven","CT",""
17257,"27 THOMPSON ST","New Haven","CT",""
17258,"31 THOMPSON ST","New Haven","CT",""
17259,"35 THOMPSON ST","New Haven","CT",""
17260,"111 NEWHALL ST","New Haven","CT",""
17261,"115 NEWHALL ST","New Haven","CT",""
17262,"119 NEWHALL ST","New Haven","CT",""
17263,"123 NEWHALL ST","New Haven","CT",""
17264,"129 NEWHALL ST","New Haven","CT",""
17265,"221 SHELTON AV","New Haven","CT",""
17266,"138 HAZEL ST","New Haven","CT",""
17267,"134 HAZEL ST","New Haven","CT",""
17268,"130 HAZEL ST","New Haven","CT",""
17269,"126 HAZEL ST","New Haven","CT",""
17270,"122 HAZEL ST","New Haven","CT",""
17271,"118 HAZEL ST","New Haven","CT",""
17272,"114 HAZEL ST","New Haven","CT",""
17273,"110 HAZEL ST","New Haven","CT",""
17274,"106 HAZEL ST","New Haven","CT",""
17275,"102 HAZEL ST","New Haven","CT",""
17276,"98 HAZEL ST","New Haven","CT",""
17277,"94 HAZEL ST","New Haven","CT",""
17278,"88 HAZEL ST","New Haven","CT",""
17279,"84 HAZEL ST","New Haven","CT",""
17280,"80 HAZEL ST","New Haven","CT",""
17281,"76 HAZEL ST","New Haven","CT",""
17282,"72 HAZEL ST","New Haven","CT",""
17283,"68 HAZEL ST","New Haven","CT",""
17284,"64 HAZEL ST","New Haven","CT",""
17285,"60 HAZEL ST","New Haven","CT",""
17286,"56 HAZEL ST","New Haven","CT",""
17287,"156 NEWHALL ST","New Haven","CT",""
17288,"152 NEWHALL ST","New Haven","CT",""
17289,"146 NEWHALL ST","New Haven","CT",""
17290,"195 STARR ST","New Haven","CT",""
17291,"197 STARR ST","New Haven","CT",""
17292,"201 STARR ST","New Haven","CT",""
17293,"205 STARR ST","New Haven","CT",""
17294,"209 STARR ST","New Haven","CT",""
17295,"213 STARR ST","New Haven","CT",""
17296,"219 STARR ST","New Haven","CT",""
17297,"221 STARR ST","New Haven","CT",""
17298,"227 STARR ST","New Haven","CT",""
17299,"231 STARR ST","New Haven","CT",""
17300,"235 STARR ST","New Haven","CT",""
17301,"239 STARR ST","New Haven","CT",""
17302,"243 STARR ST","New Haven","CT",""
17303,"247 STARR ST","New Haven","CT",""
17304,"251 STARR ST","New Haven","CT",""
17305,"255 STARR ST","New Haven","CT",""
17306,"261 STARR ST","New Haven","CT",""
17307,"265 STARR ST","New Haven","CT",""
17308,"271 STARR ST","New Haven","CT",""
17309,"209 SHELTON AV","New Haven","CT",""
17310,"151 NEWHALL ST","New Haven","CT",""
17311,"30 HAZEL ST","New Haven","CT",""
17312,"28 HAZEL ST","New Haven","CT",""
17313,"24 HAZEL ST","New Haven","CT",""
17314,"14 HAZEL ST","New Haven","CT",""
17315,"582 WINCHESTER AV","New Haven","CT",""
17316,"578 WINCHESTER AV","New Haven","CT",""
17317,"568 WINCHESTER AV","New Haven","CT",""
17318,NA,"New Haven","CT",""
17319,"139 STARR ST","New Haven","CT",""
17320,"145 STARR ST","New Haven","CT",""
17321,"149 STARR ST","New Haven","CT",""
17322,"153 STARR ST","New Haven","CT",""
17323,"157 STARR ST","New Haven","CT",""
17324,"161 STARR ST","New Haven","CT",""
17325,"165 STARR ST","New Haven","CT",""
17326,"169 STARR ST","New Haven","CT",""
17327,"141 NEWHALL ST","New Haven","CT",""
17328,"145 NEWHALL ST","New Haven","CT",""
17329,"257 SHELTON AV","New Haven","CT",""
17330,"138 IVY ST","New Haven","CT",""
17331,"132 IVY ST","New Haven","CT",""
17332,"128 IVY ST","New Haven","CT",""
17333,"124 IVY ST","New Haven","CT",""
17334,"120 IVY ST","New Haven","CT",""
17335,"114 IVY ST","New Haven","CT",""
17336,"110 IVY ST","New Haven","CT",""
17337,"106 IVY ST","New Haven","CT",""
17338,"104 IVY ST","New Haven","CT",""
17339,"94 IVY ST","New Haven","CT",""
17340,"90 IVY ST","New Haven","CT",""
17341,"86 IVY ST","New Haven","CT",""
17342,"80 IVY ST","New Haven","CT",""
17343,"76 IVY ST","New Haven","CT",""
17344,"74 IVY ST","New Haven","CT",""
17345,"70 IVY ST","New Haven","CT",""
17346,"62 IVY ST","New Haven","CT",""
17347,"192 NEWHALL ST","New Haven","CT",""
17348,"188 NEWHALL ST","New Haven","CT",""
17349,"184 NEWHALL ST","New Haven","CT",""
17350,"180 NEWHALL ST","New Haven","CT",""
17351,"176 NEWHALL ST","New Haven","CT",""
17352,"172 NEWHALL ST","New Haven","CT",""
17353,"168 NEWHALL ST","New Haven","CT",""
17354,"164 NEWHALL ST","New Haven","CT",""
17355,"57 HAZEL ST","New Haven","CT",""
17356,"67 HAZEL ST","New Haven","CT",""
17357,"73 HAZEL ST","New Haven","CT",""
17358,"77 HAZEL ST","New Haven","CT",""
17359,"85 HAZEL ST","New Haven","CT",""
17360,"89 HAZEL ST","New Haven","CT",""
17361,"93 HAZEL ST","New Haven","CT",""
17362,"99 HAZEL ST #A-1","New Haven","CT",""
17363,"99 HAZEL ST #A-2","New Haven","CT",""
17364,"107 HAZEL ST #A-3","New Haven","CT",""
17365,"101 HAZEL ST #B-4","New Haven","CT",""
17366,"101 HAZEL ST #B-5","New Haven","CT",""
17367,"101 HAZEL ST #B-6","New Haven","CT",""
17368,"101 HAZEL ST #B-7","New Haven","CT",""
17369,"101 HAZEL ST #B-8","New Haven","CT",""
17370,"101 HAZEL ST #B-9","New Haven","CT",""
17371,"111 HAZEL ST","New Haven","CT",""
17372,"113 HAZEL ST","New Haven","CT",""
17373,"117 HAZEL ST #C-10","New Haven","CT",""
17374,"119 HAZEL ST #C-11","New Haven","CT",""
17375,"123 HAZEL ST","New Haven","CT",""
17376,"129 HAZEL ST","New Haven","CT",""
17377,"133 HAZEL ST","New Haven","CT",""
17378,"227 SHELTON AV","New Haven","CT",""
17379,"231 SHELTON AV","New Haven","CT",""
17380,"233 SHELTON AV","New Haven","CT",""
17381,"237 SHELTON AV","New Haven","CT",""
17382,"241 SHELTON AV","New Haven","CT",""
17383,"245 SHELTON AV","New Haven","CT",""
17384,"255 SHELTON AV","New Haven","CT",""
17385,"163 NEWHALL ST","New Haven","CT",""
17386,"167 NEWHALL ST","New Haven","CT",""
17387,"171 NEWHALL ST","New Haven","CT",""
17388,"175 NEWHALL ST","New Haven","CT",""
17389,"179 NEWHALL ST","New Haven","CT",""
17390,"183 NEWHALL ST","New Haven","CT",""
17391,"187 NEWHALL ST","New Haven","CT",""
17392,"191 NEWHALL ST","New Haven","CT",""
17393,"44 IVY ST","New Haven","CT",""
17394,"36 IVY ST","New Haven","CT",""
17395,"34 IVY ST","New Haven","CT",""
17396,"26 IVY ST","New Haven","CT",""
17397,"20 IVY ST","New Haven","CT",""
17398,"14 IVY ST","New Haven","CT",""
17399,"10 IVY ST","New Haven","CT",""
17400,"632 WINCHESTER AV","New Haven","CT",""
17401,"628 WINCHESTER AV","New Haven","CT",""
17402,"622 WINCHESTER AV","New Haven","CT",""
17403,"616 WINCHESTER AV","New Haven","CT",""
17404,"614 WINCHESTER AV","New Haven","CT",""
17405,"606 WINCHESTER AV","New Haven","CT",""
17406,"598 WINCHESTER AV","New Haven","CT",""
17407,"594 WINCHESTER AV","New Haven","CT",""
17408,"5 HAZEL ST","New Haven","CT",""
17409,"7 HAZEL ST","New Haven","CT",""
17410,"23 HAZEL ST","New Haven","CT",""
17411,"27 HAZEL ST","New Haven","CT",""
17412,"33 HAZEL ST","New Haven","CT",""
17413,"37 HAZEL ST","New Haven","CT",""
17414,"130 BASSETT ST","New Haven","CT",""
17415,"118 LILAC ST","New Haven","CT",""
17416,"116 LILAC ST","New Haven","CT",""
17417,"114 LILAC ST","New Haven","CT",""
17418,"112 LILAC ST","New Haven","CT",""
17419,"110 LILAC ST","New Haven","CT",""
17420,"106 LILAC ST","New Haven","CT",""
17421,"104 LILAC ST","New Haven","CT",""
17422,"100 LILAC ST","New Haven","CT",""
17423,"98 LILAC ST","New Haven","CT",""
17424,"94 LILAC ST","New Haven","CT",""
17425,"92 LILAC ST","New Haven","CT",""
17426,"88 LILAC ST","New Haven","CT",""
17427,"84 LILAC ST","New Haven","CT",""
17428,"80 LILAC ST","New Haven","CT",""
17429,"76 LILAC ST","New Haven","CT",""
17430,"72 LILAC ST","New Haven","CT",""
17431,"68 LILAC ST","New Haven","CT",""
17432,"64 LILAC ST","New Haven","CT",""
17433,"228 NEWHALL ST","New Haven","CT",""
17434,"224 NEWHALL ST","New Haven","CT",""
17435,"220 NEWHALL ST","New Haven","CT",""
17436,"216 NEWHALL ST","New Haven","CT",""
17437,"212 NEWHALL ST","New Haven","CT",""
17438,"208 NEWHALL ST","New Haven","CT",""
17439,"204 NEWHALL ST","New Haven","CT",""
17440,"204 NEWHALL ST","New Haven","CT",""
17441,"200 NEWHALL ST","New Haven","CT",""
17442,"196 NEWHALL ST","New Haven","CT",""
17443,"196 NEWHALL ST","New Haven","CT",""
17444,"61 IVY ST","New Haven","CT",""
17445,"67 IVY ST","New Haven","CT",""
17446,"73 IVY ST","New Haven","CT",""
17447,"77 IVY ST","New Haven","CT",""
17448,"81 IVY ST","New Haven","CT",""
17449,"91 IVY ST","New Haven","CT",""
17450,"97 IVY ST","New Haven","CT",""
17451,"101 IVY ST","New Haven","CT",""
17452,"105 IVY ST","New Haven","CT",""
17453,"IVY ST","New Haven","CT",""
17454,"109 IVY ST","New Haven","CT",""
17455,"113 IVY ST","New Haven","CT",""
17456,"11 BUTLER ST","New Haven","CT",""
17457,"52 LILAC ST","New Haven","CT",""
17458,"48 LILAC ST","New Haven","CT",""
17459,"44 LILAC ST","New Haven","CT",""
17460,"40 LILAC ST","New Haven","CT",""
17461,"36 LILAC ST","New Haven","CT",""
17462,"32 LILAC ST","New Haven","CT",""
17463,"28 LILAC ST","New Haven","CT",""
17464,"24 LILAC ST","New Haven","CT",""
17465,"20 LILAC ST","New Haven","CT",""
17466,"16 LILAC ST","New Haven","CT",""
17467,"12 LILAC ST","New Haven","CT",""
17468,"678 WINCHESTER AV","New Haven","CT",""
17469,"672 WINCHESTER AV","New Haven","CT",""
17470,"664 WINCHESTER AV","New Haven","CT",""
17471,"662 WINCHESTER AV","New Haven","CT",""
17472,"660 WINCHESTER AV","New Haven","CT",""
17473,NA,"New Haven","CT",""
17474,"195 NEWHALL ST","New Haven","CT",""
17475,"203 NEWHALL ST","New Haven","CT",""
17476,"213 NEWHALL ST","New Haven","CT",""
17477,"217 NEWHALL ST","New Haven","CT",""
17478,"118 BASSETT ST","New Haven","CT",""
17479,"106 BASSETT ST","New Haven","CT",""
17480,"102 BASSETT ST","New Haven","CT",""
17481,"98 BASSETT ST","New Haven","CT",""
17482,"94 BASSETT ST","New Haven","CT",""
17483,"90 BASSETT ST","New Haven","CT",""
17484,"84 BASSETT ST","New Haven","CT",""
17485,"72 BASSETT ST","New Haven","CT",""
17486,"68 BASSETT ST","New Haven","CT",""
17487,"66 BASSETT ST","New Haven","CT",""
17488,"64 BASSETT ST","New Haven","CT",""
17489,"60 BASSETT ST","New Haven","CT",""
17490,"264 NEWHALL ST","New Haven","CT",""
17491,"258 NEWHALL ST","New Haven","CT",""
17492,"254 NEWHALL ST","New Haven","CT",""
17493,"250 NEWHALL ST","New Haven","CT",""
17494,"246 NEWHALL ST","New Haven","CT",""
17495,"242 NEWHALL ST","New Haven","CT",""
17496,"238 NEWHALL ST","New Haven","CT",""
17497,"236 NEWHALL ST","New Haven","CT",""
17498,"232 NEWHALL ST","New Haven","CT",""
17499,"65 LILAC ST","New Haven","CT",""
17500,"67 LILAC ST","New Haven","CT",""
17501,"69 LILAC ST","New Haven","CT",""
17502,"71 LILAC ST","New Haven","CT",""
17503,"73 LILAC ST","New Haven","CT",""
17504,"77 LILAC ST","New Haven","CT",""
17505,"81 LILAC ST","New Haven","CT",""
17506,"85 LILAC ST","New Haven","CT",""
17507,"89 LILAC ST","New Haven","CT",""
17508,"93 LILAC ST","New Haven","CT",""
17509,"97 LILAC ST","New Haven","CT",""
17510,"101 LILAC ST","New Haven","CT",""
17511,"105 LILAC ST","New Haven","CT",""
17512,"109 LILAC ST","New Haven","CT",""
17513,"37 BUTLER ST","New Haven","CT",""
17514,"41 BUTLER ST","New Haven","CT",""
17515,"43 BUTLER ST","New Haven","CT",""
17516,"47 BUTLER ST","New Haven","CT",""
17517,"51 BUTLER ST","New Haven","CT",""
17518,"261 NEWHALL ST","New Haven","CT",""
17519,"42 BASSETT ST","New Haven","CT",""
17520,"38 BASSETT ST","New Haven","CT",""
17521,"34 BASSETT ST","New Haven","CT",""
17522,"30 BASSETT ST","New Haven","CT",""
17523,"26 BASSETT ST","New Haven","CT",""
17524,"22 BASSETT ST","New Haven","CT",""
17525,"18 BASSETT ST","New Haven","CT",""
17526,"14 BASSETT ST","New Haven","CT",""
17527,"10 BASSETT ST","New Haven","CT",""
17528,NA,"New Haven","CT",""
17529,"722 WINCHESTER AV","New Haven","CT",""
17530,"718 WINCHESTER AV","New Haven","CT",""
17531,"714 WINCHESTER AV","New Haven","CT",""
17532,"710 WINCHESTER AV","New Haven","CT",""
17533,"704 WINCHESTER AV","New Haven","CT",""
17534,"700 WINCHESTER AV","New Haven","CT",""
17535,"694 WINCHESTER AV","New Haven","CT",""
17536,"688 WINCHESTER AV","New Haven","CT",""
17537,"7 LILAC ST","New Haven","CT",""
17538,"11 LILAC ST","New Haven","CT",""
17539,"15 LILAC ST","New Haven","CT",""
17540,"19 LILAC ST","New Haven","CT",""
17541,"23 LILAC ST","New Haven","CT",""
17542,"27 LILAC ST","New Haven","CT",""
17543,"31 LILAC ST","New Haven","CT",""
17544,"35 LILAC ST","New Haven","CT",""
17545,"39 LILAC ST","New Haven","CT",""
17546,"53 LILAC ST","New Haven","CT",""
17547,"57 LILAC ST","New Haven","CT",""
17548,"51 LILAC ST","New Haven","CT",""
17549,"231 NEWHALL ST","New Haven","CT",""
17550,"237 NEWHALL ST","New Haven","CT",""
17551,"239 NEWHALL ST","New Haven","CT",""
17552,"243 NEWHALL ST","New Haven","CT",""
17553,"247 NEWHALL ST","New Haven","CT",""
17554,"251 NEWHALL ST","New Haven","CT",""
17555,"255 NEWHALL ST","New Haven","CT",""
17556,"257 NEWHALL ST","New Haven","CT",""
17557,"169 BASSETT ST","New Haven","CT",""
17558,"15 GOODYEAR ST","New Haven","CT",""
17559,"23 GOODYEAR ST","New Haven","CT",""
17560,"29 GOODYEAR ST","New Haven","CT",""
17561,"31 GOODYEAR ST","New Haven","CT",""
17562,"35 GOODYEAR ST","New Haven","CT",""
17563,"43 GOODYEAR ST","New Haven","CT",""
17564,"85 GOODYEAR ST","New Haven","CT",""
17565,"164 READ ST","New Haven","CT",""
17566,"160 READ ST","New Haven","CT",""
17567,"156 READ ST","New Haven","CT",""
17568,"152 READ ST","New Haven","CT",""
17569,"380 SHELTON AV","New Haven","CT",""
17570,"374 SHELTON AV","New Haven","CT",""
17571,"370 SHELTON AV","New Haven","CT",""
17572,"368 SHELTON AV","New Haven","CT",""
17573,"366 SHELTON AV","New Haven","CT",""
17574,"364 SHELTON AV","New Haven","CT",""
17575,"360 SHELTON AV","New Haven","CT",""
17576,"354 SHELTON AV","New Haven","CT",""
17577,"348 SHELTON AV","New Haven","CT",""
17578,"324 SHELTON AV","New Haven","CT",""
17579,"153 BASSETT ST","New Haven","CT",""
17580,"157 BASSETT ST","New Haven","CT",""
17581,"161 BASSETT ST","New Haven","CT",""
17582,"323 SHELTON AV","New Haven","CT",""
17583,"325 SHELTON AV","New Haven","CT",""
17584,"327 SHELTON AV","New Haven","CT",""
17585,"331 SHELTON AV","New Haven","CT",""
17586,"335 SHELTON AV","New Haven","CT",""
17587,"339 SHELTON AV","New Haven","CT",""
17588,"343 SHELTON AV","New Haven","CT",""
17589,"347 SHELTON AV","New Haven","CT",""
17590,"351 SHELTON AV","New Haven","CT",""
17591,"508 HUNTINGTON ST","New Haven","CT",""
17592,NA,"New Haven","CT",""
17593,"86 BUTLER ST","New Haven","CT",""
17594,"84 BUTLER ST","New Haven","CT",""
17595,"78 BUTLER ST","New Haven","CT",""
17596,"76 BUTLER ST","New Haven","CT",""
17597,"119 BASSETT ST","New Haven","CT",""
17598,"121 BASSETT ST","New Haven","CT",""
17599,"125 BASSETT ST","New Haven","CT",""
17600,"131 BASSETT ST","New Haven","CT",""
17601,"115 BASSETT ST","New Haven","CT",""
17602,"81 BUTLER ST","New Haven","CT",""
17603,"83 BUTLER ST","New Haven","CT",""
17604,"87 BUTLER ST","New Haven","CT",""
17605,"474 HUNTINGTON ST","New Haven","CT",""
17606,"468 HUNTINGTON ST","New Haven","CT",""
17607,"464 HUNTINGTON ST","New Haven","CT",""
17608,"460 HUNTINGTON ST","New Haven","CT",""
17609,"456 HUNTINGTON ST","New Haven","CT",""
17610,"18 SHEPARD ST","New Haven","CT",""
17611,"16 SHEPARD ST","New Haven","CT",""
17612,"95 BASSETT ST","New Haven","CT",""
17613,"99 BASSETT ST","New Haven","CT",""
17614,"107 BASSETT ST","New Haven","CT",""
17615,"111 BASSETT ST","New Haven","CT",""
17616,"355 SHELTON AV","New Haven","CT",""
17617,"359 SHELTON AV","New Haven","CT",""
17618,"365 SHELTON AV","New Haven","CT",""
17619,"369 SHELTON AV","New Haven","CT",""
17620,"373 SHELTON AV","New Haven","CT",""
17621,"375 SHELTON AV","New Haven","CT",""
17622,"377 SHELTON AV","New Haven","CT",""
17623,"381 SHELTON AV","New Haven","CT",""
17624,"128 READ ST","New Haven","CT",""
17625,"124 READ ST","New Haven","CT",""
17626,"120 READ ST","New Haven","CT",""
17627,"116 READ ST","New Haven","CT",""
17628,"112 READ ST","New Haven","CT",""
17629,"116 BUTLER ST","New Haven","CT",""
17630,"110 BUTLER ST","New Haven","CT",""
17631,"106 BUTLER ST","New Haven","CT",""
17632,"102 BUTLER ST","New Haven","CT",""
17633,"98 BUTLER ST","New Haven","CT",""
17634,"505 HUNTINGTON ST","New Haven","CT",""
17635,"97 BUTLER ST","New Haven","CT",""
17636,"101 BUTLER ST","New Haven","CT",""
17637,"109 BUTLER ST","New Haven","CT",""
17638,"117 BUTLER ST","New Haven","CT",""
17639,"121 BUTLER ST","New Haven","CT",""
17640,NA,"New Haven","CT",""
17641,"108 READ ST","New Haven","CT",""
17642,"106 READ ST","New Haven","CT",""
17643,"104 READ ST","New Haven","CT",""
17644,"102 READ ST","New Haven","CT",""
17645,"46 SHEPARD ST","New Haven","CT",""
17646,"44 SHEPARD ST","New Haven","CT",""
17647,"455 HUNTINGTON ST","New Haven","CT",""
17648,"459 HUNTINGTON ST","New Haven","CT",""
17649,"463 HUNTINGTON ST","New Haven","CT",""
17650,"469 HUNTINGTON ST","New Haven","CT",""
17651,"163 READ ST","New Haven","CT",""
17652,"89 GOODYEAR ST","New Haven","CT",""
17653,"95 GOODYEAR ST","New Haven","CT",""
17654,"97 GOODYEAR ST","New Haven","CT",""
17655,"99 GOODYEAR ST","New Haven","CT",""
17656,"103 GOODYEAR ST","New Haven","CT",""
17657,"111 GOODYEAR ST","New Haven","CT",""
17658,"115 GOODYEAR ST","New Haven","CT",""
17659,"119 GOODYEAR ST","New Haven","CT",""
17660,"432 SHELTON AV","New Haven","CT",""
17661,"430 SHELTON AV","New Haven","CT",""
17662,"426 SHELTON AV","New Haven","CT",""
17663,"418 SHELTON AV","New Haven","CT",""
17664,"414 SHELTON AV","New Haven","CT",""
17665,"410 SHELTON AV","New Haven","CT",""
17666,"406 SHELTON AV","New Haven","CT",""
17667,"402 SHELTON AV","New Haven","CT",""
17668,"398 SHELTON AV","New Haven","CT",""
17669,"394 SHELTON AV","New Haven","CT",""
17670,"390 SHELTON AV","New Haven","CT",""
17671,"386 SHELTON AV","New Haven","CT",""
17672,"382 SHELTON AV","New Haven","CT",""
17673,"147 READ ST","New Haven","CT",""
17674,"151 READ ST","New Haven","CT",""
17675,"155 READ ST","New Haven","CT",""
17676,"159 READ ST","New Haven","CT",""
17677,"383 SHELTON AV","New Haven","CT",""
17678,"387 SHELTON AV","New Haven","CT",""
17679,"391 SHELTON AV","New Haven","CT",""
17680,"395 SHELTON AV","New Haven","CT",""
17681,"397 SHELTON AV","New Haven","CT",""
17682,"403 SHELTON AV","New Haven","CT",""
17683,"407 SHELTON AV","New Haven","CT",""
17684,"411 SHELTON AV","New Haven","CT",""
17685,"415 SHELTON AV","New Haven","CT",""
17686,"419 SHELTON AV","New Haven","CT",""
17687,"423 SHELTON AV","New Haven","CT",""
17688,"427 SHELTON AV","New Haven","CT",""
17689,"431 SHELTON AV","New Haven","CT",""
17690,"433 SHELTON AV","New Haven","CT",""
17691,"180 BUTLER ST","New Haven","CT",""
17692,"178 BUTLER ST","New Haven","CT",""
17693,"174 BUTLER ST","New Haven","CT",""
17694,"160 BUTLER ST","New Haven","CT",""
17695,"154 BUTLER ST","New Haven","CT",""
17696,"152 BUTLER ST","New Haven","CT",""
17697,"150 BUTLER ST","New Haven","CT",""
17698,"148 BUTLER ST","New Haven","CT",""
17699,"146 BUTLER ST","New Haven","CT",""
17700,"142 BUTLER ST","New Haven","CT",""
17701,"138 BUTLER ST","New Haven","CT",""
17702,"134 BUTLER ST","New Haven","CT",""
17703,"130 BUTLER ST","New Haven","CT",""
17704,"113 READ ST","New Haven","CT",""
17705,"117 READ ST","New Haven","CT",""
17706,"121 READ ST","New Haven","CT",""
17707,"125 BUTLER ST","New Haven","CT",""
17708,"133 BUTLER ST","New Haven","CT",""
17709,"135 BUTLER ST","New Haven","CT",""
17710,"137 BUTLER ST","New Haven","CT",""
17711,"139 BUTLER ST","New Haven","CT",""
17712,"141 BUTLER ST","New Haven","CT",""
17713,"151 BUTLER ST","New Haven","CT",""
17714,"153 BUTLER ST","New Haven","CT",""
17715,"155 BUTLER ST","New Haven","CT",""
17716,"159 BUTLER ST","New Haven","CT",""
17717,"161 BUTLER ST","New Haven","CT",""
17718,"165 BUTLER ST","New Haven","CT",""
17719,"169 BUTLER ST","New Haven","CT",""
17720,"173 BUTLER ST","New Haven","CT",""
17721,"177 BUTLER ST","New Haven","CT",""
17722,"181 BUTLER ST","New Haven","CT",""
17723,"118 SHEPARD ST","New Haven","CT",""
17724,"116 SHEPARD ST","New Haven","CT",""
17725,"108 SHEPARD ST","New Haven","CT",""
17726,"SHEPARD ST","New Haven","CT",""
17727,"SHEPARD ST","New Haven","CT",""
17728,"96 SHEPARD ST","New Haven","CT",""
17729,"92 SHEPARD ST","New Haven","CT",""
17730,"86 SHEPARD ST","New Haven","CT",""
17731,"82 SHEPARD ST","New Haven","CT",""
17732,"80 SHEPARD ST","New Haven","CT",""
17733,"76 SHEPARD ST","New Haven","CT",""
17734,"74 SHEPARD ST","New Haven","CT",""
17735,"72 SHEPARD ST","New Haven","CT",""
17736,"89 READ ST","New Haven","CT",""
17737,"93 READ ST","New Haven","CT",""
17738,"97 READ ST","New Haven","CT",""
17739,"101 READ ST","New Haven","CT",""
17740,"705 DIXWELL AV","New Haven","CT",""
17741,"707 DIXWELL AV","New Haven","CT",""
17742,"713 DIXWELL AV","New Haven","CT",""
17743,NA,"New Haven","CT",""
17744,"729 DIXWELL AV","New Haven","CT",""
17745,"735 DIXWELL AV","New Haven","CT",""
17746,"737 DIXWELL AV","New Haven","CT",""
17747,"741 DIXWELL AV","New Haven","CT",""
17748,"743 DIXWELL AV","New Haven","CT",""
17749,"745 DIXWELL AV","New Haven","CT",""
17750,"747 DIXWELL AV","New Haven","CT",""
17751,"751 DIXWELL AV","New Haven","CT",""
17752,"765 DIXWELL AV","New Haven","CT",""
17753,"767 DIXWELL AV","New Haven","CT",""
17754,NA,"New Haven","CT",""
17755,"769 DIXWELL AV","New Haven","CT",""
17756,"771 DIXWELL AV","New Haven","CT",""
17757,"771- I/2 DIXWELL AV","New Haven","CT",""
17758,"773 DIXWELL AV","New Haven","CT",""
17759,"775 DIXWELL AV","New Haven","CT",""
17760,NA,"New Haven","CT",""
17761,"777 DIXWELL AV","New Haven","CT",""
17762,"779 DIXWELL AV","New Haven","CT",""
17763,"799 DIXWELL AV","New Haven","CT",""
17764,NA,"New Haven","CT",""
17765,"807 DIXWELL AV","New Haven","CT",""
17766,"67 DAISY ST","New Haven","CT",""
17767,"55 DAISY ST","New Haven","CT",""
17768,"56 DAISY ST","New Haven","CT",""
17769,"52 DAISY ST","New Haven","CT",""
17770,"18 GEM ST","New Haven","CT",""
17771,"42 WEST READ ST","New Haven","CT",""
17772,"38 WEST READ ST","New Haven","CT",""
17773,"46 WATSON ST","New Haven","CT",""
17774,"40 WATSON ST","New Haven","CT",""
17775,"36 WATSON ST","New Haven","CT",""
17776,"WATSON ST","New Haven","CT",""
17777,"24 WATSON ST","New Haven","CT",""
17778,"18 WATSON ST","New Haven","CT",""
17779,"14 WATSON ST","New Haven","CT",""
17780,"10 WATSON ST","New Haven","CT",""
17781,"BASSETT ST","New Haven","CT",""
17782,"223 BASSETT ST","New Haven","CT",""
17783,"201 BASSETT ST","New Haven","CT",""
17784,"11 WATSON ST","New Haven","CT",""
17785,"13 WATSON ST","New Haven","CT",""
17786,"17 WATSON ST","New Haven","CT",""
17787,"19 WATSON ST","New Haven","CT",""
17788,"27 WATSON ST","New Haven","CT",""
17789,"29 WATSON ST","New Haven","CT",""
17790,"33 WATSON ST","New Haven","CT",""
17791,"37 WATSON ST","New Haven","CT",""
17792,"43 WATSON ST","New Haven","CT",""
17793,"53 WATSON ST","New Haven","CT",""
17794,"12 WEST READ ST","New Haven","CT",""
17795,"8 WEST READ ST","New Haven","CT",""
17796,"6 WEST READ ST","New Haven","CT",""
17797,"2 WEST READ ST","New Haven","CT",""
17798,"44 GOODYEAR ST","New Haven","CT",""
17799,"42 GOODYEAR ST","New Haven","CT",""
17800,"36 GOODYEAR ST","New Haven","CT",""
17801,"16 GOODYEAR ST","New Haven","CT",""
17802,"14 GOODYEAR ST","New Haven","CT",""
17803,"GOODYEAR ST","New Haven","CT",""
17804,"8 GOODYEAR ST","New Haven","CT",""
17805,"175 BASSETT ST","New Haven","CT",""
17806,"179 BASSETT ST","New Haven","CT",""
17807,"189 BASSETT ST","New Haven","CT",""
17808,"193 BASSETT ST","New Haven","CT",""
17809,"197 BASSETT ST","New Haven","CT",""
17810,"GEM ST","New Haven","CT",""
17811,"13 GEM ST","New Haven","CT",""
17812,"15 GEM ST","New Haven","CT",""
17813,"50 DAISY ST","New Haven","CT",""
17814,"48 DAISY ST","New Haven","CT",""
17815,"42 DAISY ST","New Haven","CT",""
17816,"38 DAISY ST","New Haven","CT",""
17817,"34 DAISY ST","New Haven","CT",""
17818,"30 DAISY ST","New Haven","CT",""
17819,"80 WATSON ST","New Haven","CT",""
17820,"WATSON ST","New Haven","CT",""
17821,"27 WEST READ ST","New Haven","CT",""
17822,"33 WEST READ ST","New Haven","CT",""
17823,"35 WEST READ ST","New Haven","CT",""
17824,"23 WEST READ ST","New Haven","CT",""
17825,"71 WATSON ST","New Haven","CT",""
17826,"24 DAISY ST","New Haven","CT",""
17827,"18 DAISY ST","New Haven","CT",""
17828,"14 DAISY ST","New Haven","CT",""
17829,"10 DAISY ST","New Haven","CT",""
17830,"6 DAISY ST","New Haven","CT",""
17831,"76 GOODYEAR ST","New Haven","CT",""
17832,"74 GOODYEAR ST","New Haven","CT",""
17833,"72 GOODYEAR ST","New Haven","CT",""
17834,"66 GOODYEAR ST","New Haven","CT",""
17835,"62 GOODYEAR ST","New Haven","CT",""
17836,"58 GOODYEAR ST","New Haven","CT",""
17837,"13 WEST READ ST","New Haven","CT",""
17838,"15 WEST READ ST","New Haven","CT",""
17839,"17 WEST READ ST","New Haven","CT",""
17840,"5 DAISY ST","New Haven","CT",""
17841,"555 DIXWELL AV","New Haven","CT",""
17842,"565 DIXWELL AV","New Haven","CT",""
17843,"200 SHELTON AV","New Haven","CT",""
17844,"579 DIXWELL AV","New Haven","CT",""
17845,"591 DIXWELL AV","New Haven","CT",""
17846,"595 DIXWELL AV","New Haven","CT",""
17847,"597 DIXWELL AV","New Haven","CT",""
17848,"192 HAZEL ST","New Haven","CT",""
17849,"188 HAZEL ST","New Haven","CT",""
17850,"182 HAZEL ST","New Haven","CT",""
17851,"178 HAZEL ST","New Haven","CT",""
17852,"174 HAZEL ST","New Haven","CT",""
17853,"170 HAZEL ST","New Haven","CT",""
17854,"161 THOMPSON ST","New Haven","CT",""
17855,"165 THOMPSON ST","New Haven","CT",""
17856,"169 THOMPSON ST","New Haven","CT",""
17857,"173 THOMPSON ST","New Haven","CT",""
17858,"179 THOMPSON ST","New Haven","CT",""
17859,"185 THOMPSON ST","New Haven","CT",""
17860,"605 DIXWELL AV","New Haven","CT",""
17861,"617 DIXWELL AV","New Haven","CT",""
17862,"619 DIXWELL AV","New Haven","CT",""
17863,"623 DIXWELL AV","New Haven","CT",""
17864,"627 DIXWELL AV","New Haven","CT",""
17865,"631 DIXWELL AV","New Haven","CT",""
17866,"633 DIXWELL AV","New Haven","CT",""
17867,"202 IVY ST","New Haven","CT",""
17868,"200 IVY ST","New Haven","CT",""
17869,"172 IVY ST","New Haven","CT",""
17870,"162 IVY ST","New Haven","CT",""
17871,"160 IVY ST","New Haven","CT",""
17872,"256 SHELTON AV","New Haven","CT",""
17873,"254 SHELTON AV","New Haven","CT",""
17874,NA,"New Haven","CT",""
17875,"242 SHELTON AV","New Haven","CT",""
17876,"238 SHELTON AV","New Haven","CT",""
17877,"234 SHELTON AV","New Haven","CT",""
17878,"232 SHELTON AV","New Haven","CT",""
17879,"228 SHELTON AV","New Haven","CT",""
17880,"224 SHELTON AV","New Haven","CT",""
17881,"201 HAZEL ST","New Haven","CT",""
17882,"HAZEL ST","New Haven","CT",""
17883,"637 DIXWELL AV","New Haven","CT",""
17884,"647 DIXWELL AV","New Haven","CT",""
17885,"651 DIXWELL AV","New Haven","CT",""
17886,"657 DIXWELL AV","New Haven","CT",""
17887,"663 DIXWELL AV","New Haven","CT",""
17888,"669 DIXWELL AV","New Haven","CT",""
17889,"74 BREWSTER ST","New Haven","CT",""
17890,"72 BREWSTER ST","New Haven","CT",""
17891,"64 BREWSTER ST","New Haven","CT",""
17892,"58 BREWSTER ST","New Haven","CT",""
17893,"44 BREWSTER ST","New Haven","CT",""
17894,"30 BREWSTER ST","New Haven","CT",""
17895,"28 BREWSTER ST","New Haven","CT",""
17896,"26 BREWSTER ST","New Haven","CT",""
17897,"24 BREWSTER ST","New Haven","CT",""
17898,"22 BREWSTER ST","New Haven","CT",""
17899,"284 SHELTON AV","New Haven","CT",""
17900,"280 SHELTON AV","New Haven","CT",""
17901,"276 SHELTON AV","New Haven","CT",""
17902,"266 SHELTON AV","New Haven","CT",""
17903,"SHELTON AV","New Haven","CT",""
17904,"161 IVY ST","New Haven","CT",""
17905,"163 IVY ST","New Haven","CT",""
17906,"167 IVY ST","New Haven","CT",""
17907,"169 IVY ST","New Haven","CT",""
17908,"171 IVY ST","New Haven","CT",""
17909,"173 IVY ST","New Haven","CT",""
17910,"185 IVY ST","New Haven","CT",""
17911,"189 IVY ST","New Haven","CT",""
17912,"191 IVY ST","New Haven","CT",""
17913,"195 IVY ST","New Haven","CT",""
17914,"201 IVY ST","New Haven","CT",""
17915,"205 IVY ST","New Haven","CT",""
17916,"679 DIXWELL AV","New Haven","CT",""
17917,"687 DIXWELL AV","New Haven","CT",""
17918,"693 DIXWELL AV","New Haven","CT",""
17919,"697 DIXWELL AV","New Haven","CT",""
17920,"703 DIXWELL AV","New Haven","CT",""
17921,"224 BASSETT ST","New Haven","CT",""
17922,"218 BASSETT ST","New Haven","CT",""
17923,"214 BASSETT ST","New Haven","CT",""
17924,"188 BASSETT ST","New Haven","CT",""
17925,"180 BASSETT ST","New Haven","CT",""
17926,"176 BASSETT ST","New Haven","CT",""
17927,"172 BASSETT ST","New Haven","CT",""
17928,"164 BASSETT ST","New Haven","CT",""
17929,"162 BASSETT ST","New Haven","CT",""
17930,"154 BASSETT ST","New Haven","CT",""
17931,"320 SHELTON AV","New Haven","CT",""
17932,"316 SHELTON AV","New Haven","CT",""
17933,"312 SHELTON AV","New Haven","CT",""
17934,"308 SHELTON AV","New Haven","CT",""
17935,"304 SHELTON AV","New Haven","CT",""
17936,"300 SHELTON AV","New Haven","CT",""
17937,"296 SHELTON AV","New Haven","CT",""
17938,"292 SHELTON AV","New Haven","CT",""
17939,"9 BREWSTER ST","New Haven","CT",""
17940,"23 BREWSTER ST","New Haven","CT",""
17941,"25 BREWSTER ST","New Haven","CT",""
17942,"27 BREWSTER ST","New Haven","CT",""
17943,"35 BREWSTER ST","New Haven","CT",""
17944,"37 BREWSTER ST","New Haven","CT",""
17945,"55 BREWSTER ST","New Haven","CT",""
17946,"61 BREWSTER ST","New Haven","CT",""
17947,"65 BREWSTER ST","New Haven","CT",""
17948,"75 BREWSTER ST","New Haven","CT",""
17949,"40 HARDING PL","New Haven","CT",""
17950,"36 HARDING PL","New Haven","CT",""
17951,"32 HARDING PL","New Haven","CT",""
17952,"28 HARDING PL","New Haven","CT",""
17953,"24 HARDING PL","New Haven","CT",""
17954,"20 HARDING PL","New Haven","CT",""
17955,"16 HARDING PL","New Haven","CT",""
17956,"12 HARDING PL","New Haven","CT",""
17957,"8 HARDING PL","New Haven","CT",""
17958,"516 DIXWELL AV","New Haven","CT",""
17959,"512 DIXWELL AV","New Haven","CT",""
17960,"508 DIXWELL AV","New Haven","CT",""
17961,"504 DIXWELL AV","New Haven","CT",""
17962,"315 WEST DIVISION ST","New Haven","CT",""
17963,"319 WEST DIVISION ST","New Haven","CT",""
17964,"323 WEST DIVISION ST","New Haven","CT",""
17965,"327 WEST DIVISION ST","New Haven","CT",""
17966,"331 WEST DIVISION ST","New Haven","CT",""
17967,"335 WEST DIVISION ST","New Haven","CT",""
17968,"339 WEST DIVISION ST","New Haven","CT",""
17969,"543 DIXWELL AV","New Haven","CT",""
17970,"188 THOMPSON ST","New Haven","CT",""
17971,"184 THOMPSON ST","New Haven","CT",""
17972,"174 THOMPSON ST","New Haven","CT",""
17973,"172 THOMPSON ST","New Haven","CT",""
17974,"168 THOMPSON ST","New Haven","CT",""
17975,"166 THOMPSON ST","New Haven","CT",""
17976,"158 SHELTON AV","New Haven","CT",""
17977,"275 DIVISION ST","New Haven","CT",""
17978,"279 DIVISION ST","New Haven","CT",""
17979,"287 DIVISION ST","New Haven","CT",""
17980,"289 DIVISION ST","New Haven","CT",""
17981,"293 DIVISION ST","New Haven","CT",""
17982,"DIVISION ST","New Haven","CT",""
17983,"297 DIVISION ST","New Haven","CT",""
17984,"511 DIXWELL AV","New Haven","CT",""
17985,"523 DIXWELL AV","New Haven","CT",""
17986,"527 DIXWELL AV","New Haven","CT",""
17987,"529 DIXWELL AV","New Haven","CT",""
17988,"531 DIXWELL AV","New Haven","CT",""
17989,"535 DIXWELL AV","New Haven","CT",""
17990,"539 DIXWELL AV","New Haven","CT",""
17991,"FORD ST","New Haven","CT",""
17992,"38 FORD ST","New Haven","CT",""
17993,"36 FORD ST","New Haven","CT",""
17994,"34 FORD ST","New Haven","CT",""
17995,"32 FORD ST","New Haven","CT",""
17996,"30 FORD ST","New Haven","CT",""
17997,"28 FORD ST","New Haven","CT",""
17998,"26 FORD ST","New Haven","CT",""
17999,"22 FORD ST","New Haven","CT",""
18000,"20 FORD ST","New Haven","CT",""
