"pid","location","city","state","zip"
6001,"19 BARNES AV","New Haven","CT",""
6002,"MIDDLETOWN AV","New Haven","CT",""
6003,"MIDDLETOWN AV","New Haven","CT",""
6004,"163 MIDDLETOWN AV","New Haven","CT",""
6005,NA,"New Haven","CT",""
6006,"159 MIDDLETOWN AV","New Haven","CT",""
6007,"MIDDLETOWN AV","New Haven","CT",""
6008,"166 MIDDLETOWN AV","New Haven","CT",""
6009,"170 MIDDLETOWN AV","New Haven","CT",""
6010,"80 MIDDLETOWN AV","New Haven","CT",""
6011,"MIDDLETOWN AV","New Haven","CT",""
6012,"MIDDLETOWN AV","New Haven","CT",""
6013,"MIDDLETOWN AV","New Haven","CT",""
6014,"150 MIDDLETOWN AV","New Haven","CT",""
6015,"140 MIDDLETOWN AV","New Haven","CT",""
6016,"MIDDLETOWN AV","New Haven","CT",""
6017,"MIDDLETOWN AV","New Haven","CT",""
6018,"MIDDLETOWN AV","New Haven","CT",""
6019,"MIDDLETOWN AV","New Haven","CT",""
6020,"MIDDLETOWN AV","New Haven","CT",""
6021,"164 MIDDLETOWN AV","New Haven","CT",""
6022,"162 MIDDLETOWN AV","New Haven","CT",""
6023,"MIDDLETOWN AV","New Haven","CT",""
6024,"256 MIDDLETOWN AV","New Haven","CT",""
6025,"250 MIDDLETOWN AV","New Haven","CT",""
6026,"200 MIDDLETOWN AV","New Haven","CT",""
6027,"198 MIDDLETOWN AV","New Haven","CT",""
6028,"190 MIDDLETOWN AV","New Haven","CT",""
6029,"300 MIDDLETOWN AV","New Haven","CT",""
6030,"456 MIDDLETOWN AV","New Haven","CT",""
6031,"454 MIDDLETOWN AV #1A","New Haven","CT",""
6032,"454 MIDDLETOWN AV #2B","New Haven","CT",""
6033,"454 MIDDLETOWN AV #3C","New Haven","CT",""
6034,"454 MIDDLETOWN AV #4D","New Haven","CT",""
6035,"452 MIDDLETOWN AV","New Haven","CT",""
6036,"450 MIDDLETOWN AV","New Haven","CT",""
6037,"448 MIDDLETOWN AV","New Haven","CT",""
6038,"436 MIDDLETOWN AV","New Haven","CT",""
6039,"420 MIDDLETOWN AV","New Haven","CT",""
6040,"463 MIDDLETOWN AV #14","New Haven","CT",""
6041,"465 MIDDLETOWN AV #15","New Haven","CT",""
6042,"467 MIDDLETOWN AV #16","New Haven","CT",""
6043,"469 MIDDLETOWN AV #17","New Haven","CT",""
6044,"471 MIDDLETOWN AV #18","New Haven","CT",""
6045,"1 ELLIS ST #13","New Haven","CT",""
6046,"3 ELLIS ST #12","New Haven","CT",""
6047,"5 ELLIS ST #11","New Haven","CT",""
6048,"7 ELLIS ST #10","New Haven","CT",""
6049,"9 ELLIS ST #9","New Haven","CT",""
6050,"11 ELLIS ST #8","New Haven","CT",""
6051,"15 ELLIS ST #7","New Haven","CT",""
6052,"17 ELLIS ST #6","New Haven","CT",""
6053,"19 ELLIS ST #5","New Haven","CT",""
6054,"21 ELLIS ST #4","New Haven","CT",""
6055,"23 ELLIS ST #3","New Haven","CT",""
6056,"25 ELLIS ST #2","New Haven","CT",""
6057,"27 ELLIS ST #1","New Haven","CT",""
6058,"60 WEYBOSSET ST","New Haven","CT",""
6059,"457 MIDDLETOWN AV","New Haven","CT",""
6060,NA,"New Haven","CT",""
6061,"36 WEYBOSSET ST","New Haven","CT",""
6062,"439 MIDDLETOWN AV","New Haven","CT",""
6063,"30 WEYBOSSET ST","New Haven","CT",""
6064,"429 MIDDLETOWN AV","New Haven","CT",""
6065,"22 WEYBOSSET ST","New Haven","CT",""
6066,"423 MIDDLETOWN AV","New Haven","CT",""
6067,"14 WEYBOSSET ST","New Haven","CT",""
6068,"411 MIDDLETOWN AV","New Haven","CT",""
6069,"45 WEYBOSSET ST","New Haven","CT",""
6070,"41 WEYBOSSET ST","New Haven","CT",""
6071,"37 WEYBOSSET ST","New Haven","CT",""
6072,"33 WEYBOSSET ST","New Haven","CT",""
6073,"27 WEYBOSSET ST","New Haven","CT",""
6074,"21 WEYBOSSET ST","New Haven","CT",""
6075,"5 WEYBOSSET ST","New Haven","CT",""
6076,"341 SMITH AV","New Haven","CT",""
6077,"25 FLINT ST","New Haven","CT",""
6078,"53 WEYBOSSET ST #53A","New Haven","CT",""
6079,"53 WEYBOSSET ST #53B","New Haven","CT",""
6080,"53 WEYBOSSET ST #53C","New Haven","CT",""
6081,"53 WEYBOSSET ST #53D","New Haven","CT",""
6082,"55 WEYBOSSET ST #55A","New Haven","CT",""
6083,"55 WEYBOSSET ST #55B","New Haven","CT",""
6084,"55 WEYBOSSET ST #55C","New Haven","CT",""
6085,"55 WEYBOSSET ST #55D","New Haven","CT",""
6086,"61 WEYBOSSET ST #61A","New Haven","CT",""
6087,"61 WEYBOSSET ST #61B","New Haven","CT",""
6088,"63 WEYBOSSET ST #63A","New Haven","CT",""
6089,"63 WEYBOSSET ST #63B","New Haven","CT",""
6090,"63 WEYBOSSET ST #63C","New Haven","CT",""
6091,"63 WEYBOSSET ST #63D","New Haven","CT",""
6092,"65 WEYBOSSET ST #65A","New Haven","CT",""
6093,"65 WEYBOSSET ST #65B","New Haven","CT",""
6094,"65 WEYBOSSET ST #65C","New Haven","CT",""
6095,"65 WEYBOSSET ST #65D","New Haven","CT",""
6096,"71 WEYBOSSET ST #71A","New Haven","CT",""
6097,"71 WEYBOSSET ST #71B","New Haven","CT",""
6098,"71 WEYBOSSET ST #71C","New Haven","CT",""
6099,"71 WEYBOSSET ST #71D","New Haven","CT",""
6100,"73 WEYBOSSET ST #73A","New Haven","CT",""
6101,"73 WEYBOSSET ST #73B","New Haven","CT",""
6102,"73 WEYBOSSET ST #73C","New Haven","CT",""
6103,"73 WEYBOSSET ST #73D","New Haven","CT",""
6104,"1 HEMINGWAY PL","New Haven","CT",""
6105,"5 HEMINGWAY PL","New Haven","CT",""
6106,"7 HEMINGWAY PL","New Haven","CT",""
6107,"9 HEMINGWAY PL","New Haven","CT",""
6108,"HEMINGWAY PL","New Haven","CT",""
6109,"11 HEMINGWAY PL","New Haven","CT",""
6110,"HEMINGWAY PL","New Haven","CT",""
6111,"15 HEMINGWAY PL","New Haven","CT",""
6112,"19 HEMINGWAY PL","New Haven","CT",""
6113,"1500 QUINNIPIAC AV","New Haven","CT",""
6114,"1496 QUINNIPIAC AV","New Haven","CT",""
6115,"1492 QUINNIPIAC AV","New Haven","CT",""
6116,"1488 QUINNIPIAC AV","New Haven","CT",""
6117,"1480 QUINNIPIAC AV","New Haven","CT",""
6118,"1474 QUINNIPIAC AV","New Haven","CT",""
6119,"1470 QUINNIPIAC AV","New Haven","CT",""
6120,"1464 QUINNIPIAC AV","New Haven","CT",""
6121,"1462 QUINNIPIAC AV","New Haven","CT",""
6122,"1460 QUINNIPIAC AV","New Haven","CT",""
6123,"1454 QUINNIPIAC AV","New Haven","CT",""
6124,"1450 QUINNIPIAC AV","New Haven","CT",""
6125,"1440 QUINNIPIAC AV","New Haven","CT",""
6126,"1436 QUINNIPIAC AV","New Haven","CT",""
6127,"1438 QUINNIPIAC AV","New Haven","CT",""
6128,"1442 QUINNIPIAC AV","New Haven","CT",""
6129,"1444 QUINNIPIAC AV","New Haven","CT",""
6130,"1446 QUINNIPIAC AV","New Haven","CT",""
6131,"1448 QUINNIPIAC AV","New Haven","CT",""
6132,"1434 QUINNIPIAC AV","New Haven","CT",""
6133,"1426 QUINNIPIAC AV","New Haven","CT",""
6134,"1420 QUINNIPIAC AV","New Haven","CT",""
6135,"1382 QUINNIPIAC AV","New Haven","CT",""
6136,"1380 QUINNIPIAC AV","New Haven","CT",""
6137,"1378 QUINNIPIAC AV","New Haven","CT",""
6138,"1376 QUINNIPIAC AV","New Haven","CT",""
6139,"1370 QUINNIPIAC AV","New Haven","CT",""
6140,"1368 QUINNIPIAC AV","New Haven","CT",""
6141,"341 SMITH AV","New Haven","CT",""
6142,"5 ASSUMPTION ST","New Haven","CT",""
6143,"15 ASSUMPTION ST","New Haven","CT",""
6144,"23 ASSUMPTION ST","New Haven","CT",""
6145,"29 ASSUMPTION ST","New Haven","CT",""
6146,"35 ASSUMPTION ST","New Haven","CT",""
6147,"41 ASSUMPTION ST","New Haven","CT",""
6148,"45 ASSUMPTION ST","New Haven","CT",""
6149,"1532 QUINNIPIAC AV","New Haven","CT",""
6150,"1524 QUINNIPIAC AV","New Haven","CT",""
6151,"1520 QUINNIPIAC AV","New Haven","CT",""
6152,"1516 QUINNIPIAC AV","New Haven","CT",""
6153,"1514 QUINNIPIAC AV","New Haven","CT",""
6154,"1510 QUINNIPIAC AV","New Haven","CT",""
6155,"20 HEMINGWAY PL","New Haven","CT",""
6156,"16 HEMINGWAY PL","New Haven","CT",""
6157,"12 HEMINGWAY PL","New Haven","CT",""
6158,"8 HEMINGWAY PL","New Haven","CT",""
6159,"6 HEMINGWAY PL","New Haven","CT",""
6160,"4 HEMINGWAY PL","New Haven","CT",""
6161,"2 HEMINGWAY PL","New Haven","CT",""
6162,"1659 QUINNIPIAC AV","New Haven","CT",""
6163,"220 FOXON HILL RD","New Haven","CT",""
6164,"200 FOXON HILL RD","New Haven","CT",""
6165,"190 FOXON HILL RD","New Haven","CT",""
6166,"170 FOXON HILL RD","New Haven","CT",""
6167,"52 ROOSEVELT ST","New Haven","CT",""
6168,"42 ROOSEVELT ST","New Haven","CT",""
6169,"34 ROOSEVELT ST","New Haven","CT",""
6170,"26 ROOSEVELT ST","New Haven","CT",""
6171,"18 ROOSEVELT ST","New Haven","CT",""
6172,"10 ROOSEVELT ST","New Haven","CT",""
6173,"6 ROOSEVELT ST","New Haven","CT",""
6174,"4 ROOSEVELT ST","New Haven","CT",""
6175,"10 ROOSEVELT ST EX","New Haven","CT",""
6176,"16 ROOSEVELT ST EX","New Haven","CT",""
6177,"22 ROOSEVELT ST EX","New Haven","CT",""
6178,"30 ROOSEVELT ST EX","New Haven","CT",""
6179,"36 ROOSEVELT ST EX","New Haven","CT",""
6180,"44 ROOSEVELT ST EX","New Haven","CT",""
6181,"50 ROOSEVELT ST EX","New Haven","CT",""
6182,"58 ROOSEVELT ST EX","New Haven","CT",""
6183,"62 ROOSEVELT ST EX","New Haven","CT",""
6184,"68 ROOSEVELT ST EX","New Haven","CT",""
6185,"74 ROOSEVELT ST EX","New Haven","CT",""
6186,"80 ROOSEVELT ST EX","New Haven","CT",""
6187,"88 ROOSEVELT ST EX","New Haven","CT",""
6188,"100 ROOSEVELT ST EX","New Haven","CT",""
6189,"1537 QUINNIPIAC AV","New Haven","CT",""
6190,"94 ROOSEVELT ST EX","New Haven","CT",""
6191,"1543 QUINNIPIAC AV","New Haven","CT",""
6192,"1549 QUINNIPIAC AV","New Haven","CT",""
6193,"1555 QUINNIPIAC AV","New Haven","CT",""
6194,"1553 QUINNIPIAC AV","New Haven","CT",""
6195,"1573 QUINNIPIAC AV","New Haven","CT",""
6196,"1587 QUINNIPIAC AV","New Haven","CT",""
6197,"1593 QUINNIPIAC AV","New Haven","CT",""
6198,"1597 QUINNIPIAC AV","New Haven","CT",""
6199,"1601 QUINNIPIAC AV","New Haven","CT",""
6200,"1607 QUINNIPIAC AV","New Haven","CT",""
6201,"1619 QUINNIPIAC AV","New Haven","CT",""
6202,"1625 QUINNIPIAC AV","New Haven","CT",""
6203,"1631 QUINNIPIAC AV","New Haven","CT",""
6204,"1637 QUINNIPIAC AV #1","New Haven","CT",""
6205,"1639 QUINNIPIAC AV #2","New Haven","CT",""
6206,"1641 QUINNIPIAC AV #3","New Haven","CT",""
6207,"1643 QUINNIPIAC AV #4","New Haven","CT",""
6208,"1645 QUINNIPIAC AV #5","New Haven","CT",""
6209,"1647 QUINNIPIAC AV #6","New Haven","CT",""
6210,"1649 QUINNIPIAC AV #7","New Haven","CT",""
6211,"1651 QUINNIPIAC AV #8","New Haven","CT",""
6212,"ROOSEVELT ST EX","New Haven","CT",""
6213,"59 ROOSEVELT ST","New Haven","CT",""
6214,"61 ROOSEVELT ST","New Haven","CT",""
6215,"120 FOXON HILL RD","New Haven","CT",""
6216,"55 ROOSEVELT ST","New Haven","CT",""
6217,"49 ROOSEVELT ST","New Haven","CT",""
6218,"41 ROOSEVELT ST","New Haven","CT",""
6219,"35 ROOSEVELT ST","New Haven","CT",""
6220,"25 ROOSEVELT ST","New Haven","CT",""
6221,"17 ROOSEVELT ST","New Haven","CT",""
6222,"11 ROOSEVELT ST","New Haven","CT",""
6223,"3 ROOSEVELT ST","New Haven","CT",""
6224,"15 ROOSEVELT ST EX","New Haven","CT",""
6225,"21 ROOSEVELT ST EX","New Haven","CT",""
6226,"27 ROOSEVELT ST EX","New Haven","CT",""
6227,"35 ROOSEVELT ST EX","New Haven","CT",""
6228,"43 ROOSEVELT ST EX","New Haven","CT",""
6229,"51 ROOSEVELT ST EX","New Haven","CT",""
6230,"57 ROOSEVELT ST EX","New Haven","CT",""
6231,"75 ROOSEVELT ST EX","New Haven","CT",""
6232,"83 ROOSEVELT ST EX","New Haven","CT",""
6233,"89 ROOSEVELT ST EX","New Haven","CT",""
6234,"95 ROOSEVELT ST","New Haven","CT",""
6235,"104 ROOSEVELT ST EX","New Haven","CT",""
6236,"110 ROOSEVELT ST EX","New Haven","CT",""
6237,"112 ROOSEVELT ST EX","New Haven","CT",""
6238,NA,"New Haven","CT",""
6239,"100 FOXON HILL RD","New Haven","CT",""
6240,"90 FOXON HILL RD","New Haven","CT",""
6241,"80 FOXON HILL RD","New Haven","CT",""
6242,"66 FOXON HILL RD","New Haven","CT",""
6243,"52 FOXON HILL RD","New Haven","CT",""
6244,"30 FOXON HILL RD","New Haven","CT",""
6245,"18 FOXON HILL RD","New Haven","CT",""
6246,"40 FOXON HILL RD #1","New Haven","CT",""
6247,"40 FOXON HILL RD #2","New Haven","CT",""
6248,"40 FOXON HILL RD #3","New Haven","CT",""
6249,"40 FOXON HILL RD #4","New Haven","CT",""
6250,"40 FOXON HILL RD #5","New Haven","CT",""
6251,"40 FOXON HILL RD #6","New Haven","CT",""
6252,"40 FOXON HILL RD #7","New Haven","CT",""
6253,"40 FOXON HILL RD #8","New Haven","CT",""
6254,"40 FOXON HILL RD #9","New Haven","CT",""
6255,"40 FOXON HILL RD #10","New Haven","CT",""
6256,"40 FOXON HILL RD #11","New Haven","CT",""
6257,"40 FOXON HILL RD #12","New Haven","CT",""
6258,"40 FOXON HILL RD #13","New Haven","CT",""
6259,"40 FOXON HILL RD #14","New Haven","CT",""
6260,"40 FOXON HILL RD #15","New Haven","CT",""
6261,"40 FOXON HILL RD #16","New Haven","CT",""
6262,"40 FOXON HILL RD #17","New Haven","CT",""
6263,"40 FOXON HILL RD #18","New Haven","CT",""
6264,"40 FOXON HILL RD #19","New Haven","CT",""
6265,"40 FOXON HILL RD #20","New Haven","CT",""
6266,"40 FOXON HILL RD #21","New Haven","CT",""
6267,"40 FOXON HILL RD #22","New Haven","CT",""
6268,"40 FOXON HILL RD #23","New Haven","CT",""
6269,"40 FOXON HILL RD #24","New Haven","CT",""
6270,"40 FOXON HILL RD #25","New Haven","CT",""
6271,"40 FOXON HILL RD #26","New Haven","CT",""
6272,"40 FOXON HILL RD #27","New Haven","CT",""
6273,"40 FOXON HILL RD #28","New Haven","CT",""
6274,"40 FOXON HILL RD #29","New Haven","CT",""
6275,"40 FOXON HILL RD #30","New Haven","CT",""
6276,"40 FOXON HILL RD #31","New Haven","CT",""
6277,"40 FOXON HILL RD #32","New Haven","CT",""
6278,"40 FOXON HILL RD #33","New Haven","CT",""
6279,"40 FOXON HILL RD #34","New Haven","CT",""
6280,"40 FOXON HILL RD #35","New Haven","CT",""
6281,"40 FOXON HILL RD #36","New Haven","CT",""
6282,"40 FOXON HILL RD #37","New Haven","CT",""
6283,"40 FOXON HILL RD #38","New Haven","CT",""
6284,"40 FOXON HILL RD #39","New Haven","CT",""
6285,"40 FOXON HILL RD #40","New Haven","CT",""
6286,"40 FOXON HILL RD #41","New Haven","CT",""
6287,"40 FOXON HILL RD #42","New Haven","CT",""
6288,"40 FOXON HILL RD #43","New Haven","CT",""
6289,"40 FOXON HILL RD #44","New Haven","CT",""
6290,"40 FOXON HILL RD #45","New Haven","CT",""
6291,"40 FOXON HILL RD #46","New Haven","CT",""
6292,"40 FOXON HILL RD #47","New Haven","CT",""
6293,"40 FOXON HILL RD #48","New Haven","CT",""
6294,"40 FOXON HILL RD #49","New Haven","CT",""
6295,"40 FOXON HILL RD #50","New Haven","CT",""
6296,"40 FOXON HILL RD #51","New Haven","CT",""
6297,"40 FOXON HILL RD #52","New Haven","CT",""
6298,"40 FOXON HILL RD #53","New Haven","CT",""
6299,"40 FOXON HILL RD #54","New Haven","CT",""
6300,"40 FOXON HILL RD #55","New Haven","CT",""
6301,"40 FOXON HILL RD #56","New Haven","CT",""
6302,"40 FOXON HILL RD #57","New Haven","CT",""
6303,"40 FOXON HILL RD #58","New Haven","CT",""
6304,"40 FOXON HILL RD #63","New Haven","CT",""
6305,"40 FOXON HILL RD #64","New Haven","CT",""
6306,"40 FOXON HILL RD #65","New Haven","CT",""
6307,"40 FOXON HILL RD #66","New Haven","CT",""
6308,"40 FOXON HILL RD #59","New Haven","CT",""
6309,"40 FOXON HILL RD #60","New Haven","CT",""
6310,"40 FOXON HILL RD #61","New Haven","CT",""
6311,"40 FOXON HILL RD #62","New Haven","CT",""
6312,"40 FOXON HILL RD #73","New Haven","CT",""
6313,"40 FOXON HILL RD #74","New Haven","CT",""
6314,NA,"New Haven","CT",""
6315,"FOXON HILL RD","New Haven","CT",""
6316,"34 HAWTHORNE RD","New Haven","CT",""
6317,"40 HAWTHORNE RD","New Haven","CT",""
6318,"48 HAWTHORNE RD","New Haven","CT",""
6319,"52 HAWTHORNE RD","New Haven","CT",""
6320,"56 HAWTHORNE RD","New Haven","CT",""
6321,"25 FOXON HILL RD","New Haven","CT",""
6322,"7 FOXON HILL RD","New Haven","CT",""
6323,"30 HAWTHORNE RD","New Haven","CT",""
6324,"16 HAWTHORNE RD","New Haven","CT",""
6325,"10 HAWTHORNE RD","New Haven","CT",""
6326,"4 HAWTHORNE RD","New Haven","CT",""
6327,"67 MELROSE DR","New Haven","CT",""
6328,"73 MELROSE DR","New Haven","CT",""
6329,"81 MELROSE DR","New Haven","CT",""
6330,"87 MELROSE DR","New Haven","CT",""
6331,"13 NORWOOD RD","New Haven","CT",""
6332,"17 NORWOOD RD","New Haven","CT",""
6333,"23 NORWOOD RD","New Haven","CT",""
6334,"25 NORWOOD RD","New Haven","CT",""
6335,"29 NORWOOD RD","New Haven","CT",""
6336,"35 NORWOOD RD","New Haven","CT",""
6337,"41 NORWOOD RD","New Haven","CT",""
6338,"47 NORWOOD RD","New Haven","CT",""
6339,"183 GLEN HAVEN RD","New Haven","CT",""
6340,"193 GLEN HAVEN RD","New Haven","CT",""
6341,"199 GLEN HAVEN RD","New Haven","CT",""
6342,"GLEN HAVEN RD","New Haven","CT",""
6343,"203 GLEN HAVEN RD","New Haven","CT",""
6344,"19 OAK RIDGE DR","New Haven","CT",""
6345,"19 OAK RIDGE DR #61","New Haven","CT",""
6346,"19 OAK RIDGE DR #62","New Haven","CT",""
6347,"19 OAK RIDGE DR #63","New Haven","CT",""
6348,"19 OAK RIDGE DR #64","New Haven","CT",""
6349,"29 OAK RIDGE DR","New Haven","CT",""
6350,"29 OAK RIDGE DR #65","New Haven","CT",""
6351,"29 OAK RIDGE DR #66","New Haven","CT",""
6352,"29 OAK RIDGE DR #67","New Haven","CT",""
6353,"29 OAK RIDGE DR #68","New Haven","CT",""
6354,"41 OAK RIDGE DR","New Haven","CT",""
6355,"49 OAK RIDGE DR","New Haven","CT",""
6356,"55 OAK RIDGE DR","New Haven","CT",""
6357,"55 OAK RIDGE DR #58","New Haven","CT",""
6358,"55 OAK RIDGE DR #60","New Haven","CT",""
6359,"55 OAK RIDGE DR #59","New Haven","CT",""
6360,"55 OAK RIDGE DR #57","New Haven","CT",""
6361,"63 OAK RIDGE DR","New Haven","CT",""
6362,"63 OAK RIDGE DR #53","New Haven","CT",""
6363,"63 OAK RIDGE DR #54","New Haven","CT",""
6364,"63 OAK RIDGE DR #55","New Haven","CT",""
6365,"63 OAK RIDGE DR #56","New Haven","CT",""
6366,"69 OAK RIDGE DR","New Haven","CT",""
6367,"69 OAK RIDGE DR #52","New Haven","CT",""
6368,"69 OAK RIDGE DR #49","New Haven","CT",""
6369,"69 OAK RIDGE DR #51","New Haven","CT",""
6370,"69 OAK RIDGE DR #50","New Haven","CT",""
6371,"95 OAK RIDGE DR","New Haven","CT",""
6372,"95 OAK RIDGE DR #47","New Haven","CT",""
6373,"95 OAK RIDGE DR #46","New Haven","CT",""
6374,"95 OAK RIDGE DR #45","New Haven","CT",""
6375,"95 OAK RIDGE DR #48","New Haven","CT",""
6376,"103 OAK RIDGE DR #1","New Haven","CT",""
6377,"103 OAK RIDGE DR #2","New Haven","CT",""
6378,"103 OAK RIDGE DR #3","New Haven","CT",""
6379,"103 OAK RIDGE DR #4","New Haven","CT",""
6380,"102 OAK RIDGE DR","New Haven","CT",""
6381,"102 OAK RIDGE DR #41","New Haven","CT",""
6382,"102 OAK RIDGE DR #44","New Haven","CT",""
6383,"102 OAK RIDGE DR #43","New Haven","CT",""
6384,"102 OAK RIDGE DR #42","New Haven","CT",""
6385,"96 OAK RIDGE DR","New Haven","CT",""
6386,"86 OAK RIDGE DR","New Haven","CT",""
6387,"86 OAK RIDGE DR #38","New Haven","CT",""
6388,"86 OAK RIDGE DR #37","New Haven","CT",""
6389,"86 OAK RIDGE DR #39","New Haven","CT",""
6390,"86 OAK RIDGE DR #40","New Haven","CT",""
6391,"68 OAK RIDGE DR","New Haven","CT",""
6392,"68 OAK RIDGE DR #33","New Haven","CT",""
6393,"68 OAK RIDGE DR #36","New Haven","CT",""
6394,"68 OAK RIDGE DR #34","New Haven","CT",""
6395,"68 OAK RIDGE DR #35","New Haven","CT",""
6396,"60 OAK RIDGE DR","New Haven","CT",""
6397,"60 OAK RIDGE DR #31","New Haven","CT",""
6398,"60 OAK RIDGE DR #32","New Haven","CT",""
6399,"60 OAK RIDGE DR #30","New Haven","CT",""
6400,"60 OAK RIDGE DR #29","New Haven","CT",""
6401,"52 OAK RIDGE DR","New Haven","CT",""
6402,"52 OAK RIDGE DR #26","New Haven","CT",""
6403,"52 OAK RIDGE DR #27","New Haven","CT",""
6404,"52 OAK RIDGE DR #25","New Haven","CT",""
6405,"52 OAK RIDGE DR #28","New Haven","CT",""
6406,"44 OAK RIDGE DR","New Haven","CT",""
6407,"44 OAK RIDGE DR #22","New Haven","CT",""
6408,"44 OAK RIDGE DR #23","New Haven","CT",""
6409,"44 OAK RIDGE DR #24","New Haven","CT",""
6410,"44 OAK RIDGE DR #21","New Haven","CT",""
6411,"36 OAK RIDGE DR","New Haven","CT",""
6412,"36 OAK RIDGE DR #17","New Haven","CT",""
6413,"36 OAK RIDGE DR #19","New Haven","CT",""
6414,"36 OAK RIDGE DR #20","New Haven","CT",""
6415,"36 OAK RIDGE DR #18","New Haven","CT",""
6416,"30 OAK RIDGE DR","New Haven","CT",""
6417,"30 OAK RIDGE DR #16","New Haven","CT",""
6418,"30 OAK RIDGE DR #15","New Haven","CT",""
6419,"30 OAK RIDGE DR #14","New Haven","CT",""
6420,"30 OAK RIDGE DR #13","New Haven","CT",""
6421,"24 OAK RIDGE DR","New Haven","CT",""
6422,"24 OAK RIDGE DR #11","New Haven","CT",""
6423,"24 OAK RIDGE DR #9","New Haven","CT",""
6424,"24 OAK RIDGE DR #12","New Haven","CT",""
6425,"24 OAK RIDGE DR #10","New Haven","CT",""
6426,"14 OAK RIDGE DR","New Haven","CT",""
6427,"14 OAK RIDGE DR #6","New Haven","CT",""
6428,"14 OAK RIDGE DR #8","New Haven","CT",""
6429,"14 OAK RIDGE DR #5","New Haven","CT",""
6430,"14 OAK RIDGE DR #7","New Haven","CT",""
6431,"6 OAK RIDGE DR","New Haven","CT",""
6432,"6 OAK RIDGE DR #1","New Haven","CT",""
6433,"6 OAK RIDGE DR #2","New Haven","CT",""
6434,"6 OAK RIDGE DR #3","New Haven","CT",""
6435,"6 OAK RIDGE DR #4","New Haven","CT",""
6436,"225 GLEN HAVEN RD","New Haven","CT",""
6437,"30 HAWTHORNE RD #A","New Haven","CT",""
6438,"30 HAWTHORNE RD #B","New Haven","CT",""
6439,"30 HAWTHORNE RD #C","New Haven","CT",""
6440,"30 HAWTHORNE RD #D","New Haven","CT",""
6441,"30 HAWTHORNE RD #E","New Haven","CT",""
6442,"30 HAWTHORNE RD #F","New Haven","CT",""
6443,"30 HAWTHORNE RD #G","New Haven","CT",""
6444,"30 HAWTHORNE RD #H","New Haven","CT",""
6445,"30 HAWTHORNE RD #J","New Haven","CT",""
6446,"30 HAWTHORNE RD #K","New Haven","CT",""
6447,"30 HAWTHORNE RD #L","New Haven","CT",""
6448,"30 HAWTHORNE RD #M","New Haven","CT",""
6449,"30 HAWTHORNE RD #N","New Haven","CT",""
6450,"30 HAWTHORNE RD #P","New Haven","CT",""
6451,"30 HAWTHORNE RD #Q","New Haven","CT",""
6452,"30 HAWTHORNE RD #U","New Haven","CT",""
6453,"30 HAWTHORNE RD #V","New Haven","CT",""
6454,"30 HAWTHORNE RD #W","New Haven","CT",""
6455,"136 GLEN HAVEN RD","New Haven","CT",""
6456,"142 GLEN HAVEN RD","New Haven","CT",""
6457,"146 GLEN HAVEN RD","New Haven","CT",""
6458,"150 GLEN HAVEN RD","New Haven","CT",""
6459,"156 GLEN HAVEN RD","New Haven","CT",""
6460,"164 GLEN HAVEN RD","New Haven","CT",""
6461,"170 GLEN HAVEN RD","New Haven","CT",""
6462,"178 GLEN HAVEN RD","New Haven","CT",""
6463,"184 GLEN HAVEN RD","New Haven","CT",""
6464,"190 GLEN HAVEN RD","New Haven","CT",""
6465,"206 GLEN HAVEN RD","New Haven","CT",""
6466,"220 GLEN HAVEN RD","New Haven","CT",""
6467,"232 GLEN HAVEN RD","New Haven","CT",""
6468,"95 MELROSE DR","New Haven","CT",""
6469,"105 MELROSE DR","New Haven","CT",""
6470,"111 MELROSE DR","New Haven","CT",""
6471,"145 GLEN HAVEN RD","New Haven","CT",""
6472,"155 GLEN HAVEN RD","New Haven","CT",""
6473,"161 GLEN HAVEN RD","New Haven","CT",""
6474,"167 GLEN HAVEN RD","New Haven","CT",""
6475,"42 NORWOOD RD","New Haven","CT",""
6476,"34 NORWOOD RD","New Haven","CT",""
6477,"24 NORWOOD RD","New Haven","CT",""
6478,"49 MELROSE DR","New Haven","CT",""
6479,"17 HAWTHORNE RD","New Haven","CT",""
6480,"25 HAWTHORNE RD","New Haven","CT",""
6481,"35 HAWTHORNE RD","New Haven","CT",""
6482,"43 HAWTHORNE RD","New Haven","CT",""
6483,"127 FOXON HILL RD","New Haven","CT",""
6484,"125 FOXON HILL RD","New Haven","CT",""
6485,"139 FOXON HILL RD","New Haven","CT",""
6486,"149 FOXON HILL RD","New Haven","CT",""
6487,"179 FOXON HILL RD","New Haven","CT",""
6488,"195 FOXON HILL RD","New Haven","CT",""
6489,"221 FOXON HILL RD","New Haven","CT",""
6490,"1671 QUINNIPIAC AV","New Haven","CT",""
6491,"237 FOXON HILL RD","New Haven","CT",""
6492,"1681 QUINNIPIAC AV","New Haven","CT",""
6493,"QUINNIPIAC AV","New Haven","CT",""
6494,"1677 QUINNIPIAC AV","New Haven","CT",""
6495,"QUINNIPIAC AV","New Haven","CT",""
6496,"1691 QUINNIPIAC AV","New Haven","CT",""
6497,"15 GLEN HAVEN RD","New Haven","CT",""
6498,"25 GLEN HAVEN RD","New Haven","CT",""
6499,"31 GLEN HAVEN RD","New Haven","CT",""
6500,"11 MELROSE DR","New Haven","CT",""
6501,"13 MELROSE DR","New Haven","CT",""
6502,"19 MELROSE DR","New Haven","CT",""
6503,"25 MELROSE DR","New Haven","CT",""
6504,"29 MELROSE DR","New Haven","CT",""
6505,"37 MELROSE DR","New Haven","CT",""
6506,"41 MELROSE DR","New Haven","CT",""
6507,"130 GLEN HAVEN RD","New Haven","CT",""
6508,"122 GLEN HAVEN RD","New Haven","CT",""
6509,"116 GLEN HAVEN RD","New Haven","CT",""
6510,"110 GLEN HAVEN RD","New Haven","CT",""
6511,"106 GLEN HAVEN RD","New Haven","CT",""
6512,"100 GLEN HAVEN RD","New Haven","CT",""
6513,"GLEN HAVEN RD","New Haven","CT",""
6514,"88 GLEN HAVEN RD","New Haven","CT",""
6515,"80 GLEN HAVEN RD","New Haven","CT",""
6516,"76 GLEN HAVEN RD","New Haven","CT",""
6517,"66 GLEN HAVEN RD","New Haven","CT",""
6518,"60 GLEN HAVEN RD","New Haven","CT",""
6519,"52 GLEN HAVEN RD","New Haven","CT",""
6520,"44 GLEN HAVEN RD","New Haven","CT",""
6521,"36 GLEN HAVEN RD","New Haven","CT",""
6522,"30 GLEN HAVEN RD","New Haven","CT",""
6523,"24 GLEN HAVEN RD","New Haven","CT",""
6524,"GLEN HAVEN RD","New Haven","CT",""
6525,"1731 QUINNIPIAC AV","New Haven","CT",""
6526,"1739 QUINNIPIAC AV","New Haven","CT",""
6527,"1749 QUINNIPIAC AV","New Haven","CT",""
6528,"1763 QUINNIPIAC AV","New Haven","CT",""
6529,"1755 QUINNIPIAC AV","New Haven","CT",""
6530,"1767 QUINNIPIAC AV","New Haven","CT",""
6531,"1771 QUINNIPIAC AV","New Haven","CT",""
6532,"1777 QUINNIPIAC AV","New Haven","CT",""
6533,"1785 QUINNIPIAC AV","New Haven","CT",""
6534,"131 GLEN HAVEN RD","New Haven","CT",""
6535,"108 MELROSE DR","New Haven","CT",""
6536,"100 MELROSE DR","New Haven","CT",""
6537,"92 MELROSE DR","New Haven","CT",""
6538,"86 MELROSE DR","New Haven","CT",""
6539,"80 MELROSE DR","New Haven","CT",""
6540,"72 MELROSE DR","New Haven","CT",""
6541,"66 MELROSE DR","New Haven","CT",""
6542,"60 MELROSE DR","New Haven","CT",""
6543,"50 MELROSE DR","New Haven","CT",""
6544,"42 MELROSE DR","New Haven","CT",""
6545,"34 MELROSE DR","New Haven","CT",""
6546,"24 MELROSE DR","New Haven","CT",""
6547,"45 GLEN HAVEN RD","New Haven","CT",""
6548,"22 MELROSE DR","New Haven","CT",""
6549,"55 GLEN HAVEN RD","New Haven","CT",""
6550,"61 GLEN HAVEN RD","New Haven","CT",""
6551,"67 GLEN HAVEN RD","New Haven","CT",""
6552,"75 GLEN HAVEN RD","New Haven","CT",""
6553,"81 GLEN HAVEN RD","New Haven","CT",""
6554,"87 GLEN HAVEN RD","New Haven","CT",""
6555,"95 GLEN HAVEN RD","New Haven","CT",""
6556,"101 GLEN HAVEN RD","New Haven","CT",""
6557,"109 GLEN HAVEN RD","New Haven","CT",""
6558,"119 GLEN HAVEN RD","New Haven","CT",""
6559,"GLEN HAVEN RD","New Haven","CT",""
6560,"3 PROVIDENCE ST","New Haven","CT",""
6561,NA,"New Haven","CT",""
6562,"27 PROVIDENCE ST","New Haven","CT",""
6563,"41 PROVIDENCE ST","New Haven","CT",""
6564,"51 PROVIDENCE ST","New Haven","CT",""
6565,"59 PROVIDENCE ST","New Haven","CT",""
6566,"110 PORTLAND ST","New Haven","CT",""
6567,"68 PAWTUCKET ST","New Haven","CT",""
6568,"50 PAWTUCKET ST","New Haven","CT",""
6569,"281 WEYBOSSET ST","New Haven","CT",""
6570,"141 WESTMINSTER ST","New Haven","CT",""
6571,"1770 QUINNIPIAC AV","New Haven","CT",""
6572,"1752 QUINNIPIAC AV","New Haven","CT",""
6573,"1746 QUINNIPIAC AV","New Haven","CT",""
6574,"1738 QUINNIPIAC AV","New Haven","CT",""
6575,"1730 QUINNIPIAC AV","New Haven","CT",""
6576,"1726 QUINNIPIAC AV","New Haven","CT",""
6577,"1706 QUINNIPIAC AV","New Haven","CT",""
6578,"1720 QUINNIPIAC AV","New Haven","CT",""
6579,"1700 QUINNIPIAC AV","New Haven","CT",""
6580,NA,"New Haven","CT",""
6581,"1716 QUINNIPIAC AV","New Haven","CT",""
6582,"264 CRANSTON ST","New Haven","CT",""
6583,"236 CRANSTON ST","New Haven","CT",""
6584,"61 PORTLAND ST","New Haven","CT",""
6585,"91 PORTLAND ST","New Haven","CT",""
6586,"103 PORTLAND ST","New Haven","CT",""
6587,"115 PORTLAND ST","New Haven","CT",""
6588,"129 PORTLAND ST","New Haven","CT",""
6589,"145 PORTLAND ST","New Haven","CT",""
6590,"165 PORTLAND ST","New Haven","CT",""
6591,"175 PORTLAND ST","New Haven","CT",""
6592,"201 PORTLAND ST","New Haven","CT",""
6593,"85 WESTMINSTER ST","New Haven","CT",""
6594,"109 WESTMINSTER ST","New Haven","CT",""
6595,"PORTLAND ST","New Haven","CT",""
6596,"180 PORTLAND ST","New Haven","CT",""
6597,"170 PORTLAND ST","New Haven","CT",""
6598,"70 PROVIDENCE ST","New Haven","CT",""
6599,"48 PROVIDENCE ST","New Haven","CT",""
6600,"20 PROVIDENCE ST","New Haven","CT",""
6601,"331 WEYBOSSET ST","New Haven","CT",""
6602,"333 WEYBOSSET ST","New Haven","CT",""
6603,"1786 QUINNIPIAC AV","New Haven","CT",""
6604,"172 WESTMINSTER ST","New Haven","CT",""
6605,"170 WESTMINSTER ST","New Haven","CT",""
6606,"132 WESTMINSTER ST","New Haven","CT",""
6607,"114 WESTMINSTER ST","New Haven","CT",""
6608,"96 WESTMINSTER ST","New Haven","CT",""
6609,"80 WESTMINSTER ST","New Haven","CT",""
6610,"70 WESTMINSTER ST","New Haven","CT",""
6611,"50 WESTMINSTER ST","New Haven","CT",""
6612,"20 WESTMINSTER ST","New Haven","CT",""
6613,"24 WESTMINSTER ST","New Haven","CT",""
6614,"751 MIDDLETOWN AV","New Haven","CT",""
6615,"10 ASSUMPTION ST","New Haven","CT",""
6616,"52 PALMIERI AV","New Haven","CT",""
6617,"PALMIERI AV","New Haven","CT",""
6618,"48 PALMIERI AV","New Haven","CT",""
6619,"PALMIERI AV","New Haven","CT",""
6620,"44 PALMIERI AV","New Haven","CT",""
6621,"32 PALMIERI AV","New Haven","CT",""
6622,"28 PALMIERI AV","New Haven","CT",""
6623,"24 PALMIERI AV","New Haven","CT",""
6624,"16 PALMIERI AV","New Haven","CT",""
6625,"PALMIERI AV","New Haven","CT",""
6626,"22 ASSUMPTION ST","New Haven","CT",""
6627,"18 ASSUMPTION ST","New Haven","CT",""
6628,"ASSUMPTION ST","New Haven","CT",""
6629,"1 PALMIERI AV","New Haven","CT",""
6630,"7 PALMIERI AV","New Haven","CT",""
6631,"11 PALMIERI AV","New Haven","CT",""
6632,"15 PALMIERI AV","New Haven","CT",""
6633,"19 PALMIERI AV","New Haven","CT",""
6634,"21 PALMIERI AV","New Haven","CT",""
6635,"25 PALMIERI AV","New Haven","CT",""
6636,"39 PALMIERI AV","New Haven","CT",""
6637,"45 PALMIERI AV","New Haven","CT",""
6638,"51 PALMIERI AV","New Haven","CT",""
6639,"57 PALMIERI AV","New Haven","CT",""
6640,"63 PALMIERI AV","New Haven","CT",""
6641,"15 FIORE ST","New Haven","CT",""
6642,"1608 QUINNIPIAC AV","New Haven","CT",""
6643,"21 FIORE ST","New Haven","CT",""
6644,"1596 QUINNIPIAC AV","New Haven","CT",""
6645,"1594 QUINNIPIAC AV","New Haven","CT",""
6646,"1590 QUINNIPIAC AV","New Haven","CT",""
6647,"1586 QUINNIPIAC AV","New Haven","CT",""
6648,"1580 QUINNIPIAC AV","New Haven","CT",""
6649,"1574 QUINNIPIAC AV","New Haven","CT",""
6650,"1570 QUINNIPIAC AV","New Haven","CT",""
6651,"1560 QUINNIPIAC AV","New Haven","CT",""
6652,"1554 QUINNIPIAC AV","New Haven","CT",""
6653,"71 PALMIERI AV","New Haven","CT",""
6654,"83 PALMIERI AV","New Haven","CT",""
6655,"93 PALMIERI AV","New Haven","CT",""
6656,"621 SMITH AV","New Haven","CT",""
6657,"1658 QUINNIPIAC AV","New Haven","CT",""
6658,"QUINNIPIAC AV","New Haven","CT",""
6659,"1644 QUINNIPIAC AV","New Haven","CT",""
6660,"1640 QUINNIPIAC AV","New Haven","CT",""
6661,"1628 QUINNIPIAC AV","New Haven","CT",""
6662,"1624 QUINNIPIAC AV","New Haven","CT",""
6663,"1616 QUINNIPIAC AV","New Haven","CT",""
6664,"18 FIORE ST","New Haven","CT",""
6665,"FIORE ST","New Haven","CT",""
6666,"5 PORTLAND ST","New Haven","CT",""
6667,"21 PORTLAND ST","New Haven","CT",""
6668,"221 CRANSTON ST","New Haven","CT",""
6669,"233 CRANSTON ST","New Haven","CT",""
6670,"255 CRANSTON ST","New Haven","CT",""
6671,"1684 QUINNIPIAC AV","New Haven","CT",""
6672,"1674 QUINNIPIAC AV","New Haven","CT",""
6673,"1670 QUINNIPIAC AV","New Haven","CT",""
6674,"642 SMITH AV","New Haven","CT",""
6675,"630 SMITH AV","New Haven","CT",""
6676,"616 SMITH AV","New Haven","CT",""
6677,"325 SMITH AV","New Haven","CT",""
6678,"335 SMITH AV","New Haven","CT",""
6679,"345 SMITH AV","New Haven","CT",""
6680,"361 SMITH AV","New Haven","CT",""
6681,"381 SMITH AV","New Haven","CT",""
6682,"393 SMITH AV","New Haven","CT",""
6683,"411 SMITH AV","New Haven","CT",""
6684,"423 SMITH AV","New Haven","CT",""
6685,"441 SMITH AV","New Haven","CT",""
6686,"SMITH AV","New Haven","CT",""
6687,"463 SMITH AV","New Haven","CT",""
6688,"475 SMITH AV","New Haven","CT",""
6689,"485 SMITH AV","New Haven","CT",""
6690,"501 SMITH AV","New Haven","CT",""
6691,"511 SMITH AV","New Haven","CT",""
6692,"SMITH AV","New Haven","CT",""
6693,"PALMIERI AV","New Haven","CT",""
6694,"341 SMITH AV","New Haven","CT",""
6695,"5 CROSS ST","New Haven","CT",""
6696,"561 MIDDLETOWN AV","New Haven","CT",""
6697,"565 MIDDLETOWN AV","New Haven","CT",""
6698,"569 MIDDLETOWN AV","New Haven","CT",""
6699,"575 MIDDLETOWN AV","New Haven","CT",""
6700,"585 MIDDLETOWN AV","New Haven","CT",""
6701,"597 MIDDLETOWN AV","New Haven","CT",""
6702,"MIDDLETOWN AV","New Haven","CT",""
6703,"611 MIDDLETOWN AV","New Haven","CT",""
6704,"210 WEYBOSSET ST","New Haven","CT",""
6705,"202 WEYBOSSET ST","New Haven","CT",""
6706,"194 WEYBOSSET ST","New Haven","CT",""
6707,"190 WEYBOSSET ST","New Haven","CT",""
6708,"184 WEYBOSSET ST","New Haven","CT",""
6709,"180 WEYBOSSET ST","New Haven","CT",""
6710,"174 WEYBOSSET ST","New Haven","CT",""
6711,"170 WEYBOSSET ST","New Haven","CT",""
6712,"164 WEYBOSSET ST","New Haven","CT",""
6713,"25 CROSS ST","New Haven","CT",""
6714,"15 CROSS ST","New Haven","CT",""
6715,"155 WEYBOSSET ST","New Haven","CT",""
6716,"159 WEYBOSSET ST","New Haven","CT",""
6717,"165 WEYBOSSET ST","New Haven","CT",""
6718,"169 WEYBOSSET ST","New Haven","CT",""
6719,"175 WEYBOSSET ST","New Haven","CT",""
6720,"181 WEYBOSSET ST","New Haven","CT",""
6721,"185 WEYBOSSET ST","New Haven","CT",""
6722,"191 WEYBOSSET ST","New Haven","CT",""
6723,"195 WEYBOSSET ST","New Haven","CT",""
6724,"199 WEYBOSSET ST","New Haven","CT",""
6725,"205 WEYBOSSET ST","New Haven","CT",""
6726,"85 CRANSTON ST","New Haven","CT",""
6727,"67 CRANSTON ST","New Haven","CT",""
6728,"95 CRANSTON ST","New Haven","CT",""
6729,"115 CRANSTON ST","New Haven","CT",""
6730,"115 CRANSTON ST","New Haven","CT",""
6731,"125 CRANSTON ST","New Haven","CT",""
6732,"155 CRANSTON ST","New Haven","CT",""
6733,"163 CRANSTON ST","New Haven","CT",""
6734,"171 CRANSTON ST","New Haven","CT",""
6735,"40 PORTLAND ST","New Haven","CT",""
6736,"20 PORTLAND ST","New Haven","CT",""
6737,"SMITH AV","New Haven","CT",""
6738,"534 SMITH AV","New Haven","CT",""
6739,"520 SMITH AV","New Haven","CT",""
6740,NA,"New Haven","CT",""
6741,"486 SMITH AV","New Haven","CT",""
6742,"476 SMITH AV","New Haven","CT",""
6743,"466 SMITH AV","New Haven","CT",""
6744,"456 SMITH AV","New Haven","CT",""
6745,"446 SMITH AV","New Haven","CT",""
6746,"438 SMITH AV","New Haven","CT",""
6747,"428 SMITH AV","New Haven","CT",""
6748,"418 SMITH AV","New Haven","CT",""
6749,"408 SMITH AV","New Haven","CT",""
6750,"398 SMITH AV","New Haven","CT",""
6751,"380 SMITH AV","New Haven","CT",""
6752,"358 SMITH AV","New Haven","CT",""
6753,"348 SMITH AV","New Haven","CT",""
6754,"336 SMITH AV","New Haven","CT",""
6755,"724 MIDDLETOWN AV","New Haven","CT",""
6756,"730 MIDDLETOWN AV","New Haven","CT",""
6757,NA,"New Haven","CT",""
6758,"631 MIDDLETOWN AV","New Haven","CT",""
6759,"641 MIDDLETOWN AV","New Haven","CT",""
6760,"645 MIDDLETOWN AV","New Haven","CT",""
6761,"MIDDLETOWN AV","New Haven","CT",""
6762,"WEYBOSSET ST","New Haven","CT",""
6763,"647 MIDDLETOWN AV","New Haven","CT",""
6764,"653 MIDDLETOWN AV","New Haven","CT",""
6765,"657 MIDDLETOWN AV","New Haven","CT",""
6766,"661 MIDDLETOWN AV","New Haven","CT",""
6767,"665 MIDDLETOWN AV","New Haven","CT",""
6768,NA,"New Haven","CT",""
6769,"675 MIDDLETOWN AV #A-1","New Haven","CT",""
6770,"675 MIDDLETOWN AV #A-2","New Haven","CT",""
6771,"671 MIDDLETOWN AV #B-1","New Haven","CT",""
6772,"671 MIDDLETOWN AV #B-2","New Haven","CT",""
6773,"1 WESTMINSTER ST #1","New Haven","CT",""
6774,"3 WESTMINSTER ST #3","New Haven","CT",""
6775,"5 WESTMINSTER ST #5","New Haven","CT",""
6776,"7 WESTMINSTER ST #7","New Haven","CT",""
6777,"9 WESTMINSTER ST #9","New Haven","CT",""
6778,"11 WESTMINSTER ST #11","New Haven","CT",""
6779,"35 WESTMINSTER ST","New Haven","CT",""
6780,"310 WEYBOSSET ST","New Haven","CT",""
6781,"306 WEYBOSSET ST","New Haven","CT",""
6782,"296 WEYBOSSET ST","New Haven","CT",""
6783,"286 WEYBOSSET ST","New Haven","CT",""
6784,"280 WEYBOSSET ST","New Haven","CT",""
6785,"276 WEYBOSSET ST","New Haven","CT",""
6786,"270 WEYBOSSET ST","New Haven","CT",""
6787,"266 WEYBOSSET ST","New Haven","CT",""
6788,"260 WEYBOSSET ST","New Haven","CT",""
6789,"250 WEYBOSSET ST","New Haven","CT",""
6790,"244 WEYBOSSET ST","New Haven","CT",""
6791,"230 WEYBOSSET ST","New Haven","CT",""
6792,"228 WEYBOSSET ST","New Haven","CT",""
6793,"30 CRANSTON ST","New Haven","CT",""
6794,"80 CRANSTON ST","New Haven","CT",""
6795,"241 WEYBOSSET ST","New Haven","CT",""
6796,"WEYBOSSET ST","New Haven","CT",""
6797,"78 PORTLAND ST","New Haven","CT",""
6798,"PORTLAND ST","New Haven","CT",""
6799,"261 WEYBOSSET ST","New Haven","CT",""
6800,"7 PAWTUCKET ST","New Haven","CT",""
6801,"21 PAWTUCKET ST","New Haven","CT",""
6802,NA,"New Haven","CT",""
6803,"29 PAWTUCKET ST","New Haven","CT",""
6804,"59 PAWTUCKET ST","New Haven","CT",""
6805,"67 PAWTUCKET ST","New Haven","CT",""
6806,"79 PAWTUCKET ST","New Haven","CT",""
6807,"80 PORTLAND ST","New Haven","CT",""
6808,"CRANSTON ST","New Haven","CT",""
6809,"194 CRANSTON ST","New Haven","CT",""
6810,"170 CRANSTON ST","New Haven","CT",""
6811,"140 CRANSTON ST","New Haven","CT",""
6812,"120 CRANSTON ST","New Haven","CT",""
6813,"100 CRANSTON ST","New Haven","CT",""
6814,"100 GANDO DR","New Haven","CT",""
6815,"156 GANDO DR","New Haven","CT",""
6816,"140 GANDO DR","New Haven","CT",""
6817,"GANDO DR","New Haven","CT",""
6818,"670 MIDDLETOWN AV","New Haven","CT",""
6819,"676 MIDDLETOWN AV","New Haven","CT",""
6820,"680 MIDDLETOWN AV","New Haven","CT",""
6821,"710 MIDDLETOWN AV","New Haven","CT",""
6822,"147 GANDO DR","New Haven","CT",""
6823,"151 GANDO DR","New Haven","CT",""
6824,"155 GANDO DR","New Haven","CT",""
6825,"159 GANDO DR","New Haven","CT",""
6826,"163 GANDO DR","New Haven","CT",""
6827,"167 GANDO DR","New Haven","CT",""
6828,"171 GANDO DR","New Haven","CT",""
6829,"177 GANDO DR","New Haven","CT",""
6830,"193 GANDO DR","New Haven","CT",""
6831,"197 GANDO DR","New Haven","CT",""
6832,NA,"New Haven","CT",""
6833,"192 GANDO DR","New Haven","CT",""
6834,"196 GANDO DR","New Haven","CT",""
6835,"200 GANDO DR","New Haven","CT",""
6836,"666 MIDDLETOWN AV","New Haven","CT",""
6837,"660 MIDDLETOWN AV","New Haven","CT",""
6838,"MIDDLETOWN AV","New Haven","CT",""
6839,"MIDDLETOWN AV","New Haven","CT",""
6840,"640 MIDDLETOWN AV","New Haven","CT",""
6841,NA,"New Haven","CT",""
6842,"628 MIDDLETOWN AV","New Haven","CT",""
6843,"624 MIDDLETOWN AV","New Haven","CT",""
6844,NA,"New Haven","CT",""
6845,"MIDDLETOWN AV","New Haven","CT",""
6846,"612 MIDDLETOWN AV","New Haven","CT",""
6847,"606 MIDDLETOWN AV","New Haven","CT",""
6848,"598 MIDDLETOWN AV","New Haven","CT",""
6849,"600 MIDDLETOWN AV","New Haven","CT",""
6850,"584 MIDDLETOWN AV","New Haven","CT",""
6851,"SCARBORO ST","New Haven","CT",""
6852,NA,"New Haven","CT",""
6853,NA,"New Haven","CT",""
6854,"720 MIDDLETOWN AV","New Haven","CT",""
6855,"320 WOONSOCKET ST","New Haven","CT",""
6856,"WOONSOCKET ST","New Haven","CT",""
6857,"SCARBORO ST","New Haven","CT",""
6858,"30 GANDO DR","New Haven","CT",""
6859,"30 GANDO DR","New Haven","CT",""
6860,"SCARBORO ST","New Haven","CT",""
6861,"SCARBORO ST","New Haven","CT",""
6862,"SCARBORO ST","New Haven","CT",""
6863,"SCARBORO ST","New Haven","CT",""
6864,"SCARBORO ST","New Haven","CT",""
6865,"40 SCARBORO ST","New Haven","CT",""
6866,"560 MIDDLETOWN AV","New Haven","CT",""
6867,"550 MIDDLETOWN AV","New Haven","CT",""
6868,"10 NEWPORT ST","New Haven","CT",""
6869,"NEWPORT ST","New Haven","CT",""
6870,"NEWPORT ST","New Haven","CT",""
6871,"NEWPORT ST","New Haven","CT",""
6872,"NEWPORT ST","New Haven","CT",""
6873,"468 MIDDLETOWN AV","New Haven","CT",""
6874,"466 MIDDLETOWN AV #1","New Haven","CT",""
6875,"466 MIDDLETOWN AV #2","New Haven","CT",""
6876,"466 MIDDLETOWN AV #3","New Haven","CT",""
6877,"466 MIDDLETOWN AV #4","New Haven","CT",""
6878,"466 MIDDLETOWN AV #5","New Haven","CT",""
6879,"466 MIDDLETOWN AV #6","New Haven","CT",""
6880,"466 MIDDLETOWN AV #7","New Haven","CT",""
6881,"466 MIDDLETOWN AV #8","New Haven","CT",""
6882,"466 MIDDLETOWN AV #9","New Haven","CT",""
6883,"466 MIDDLETOWN AV #10","New Haven","CT",""
6884,"466 MIDDLETOWN AV #11","New Haven","CT",""
6885,"466 MIDDLETOWN AV #12","New Haven","CT",""
6886,"466 MIDDLETOWN AV #13","New Haven","CT",""
6887,"466 MIDDLETOWN AV #14","New Haven","CT",""
6888,"466 MIDDLETOWN AV #15","New Haven","CT",""
6889,"466 MIDDLETOWN AV #16","New Haven","CT",""
6890,"466 MIDDLETOWN AV #17","New Haven","CT",""
6891,"466 MIDDLETOWN AV #18","New Haven","CT",""
6892,"464 MIDDLETOWN AV #19","New Haven","CT",""
6893,"466 MIDDLETOWN AV #20","New Haven","CT",""
6894,"466 MIDDLETOWN AV #21","New Haven","CT",""
6895,"466 MIDDLETOWN AV #22","New Haven","CT",""
6896,"466 MIDDLETOWN AV #23","New Haven","CT",""
6897,"466 MIDDLETOWN AV #24","New Haven","CT",""
6898,"466 MIDDLETOWN AV #25","New Haven","CT",""
6899,"466 MIDDLETOWN AV #26","New Haven","CT",""
6900,"466 MIDDLETOWN AV #27","New Haven","CT",""
6901,"466 MIDDLETOWN AV #28","New Haven","CT",""
6902,"466 MIDDLETOWN AV #29","New Haven","CT",""
6903,"466 MIDDLETOWN AV #30","New Haven","CT",""
6904,"466 MIDDLETOWN AV #31","New Haven","CT",""
6905,"466 MIDDLETOWN AV #32","New Haven","CT",""
6906,"466 MIDDLETOWN AV #33","New Haven","CT",""
6907,"MIDDLETOWN AV","New Haven","CT",""
6908,"462 MIDDLETOWN AV","New Haven","CT",""
6909,"458 MIDDLETOWN AV","New Haven","CT",""
6910,"145 WEYBOSSET ST","New Haven","CT",""
6911,"WEYBOSSET ST","New Haven","CT",""
6912,"135 WEYBOSSET ST","New Haven","CT",""
6913,"125 WEYBOSSET ST","New Haven","CT",""
6914,"115 WEYBOSSET ST","New Haven","CT",""
6915,"105 WEYBOSSET ST","New Haven","CT",""
6916,"85 WEYBOSSET ST","New Haven","CT",""
6917,"95 WEYBOSSET ST","New Haven","CT",""
6918,"79 WEYBOSSET ST","New Haven","CT",""
6919,"75 WEYBOSSET ST","New Haven","CT",""
6920,"539 MIDDLETOWN AV","New Haven","CT",""
6921,"14 CROSS ST","New Haven","CT",""
6922,"30 CROSS ST","New Haven","CT",""
6923,"40 CROSS ST","New Haven","CT",""
6924,"134 WEYBOSSET ST","New Haven","CT",""
6925,"94 WEYBOSSET ST","New Haven","CT",""
6926,"485 MIDDLETOWN AV","New Haven","CT",""
6927,"84 WEYBOSSET ST","New Haven","CT",""
6928,"489 MIDDLETOWN AV","New Haven","CT",""
6929,"503 MIDDLETOWN AV","New Haven","CT",""
6930,"118 WEYBOSSET ST","New Haven","CT",""
6931,"515 MIDDLETOWN AV","New Haven","CT",""
6932,"531 MIDDLETOWN AV","New Haven","CT",""
6933,"535 MIDDLETOWN AV","New Haven","CT",""
6934,"537 MIDDLETOWN AV","New Haven","CT",""
6935,"MIDDLETOWN AV","New Haven","CT",""
6936,"MIDDLETOWN AV","New Haven","CT",""
6937,"MIDDLETOWN AV","New Haven","CT",""
6938,"MIDDLETOWN AV","New Haven","CT",""
6939,"MIDDLETOWN AV","New Haven","CT",""
6940,"NEWPORT ST","New Haven","CT",""
6941,"MIDDLETOWN AV","New Haven","CT",""
6942,"MIDDLETOWN AV","New Haven","CT",""
6943,"MIDDLETOWN AV","New Haven","CT",""
6944,"MIDDLETOWN AV","New Haven","CT",""
6945,"MIDDLETOWN AV","New Haven","CT",""
6946,"MIDDLETOWN AV","New Haven","CT",""
6947,"MIDDLETOWN AV","New Haven","CT",""
6948,"MIDDLETOWN AV","New Haven","CT",""
6949,"MIDDLETOWN AV","New Haven","CT",""
6950,"MIDDLETOWN AV","New Haven","CT",""
6951,"MIDDLETOWN AV","New Haven","CT",""
6952,"MIDDLETOWN AV","New Haven","CT",""
6953,"MIDDLETOWN AV","New Haven","CT",""
6954,"MIDDLETOWN AV","New Haven","CT",""
6955,"MIDDLETOWN AV","New Haven","CT",""
6956,"STATE ST","New Haven","CT",""
6957,"1552 STATE ST","New Haven","CT",""
6958,"1556 STATE ST","New Haven","CT",""
6959,"STATE ST","New Haven","CT",""
6960,"1574 STATE ST","New Haven","CT",""
6961,"1576 STATE ST","New Haven","CT",""
6962,"1578 STATE ST","New Haven","CT",""
6963,"67 WELTON ST","New Haven","CT",""
6964,"WELTON ST","New Haven","CT",""
6965,"WELTON ST","New Haven","CT",""
6966,"87 WELTON ST","New Haven","CT",""
6967,"WELTON ST","New Haven","CT",""
6968,"85 WELTON ST","New Haven","CT",""
6969,"83 WELTON ST","New Haven","CT",""
6970,"81 WELTON ST","New Haven","CT",""
6971,"79 WELTON ST","New Haven","CT",""
6972,"71 WELTON ST","New Haven","CT",""
6973,"1651 STATE ST","New Haven","CT",""
6974,"122 WELTON ST","New Haven","CT",""
6975,"116 WELTON ST","New Haven","CT",""
6976,"110 WELTON ST","New Haven","CT",""
6977,"104 WELTON ST","New Haven","CT",""
6978,"100 WELTON ST","New Haven","CT",""
6979,"96 WELTON ST","New Haven","CT",""
6980,"92 WELTON ST","New Haven","CT",""
6981,"90 WELTON ST","New Haven","CT",""
6982,"WELTON ST","New Haven","CT",""
6983,"1609 STATE ST","New Haven","CT",""
6984,"1621 STATE ST","New Haven","CT",""
6985,"1625 STATE ST","New Haven","CT",""
6986,"1631 STATE ST","New Haven","CT",""
6987,"1639 STATE ST","New Haven","CT",""
6988,"1643 STATE ST","New Haven","CT",""
6989,"1647 STATE ST","New Haven","CT",""
6990,"1593 STATE ST","New Haven","CT",""
6991,"40 ALBERT ST","New Haven","CT",""
6992,"6 WELTON ST","New Haven","CT",""
6993,"44 WELTON ST","New Haven","CT",""
6994,"34 WELTON ST","New Haven","CT",""
6995,"22 WELTON ST","New Haven","CT",""
6996,"20 WELTON ST","New Haven","CT",""
6997,"16 WELTON ST","New Haven","CT",""
6998,"12 WELTON ST","New Haven","CT",""
6999,"8 WELTON ST","New Haven","CT",""
7000,"1545 STATE ST","New Haven","CT",""
