"pid","location","city","state","zip"
10001,"505 EAST ST","New Haven","CT",""
10002,"507 EAST ST","New Haven","CT",""
10003,"511 EAST ST","New Haven","CT",""
10004,"545 EAST ST","New Haven","CT",""
10005,"543 EAST ST","New Haven","CT",""
10006,"539 EAST ST","New Haven","CT",""
10007,"535 EAST ST","New Haven","CT",""
10008,"533 EAST ST","New Haven","CT",""
10009,"531 EAST ST","New Haven","CT",""
10010,"519 EAST ST","New Haven","CT",""
10011,"159 HUMPHREY ST","New Haven","CT",""
10012,"155 HUMPHREY ST","New Haven","CT",""
10013,"151 HUMPHREY ST","New Haven","CT",""
10014,"54 MILL RIVER ST","New Haven","CT",""
10015,"62 MILL RIVER ST","New Haven","CT",""
10016,"MILL RIVER ST","New Haven","CT",""
10017,"62 MILL RIVER ST","New Haven","CT",""
10018,"64 MILL RIVER ST","New Haven","CT",""
10019,"68 MILL RIVER ST","New Haven","CT",""
10020,"70 MILL RIVER ST","New Haven","CT",""
10021,"72 MILL RIVER ST","New Haven","CT",""
10022,"83 MILL RIVER ST","New Haven","CT",""
10023,"81 MILL RIVER ST","New Haven","CT",""
10024,"79 MILL RIVER ST","New Haven","CT",""
10025,"75 MILL RIVER ST","New Haven","CT",""
10026,"67 MILL RIVER ST","New Haven","CT",""
10027,"51 MILL RIVER ST","New Haven","CT",""
10028,"HUMPHREY ST","New Haven","CT",""
10029,"33 HUMPHREY ST","New Haven","CT",""
10030,"JAMES ST","New Haven","CT",""
10031,"JAMES ST","New Haven","CT",""
10032,"470 JAMES ST","New Haven","CT",""
10033,"111 MARKET ST","New Haven","CT",""
10034,"JOHN W MURPHY DR","New Haven","CT",""
10035,"360 JAMES ST","New Haven","CT",""
10036,"370 JAMES ST","New Haven","CT",""
10037,"100 JOHN W MURPHY DR","New Haven","CT",""
10038,"328 JAMES ST","New Haven","CT",""
10039,"WILLOW ST","New Haven","CT",""
10040,"1041 STATE ST","New Haven","CT",""
10041,"STATE ST","New Haven","CT",""
10042,"MILL RIVER ST","New Haven","CT",""
10043,"181 MITCHELL DR","New Haven","CT",""
10044,"208 VIEW ST","New Haven","CT",""
10045,"212 VIEW ST","New Haven","CT",""
10046,"218 VIEW ST","New Haven","CT",""
10047,"222 VIEW ST","New Haven","CT",""
10048,"228 VIEW ST","New Haven","CT",""
10049,"232 VIEW ST","New Haven","CT",""
10050,"236 VIEW ST","New Haven","CT",""
10051,"248 VIEW ST","New Haven","CT",""
10052,"274 VIEW ST","New Haven","CT",""
10053,"306 VIEW ST","New Haven","CT",""
10054,"258 VIEW ST","New Haven","CT",""
10055,"276 VIEW ST","New Haven","CT",""
10056,"280 VIEW ST","New Haven","CT",""
10057,"77 ROCK ST","New Haven","CT",""
10058,"69 ROCK ST","New Haven","CT",""
10059,"73 ROCK ST","New Haven","CT",""
10060,"45 ROCK ST","New Haven","CT",""
10061,"47 ROCK ST","New Haven","CT",""
10062,"51 ROCK ST","New Haven","CT",""
10063,"53 ROCK ST","New Haven","CT",""
10064,"63 ROCK ST","New Haven","CT",""
10065,"65 ROCK ST","New Haven","CT",""
10066,"ORANGE ST","New Haven","CT",""
10067,"COLD SPRING ST","New Haven","CT",""
10068,"167 LIVINGSTON ST","New Haven","CT",""
10069,"152 CANNER ST","New Haven","CT",""
10070,"148 CANNER ST","New Haven","CT",""
10071,"140 CANNER ST","New Haven","CT",""
10072,"136 CANNER ST","New Haven","CT",""
10073,"132 CANNER ST","New Haven","CT",""
10074,NA,"New Haven","CT",""
10075,"122 CANNER ST","New Haven","CT",""
10076,"114 CANNER ST","New Haven","CT",""
10077,"108 CANNER ST","New Haven","CT",""
10078,"104 CANNER ST","New Haven","CT",""
10079,"830 ORANGE ST","New Haven","CT",""
10080,"826 ORANGE ST","New Haven","CT",""
10081,"820 ORANGE ST","New Haven","CT",""
10082,"816 ORANGE ST","New Haven","CT",""
10083,"812 ORANGE ST","New Haven","CT",""
10084,"806 ORANGE ST","New Haven","CT",""
10085,"800 ORANGE ST","New Haven","CT",""
10086,"794 ORANGE ST","New Haven","CT",""
10087,"243 WILLOW ST","New Haven","CT",""
10088,"249 WILLOW ST","New Haven","CT",""
10089,"253 WILLOW ST","New Haven","CT",""
10090,"257 WILLOW ST","New Haven","CT",""
10091,"261 WILLOW ST","New Haven","CT",""
10092,"265 WILLOW ST","New Haven","CT",""
10093,"273 WILLOW ST","New Haven","CT",""
10094,"277 WILLOW ST","New Haven","CT",""
10095,"279 WILLOW ST","New Haven","CT",""
10096,"281 WILLOW ST","New Haven","CT",""
10097,"285 WILLOW ST","New Haven","CT",""
10098,"289 WILLOW ST","New Haven","CT",""
10099,NA,"New Haven","CT",""
10100,NA,"New Haven","CT",""
10101,"151 LIVINGSTON ST","New Haven","CT",""
10102,"153 LIVINGSTON ST","New Haven","CT",""
10103,"163 LIVINGSTON ST","New Haven","CT",""
10104,"829 ORANGE ST","New Haven","CT",""
10105,"72 CANNER ST","New Haven","CT",""
10106,"68 CANNER ST","New Haven","CT",""
10107,"64 CANNER ST","New Haven","CT",""
10108,"60 CANNER ST","New Haven","CT",""
10109,"56 CANNER ST","New Haven","CT",""
10110,"20 ANDERSON ST","New Haven","CT",""
10111,"18 ANDERSON ST","New Haven","CT",""
10112,"16 ANDERSON ST","New Haven","CT",""
10113,"14 ANDERSON ST","New Haven","CT",""
10114,"189 WILLOW ST","New Haven","CT",""
10115,"191 WILLOW ST","New Haven","CT",""
10116,"193 WILLOW ST","New Haven","CT",""
10117,"209 WILLOW ST","New Haven","CT",""
10118,"213 WILLOW ST","New Haven","CT",""
10119,"215 WILLOW ST","New Haven","CT",""
10120,"797 ORANGE ST","New Haven","CT",""
10121,"801 ORANGE ST","New Haven","CT",""
10122,"805 ORANGE ST","New Haven","CT",""
10123,"809 ORANGE ST","New Haven","CT",""
10124,"813 ORANGE ST","New Haven","CT",""
10125,"817 ORANGE ST","New Haven","CT",""
10126,"821 ORANGE ST","New Haven","CT",""
10127,"825 ORANGE ST","New Haven","CT",""
10128,"52 CANNER ST","New Haven","CT",""
10129,"42 CANNER ST","New Haven","CT",""
10130,"40 CANNER ST","New Haven","CT",""
10131,"38 CANNER ST","New Haven","CT",""
10132,"198 FOSTER ST","New Haven","CT",""
10133,"196 FOSTER ST","New Haven","CT",""
10134,"192 FOSTER ST","New Haven","CT",""
10135,"182 FOSTER ST","New Haven","CT",""
10136,"178 FOSTER ST","New Haven","CT",""
10137,"172 FOSTER ST","New Haven","CT",""
10138,"165 WILLOW ST","New Haven","CT",""
10139,"167 WILLOW ST","New Haven","CT",""
10140,"169 WILLOW ST","New Haven","CT",""
10141,"177 WILLOW ST","New Haven","CT",""
10142,"179 WILLOW ST","New Haven","CT",""
10143,"181 WILLOW ST","New Haven","CT",""
10144,"185 WILLOW ST","New Haven","CT",""
10145,"11 ANDERSON ST","New Haven","CT",""
10146,"13 ANDERSON ST","New Haven","CT",""
10147,"15 ANDERSON ST","New Haven","CT",""
10148,"17 ANDERSON ST","New Haven","CT",""
10149,"19 ANDERSON ST","New Haven","CT",""
10150,"21 ANDERSON ST","New Haven","CT",""
10151,"219 LIVINGSTON ST","New Haven","CT",""
10152,"98 COLD SPRING ST","New Haven","CT",""
10153,"CANNER ST","New Haven","CT",""
10154,"88 COLD SPRING ST","New Haven","CT",""
10155,"80 COLD SPRING ST","New Haven","CT",""
10156,"74 COLD SPRING ST","New Haven","CT",""
10157,"68 COLD SPRING ST","New Haven","CT",""
10158,"64 COLD SPRING ST","New Haven","CT",""
10159,"56 COLD SPRING ST","New Haven","CT",""
10160,"50 COLD SPRING ST","New Haven","CT",""
10161,"44 COLD SPRING ST","New Haven","CT",""
10162,"866 ORANGE ST","New Haven","CT",""
10163,"862 ORANGE ST","New Haven","CT",""
10164,"858 ORANGE ST","New Haven","CT",""
10165,"852 ORANGE ST","New Haven","CT",""
10166,NA,"New Haven","CT",""
10167,"844 ORANGE ST","New Haven","CT",""
10168,"95 CANNER ST","New Haven","CT",""
10169,"101 CANNER ST","New Haven","CT",""
10170,"105 CANNER ST","New Haven","CT",""
10171,"109 CANNER ST","New Haven","CT",""
10172,"113 CANNER ST","New Haven","CT",""
10173,"117 CANNER ST","New Haven","CT",""
10174,"121 CANNER ST","New Haven","CT",""
10175,"125 CANNER ST","New Haven","CT",""
10176,"131 CANNER ST","New Haven","CT",""
10177,"135 CANNER ST","New Haven","CT",""
10178,"139 CANNER ST","New Haven","CT",""
10179,"147 CANNER ST","New Haven","CT",""
10180,"151 CANNER ST","New Haven","CT",""
10181,"173 LIVINGSTON ST","New Haven","CT",""
10182,"177 LIVINGSTON ST","New Haven","CT",""
10183,"183 LIVINGSTON ST","New Haven","CT",""
10184,"189 LIVINGSTON ST","New Haven","CT",""
10185,"195 LIVINGSTON ST","New Haven","CT",""
10186,"199 LIVINGSTON ST","New Haven","CT",""
10187,"205 LIVINGSTON ST","New Haven","CT",""
10188,"209 LIVINGSTON ST","New Haven","CT",""
10189,"215 LIVINGSTON ST","New Haven","CT",""
10190,"883 ORANGE ST","New Haven","CT",""
10191,"200 MITCHELL DR","New Haven","CT",""
10192,"192 MITCHELL DR","New Haven","CT",""
10193,"184 MITCHELL DR","New Haven","CT",""
10194,NA,"New Haven","CT",""
10195,"869 ORANGE ST #2E","New Haven","CT",""
10196,"869 ORANGE ST #3E","New Haven","CT",""
10197,"869 ORANGE ST #4E","New Haven","CT",""
10198,"869 ORANGE ST #5E","New Haven","CT",""
10199,"869 ORANGE ST #6E","New Haven","CT",""
10200,"869 ORANGE ST #7E","New Haven","CT",""
10201,"869 ORANGE ST #8E","New Haven","CT",""
10202,"869 ORANGE ST #9E","New Haven","CT",""
10203,"869 ORANGE ST #10E","New Haven","CT",""
10204,"869 ORANGE ST #1W","New Haven","CT",""
10205,"869 ORANGE ST #2W","New Haven","CT",""
10206,"869 ORANGE ST #3W","New Haven","CT",""
10207,"869 ORANGE ST #4W","New Haven","CT",""
10208,"869 ORANGE ST #5W","New Haven","CT",""
10209,"869 ORANGE ST #6W","New Haven","CT",""
10210,"869 ORANGE ST #7W","New Haven","CT",""
10211,"869 ORANGE ST #8W","New Haven","CT",""
10212,"869 ORANGE ST #9W","New Haven","CT",""
10213,"869 ORANGE ST #10W","New Haven","CT",""
10214,"869 ORANGE ST #1E","New Haven","CT",""
10215,"66 ANDERSON ST","New Haven","CT",""
10216,"62 ANDERSON ST","New Haven","CT",""
10217,"58 ANDERSON ST","New Haven","CT",""
10218,"54 ANDERSON ST","New Haven","CT",""
10219,"61 CANNER ST","New Haven","CT",""
10220,"63 CANNER ST","New Haven","CT",""
10221,"63 CANNER ST #.5","New Haven","CT",""
10222,"65 CANNER ST","New Haven","CT",""
10223,"69 CANNER ST","New Haven","CT",""
10224,"71 CANNER ST","New Haven","CT",""
10225,"835 ORANGE ST","New Haven","CT",""
10226,"841 ORANGE ST","New Haven","CT",""
10227,"845 ORANGE ST","New Haven","CT",""
10228,"851 ORANGE ST","New Haven","CT",""
10229,"855 ORANGE ST","New Haven","CT",""
10230,"859 ORANGE ST","New Haven","CT",""
10231,"863 ORANGE ST","New Haven","CT",""
10232,"875 ORANGE ST","New Haven","CT",""
10233,"879 ORANGE ST","New Haven","CT",""
10234,NA,"New Haven","CT",""
10235,"47 CANNER ST","New Haven","CT",""
10236,"41 CANNER ST","New Haven","CT",""
10237,"37 CANNER ST","New Haven","CT",""
10238,"8 NORTH BANK ST","New Haven","CT",""
10239,"33 CANNER ST","New Haven","CT",""
10240,"29 CANNER ST","New Haven","CT",""
10241,"172 MITCHELL DR","New Haven","CT",""
10242,"166 MITCHELL DR","New Haven","CT",""
10243,"158 MITCHELL DR","New Haven","CT",""
10244,"152 MITCHELL DR","New Haven","CT",""
10245,"242 FOSTER ST","New Haven","CT",""
10246,"238 FOSTER ST","New Haven","CT",""
10247,"3 NORTH BANK ST","New Haven","CT",""
10248,"7 NORTH BANK ST","New Haven","CT",""
10249,"9 NORTH BANK ST","New Haven","CT",""
10250,"15 NORTH BANK ST","New Haven","CT",""
10251,"19 NORTH BANK ST","New Haven","CT",""
10252,"21 NORTH BANK ST","New Haven","CT",""
10253,"65 ANDERSON ST","New Haven","CT",""
10254,"71 ANDERSON ST","New Haven","CT",""
10255,"79 ANDERSON ST","New Haven","CT",""
10256,"115 FOSTER ST","New Haven","CT",""
10257,"117 FOSTER ST","New Haven","CT",""
10258,"119 FOSTER ST","New Haven","CT",""
10259,"127 FOSTER ST","New Haven","CT",""
10260,"131 FOSTER ST","New Haven","CT",""
10261,"135 FOSTER ST","New Haven","CT",""
10262,"139 FOSTER ST","New Haven","CT",""
10263,"143 FOSTER ST","New Haven","CT",""
10264,"147 FOSTER ST","New Haven","CT",""
10265,"151 FOSTER ST","New Haven","CT",""
10266,"155 FOSTER ST","New Haven","CT",""
10267,"150 WILLOW ST","New Haven","CT",""
10268,"216 NICOLL ST","New Haven","CT",""
10269,"208 NICOLL ST","New Haven","CT",""
10270,"204 NICOLL ST","New Haven","CT",""
10271,"200 NICOLL ST","New Haven","CT",""
10272,"196 NICOLL ST","New Haven","CT",""
10273,"190 NICOLL ST","New Haven","CT",""
10274,"188 NICOLL ST","New Haven","CT",""
10275,"182 NICOLL ST","New Haven","CT",""
10276,"178 NICOLL ST","New Haven","CT",""
10277,"170 NICOLL ST","New Haven","CT",""
10278,"166 NICOLL ST","New Haven","CT",""
10279,"160 NICOLL ST","New Haven","CT",""
10280,"149 EAGLE ST","New Haven","CT",""
10281,"157 NICOLL ST","New Haven","CT",""
10282,"169 NICOLL ST","New Haven","CT",""
10283,"175 NICOLL ST","New Haven","CT",""
10284,"181 NICOLL ST","New Haven","CT",""
10285,"189 NICOLL ST","New Haven","CT",""
10286,"195 NICOLL ST","New Haven","CT",""
10287,"199 NICOLL ST","New Haven","CT",""
10288,"203 NICOLL ST","New Haven","CT",""
10289,"211 NICOLL ST","New Haven","CT",""
10290,"217 NICOLL ST","New Haven","CT",""
10291,"158 NASH ST","New Haven","CT",""
10292,"152 NASH ST","New Haven","CT",""
10293,"146 NASH ST","New Haven","CT",""
10294,"142 NASH ST","New Haven","CT",""
10295,"140 NASH ST","New Haven","CT",""
10296,"136 NASH ST","New Haven","CT",""
10297,"132 NASH ST","New Haven","CT",""
10298,"128 NASH ST","New Haven","CT",""
10299,"124 NASH ST","New Haven","CT",""
10300,"120 NASH ST","New Haven","CT",""
10301,"116 NASH ST","New Haven","CT",""
10302,"129 EAGLE ST","New Haven","CT",""
10303,"131 EAGLE ST","New Haven","CT",""
10304,"133 NASH ST","New Haven","CT",""
10305,"107 MECHANIC ST","New Haven","CT",""
10306,"163 FOSTER ST","New Haven","CT",""
10307,"191 FOSTER ST","New Haven","CT",""
10308,"197 FOSTER ST","New Haven","CT",""
10309,"199 FOSTER ST","New Haven","CT",""
10310,"14 CANNER ST","New Haven","CT",""
10311,"268 NICOLL ST","New Haven","CT",""
10312,"258 NICOLL ST","New Haven","CT",""
10313,"248 NICOLL ST","New Haven","CT",""
10314,"246 NICOLL ST","New Haven","CT",""
10315,"240 NICOLL ST","New Haven","CT",""
10316,"236 NICOLL ST","New Haven","CT",""
10317,"230 NICOLL ST","New Haven","CT",""
10318,"145 WILLOW ST","New Haven","CT",""
10319,"151 WILLOW ST","New Haven","CT",""
10320,"85 WILLOW ST","New Haven","CT",""
10321,"141 WILLOW ST","New Haven","CT",""
10322,"285 NICOLL ST","New Haven","CT",""
10323,"205 FOSTER ST","New Haven","CT",""
10324,"207 FOSTER ST","New Haven","CT",""
10325,"209 FOSTER ST","New Haven","CT",""
10326,"221 FOSTER ST","New Haven","CT",""
10327,"225 FOSTER ST","New Haven","CT",""
10328,"231 FOSTER ST","New Haven","CT",""
10329,"233 FOSTER ST","New Haven","CT",""
10330,"239 FOSTER ST","New Haven","CT",""
10331,"243 FOSTER ST","New Haven","CT",""
10332,"136 MITCHELL DR","New Haven","CT",""
10333,"130 MITCHELL DR","New Haven","CT",""
10334,"126 MITCHELL DR","New Haven","CT",""
10335,"120 MITCHELL DR","New Haven","CT",""
10336,"324 NICOLL ST","New Haven","CT",""
10337,"316 NICOLL ST","New Haven","CT",""
10338,"302 NICOLL ST","New Haven","CT",""
10339,"1 CANNER ST","New Haven","CT",""
10340,"7 CANNER ST","New Haven","CT",""
10341,"11 CANNER ST","New Haven","CT",""
10342,"19 CANNER ST","New Haven","CT",""
10343,"49 EDWARDS ST","New Haven","CT",""
10344,"17 NICOLL ST","New Haven","CT",""
10345,"19 NICOLL ST","New Haven","CT",""
10346,"23 NICOLL ST","New Haven","CT",""
10347,"29 NICOLL ST","New Haven","CT",""
10348,"62 LAWRENCE ST","New Haven","CT",""
10349,"56 LAWRENCE ST","New Haven","CT",""
10350,"54 LAWRENCE ST","New Haven","CT",""
10351,"52 LAWRENCE ST","New Haven","CT",""
10352,"48 LAWRENCE ST","New Haven","CT",""
10353,"44 LAWRENCE ST","New Haven","CT",""
10354,NA,"New Haven","CT",""
10355,"18 NASH ST","New Haven","CT",""
10356,"24 NASH ST","New Haven","CT",""
10357,"28 NASH ST","New Haven","CT",""
10358,"30 NASH ST","New Haven","CT",""
10359,"32 NASH ST","New Haven","CT",""
10360,"34 NASH ST","New Haven","CT",""
10361,"36 NASH ST","New Haven","CT",""
10362,"22 NASH ST","New Haven","CT",""
10363,"20 NASH ST","New Haven","CT",""
10364,"23 EDWARDS ST","New Haven","CT",""
10365,"31 EDWARDS ST","New Haven","CT",""
10366,"35 EDWARDS ST","New Haven","CT",""
10367,"37 EDWARDS ST","New Haven","CT",""
10368,"43 EDWARDS ST","New Haven","CT",""
10369,"47 EDWARDS ST","New Haven","CT",""
10370,"15 EDWARDS ST","New Haven","CT",""
10371,"13 NASH ST","New Haven","CT",""
10372,"17 NASH ST","New Haven","CT",""
10373,"19 NASH ST","New Haven","CT",""
10374,"21 NASH ST","New Haven","CT",""
10375,"23 NASH ST","New Haven","CT",""
10376,"29 NASH ST","New Haven","CT",""
10377,"NASH ST","New Haven","CT",""
10378,"31 NASH ST","New Haven","CT",""
10379,"35 NASH ST","New Haven","CT",""
10380,"20 LAWRENCE ST","New Haven","CT",""
10381,"16 MECHANIC ST","New Haven","CT",""
10382,"8 MECHANIC ST","New Haven","CT",""
10383,"1004 STATE ST","New Haven","CT",""
10384,"2 MECHANIC ST","New Haven","CT",""
10385,"1010 STATE ST","New Haven","CT",""
10386,"990 STATE ST","New Haven","CT",""
10387,"11 EDWARDS ST","New Haven","CT",""
10388,"13 EDWARDS ST","New Haven","CT",""
10389,"STATE ST","New Haven","CT",""
10390,"57 LAWRENCE ST","New Haven","CT",""
10391,"63 NICOLL ST","New Haven","CT",""
10392,"67 NICOLL ST","New Haven","CT",""
10393,"73 NICOLL ST","New Haven","CT",""
10394,"77 NICOLL ST","New Haven","CT",""
10395,"81 NICOLL ST","New Haven","CT",""
10396,"85 NICOLL ST","New Haven","CT",""
10397,"89 NICOLL ST","New Haven","CT",""
10398,"95 NICOLL ST","New Haven","CT",""
10399,"101 NICOLL ST","New Haven","CT",""
10400,"107 NICOLL ST","New Haven","CT",""
10401,"111 NICOLL ST","New Haven","CT",""
10402,"117 NICOLL ST","New Haven","CT",""
10403,"121 NICOLL ST","New Haven","CT",""
10404,"125 NICOLL ST","New Haven","CT",""
10405,"129 NICOLL ST","New Haven","CT",""
10406,"137 NICOLL ST","New Haven","CT",""
10407,"141 NICOLL ST","New Haven","CT",""
10408,"147 NICOLL ST","New Haven","CT",""
10409,"149 NICOLL ST","New Haven","CT",""
10410,"130 EAGLE ST","New Haven","CT",""
10411,"128 EAGLE ST","New Haven","CT",""
10412,"124 EAGLE ST","New Haven","CT",""
10413,"122 EAGLE ST","New Haven","CT",""
10414,"114 NASH ST","New Haven","CT",""
10415,"110 NASH ST","New Haven","CT",""
10416,"106 NASH ST","New Haven","CT",""
10417,"104 NASH ST","New Haven","CT",""
10418,"102 NASH ST","New Haven","CT",""
10419,"98 NASH ST","New Haven","CT",""
10420,"94 NASH ST","New Haven","CT",""
10421,"90 NASH ST","New Haven","CT",""
10422,"88 NASH ST","New Haven","CT",""
10423,"84 NASH ST","New Haven","CT",""
10424,"78 NASH ST","New Haven","CT",""
10425,"76 NASH ST","New Haven","CT",""
10426,"72 NASH ST","New Haven","CT",""
10427,"70 NASH ST","New Haven","CT",""
10428,"66 NASH ST","New Haven","CT",""
10429,"64 NASH ST","New Haven","CT",""
10430,"62 NASH ST","New Haven","CT",""
10431,"58 NASH ST","New Haven","CT",""
10432,"56 NASH ST","New Haven","CT",""
10433,"52 NASH ST","New Haven","CT",""
10434,"50 NASH ST","New Haven","CT",""
10435,"35 LAWRENCE ST","New Haven","CT",""
10436,"37 LAWRENCE ST","New Haven","CT",""
10437,"39 LAWRENCE ST","New Haven","CT",""
10438,"41 LAWRENCE ST","New Haven","CT",""
10439,"43 LAWRENCE ST","New Haven","CT",""
10440,"47 LAWRENCE ST","New Haven","CT",""
10441,"51 LAWRENCE ST","New Haven","CT",""
10442,"53 LAWRENCE ST","New Haven","CT",""
10443,"45 NASH ST","New Haven","CT",""
10444,"51 NASH ST","New Haven","CT",""
10445,"55 NASH ST","New Haven","CT",""
10446,"61 NASH ST","New Haven","CT",""
10447,"65 NASH ST","New Haven","CT",""
10448,"67 NASH ST","New Haven","CT",""
10449,"69 NASH ST","New Haven","CT",""
10450,"71 NASH ST","New Haven","CT",""
10451,"75 NASH ST","New Haven","CT",""
10452,"79 NASH ST","New Haven","CT",""
10453,"83 NASH ST","New Haven","CT",""
10454,"87 NASH ST","New Haven","CT",""
10455,"89 NASH ST","New Haven","CT",""
10456,"93 NASH ST","New Haven","CT",""
10457,"99 NASH ST","New Haven","CT",""
10458,"101 NASH ST","New Haven","CT",""
10459,"105 NASH ST","New Haven","CT",""
10460,"107 NASH ST","New Haven","CT",""
10461,"111 NASH ST","New Haven","CT",""
10462,"98 EAGLE ST","New Haven","CT",""
10463,"90 MECHANIC ST","New Haven","CT",""
10464,"86 MECHANIC ST","New Haven","CT",""
10465,"82 MECHANIC ST","New Haven","CT",""
10466,"78 MECHANIC ST","New Haven","CT",""
10467,"74 MECHANIC ST","New Haven","CT",""
10468,"72 MECHANIC ST","New Haven","CT",""
10469,"70 MECHANIC ST","New Haven","CT",""
10470,"68 MECHANIC ST","New Haven","CT",""
10471,"66 MECHANIC ST","New Haven","CT",""
10472,"62 MECHANIC ST","New Haven","CT",""
10473,"60 MECHANIC ST","New Haven","CT",""
10474,"58 MECHANIC ST","New Haven","CT",""
10475,"54 MECHANIC ST","New Haven","CT",""
10476,"44 MECHANIC ST","New Haven","CT",""
10477,"40 MECHANIC ST","New Haven","CT",""
10478,"36 MECHANIC ST","New Haven","CT",""
10479,"32 MECHANIC ST","New Haven","CT",""
10480,"24 MECHANIC ST","New Haven","CT",""
10481,"11 LAWRENCE ST","New Haven","CT",""
10482,"1040 STATE ST","New Haven","CT",""
10483,NA,"New Haven","CT",""
10484,NA,"New Haven","CT",""
10485,"59 MECHANIC ST","New Haven","CT",""
10486,"63 MECHANIC ST","New Haven","CT",""
10487,"67 MECHANIC ST","New Haven","CT",""
10488,"71 MECHANIC ST","New Haven","CT",""
10489,"75 MECHANIC ST","New Haven","CT",""
10490,"79 MECHANIC ST","New Haven","CT",""
10491,"83 MECHANIC ST","New Haven","CT",""
10492,"87 MECHANIC ST","New Haven","CT",""
10493,"91 MECHANIC ST","New Haven","CT",""
10494,"95 MECHANIC ST","New Haven","CT",""
10495,"99 MECHANIC ST","New Haven","CT",""
10496,NA,"New Haven","CT",""
10497,NA,"New Haven","CT",""
10498,"957 STATE ST","New Haven","CT",""
10499,"965 STATE ST","New Haven","CT",""
10500,"73 BEECH ST","New Haven","CT",""
10501,"969 STATE ST","New Haven","CT",""
10502,"973 STATE ST","New Haven","CT",""
10503,"977 STATE ST","New Haven","CT",""
10504,"981 STATE ST","New Haven","CT",""
10505,NA,"New Haven","CT",""
10506,"987 STATE ST","New Haven","CT",""
10507,NA,"New Haven","CT",""
10508,"588 EAST ST","New Haven","CT",""
10509,"582 EAST ST","New Haven","CT",""
10510,"67 BEECH ST","New Haven","CT",""
10511,"BEECH ST","New Haven","CT",""
10512,"951 STATE ST","New Haven","CT",""
10513,"597 EAST ST","New Haven","CT",""
10514,"599 EAST ST","New Haven","CT",""
10515,"601 EAST ST","New Haven","CT",""
10516,"603 EAST ST","New Haven","CT",""
10517,"605 EAST ST","New Haven","CT",""
10518,"607 EAST ST","New Haven","CT",""
10519,"1013 STATE ST","New Haven","CT",""
10520,"1023 STATE ST","New Haven","CT",""
10521,"1025 STATE ST","New Haven","CT",""
10522,"1031 STATE ST","New Haven","CT",""
10523,"130 MILL RIVER ST","New Haven","CT",""
10524,"128 MILL RIVER ST","New Haven","CT",""
10525,"126 MILL RIVER ST","New Haven","CT",""
10526,"124 MILL RIVER ST","New Haven","CT",""
10527,NA,"New Haven","CT",""
10528,"238 WALLACE ST","New Haven","CT",""
10529,"50 WALNUT ST","New Haven","CT",""
10530,"48 WALNUT ST","New Haven","CT",""
10531,"46 WALNUT ST","New Haven","CT",""
10532,"44 WALNUT ST","New Haven","CT",""
10533,"42 WALNUT ST","New Haven","CT",""
10534,"40 WALNUT ST","New Haven","CT",""
10535,"38 WALNUT ST","New Haven","CT",""
10536,"36 WALNUT ST","New Haven","CT",""
10537,"34 WALNUT ST","New Haven","CT",""
10538,"32 WALNUT ST","New Haven","CT",""
10539,"241 WALLACE ST","New Haven","CT",""
10540,"243 WALLACE ST","New Haven","CT",""
10541,"241 WALLACE ST","New Haven","CT",""
10542,"247 WALLACE ST","New Haven","CT",""
10543,"249 WALLACE ST","New Haven","CT",""
10544,"EAST ST","New Haven","CT",""
10545,NA,"New Haven","CT",""
10546,"55 WALNUT ST #S1","New Haven","CT",""
10547,"55 WALNUT ST #S2","New Haven","CT",""
10548,"55 WALNUT ST #S3","New Haven","CT",""
10549,"55 WALNUT ST #S4","New Haven","CT",""
10550,"55 WALNUT ST #S5","New Haven","CT",""
10551,"55 WALNUT ST #S6","New Haven","CT",""
10552,"55 WALNUT ST #S7","New Haven","CT",""
10553,"55 WALNUT ST #S8","New Haven","CT",""
10554,"55 WALNUT ST #S9","New Haven","CT",""
10555,"530 EAST ST","New Haven","CT",""
10556,"175 HUMPHREY ST","New Haven","CT",""
10557,NA,"New Haven","CT",""
10558,"185 HUMPHREY ST","New Haven","CT",""
10559,"GRAND AV","New Haven","CT",""
10560,"165 FRANKLIN ST","New Haven","CT",""
10561,"GRAND AV","New Haven","CT",""
10562,"GRAND AV","New Haven","CT",""
10563,"GRAND AV","New Haven","CT",""
10564,"657 GRAND AV","New Haven","CT",""
10565,"HAMILTON ST","New Haven","CT",""
10566,"190 WALLACE ST","New Haven","CT",""
10567,"178 WALLACE ST","New Haven","CT",""
10568,"645 GRAND AV","New Haven","CT",""
10569,"GRAND AV","New Haven","CT",""
10570,"374 EAST ST","New Haven","CT",""
10571,"206 WALLACE ST","New Haven","CT",""
10572,"200 WALLACE ST","New Haven","CT",""
10573,"236 WALLACE ST","New Haven","CT",""
10574,"221 WALLACE ST","New Haven","CT",""
10575,"438 EAST ST","New Haven","CT",""
10576,"426 EAST ST","New Haven","CT",""
10577,"410 EAST ST","New Haven","CT",""
10578,"400 EAST ST","New Haven","CT",""
10579,"EAST ST","New Haven","CT",""
10580,"203 WALLACE ST","New Haven","CT",""
10581,"110 HAMILTON ST","New Haven","CT",""
10582,"102 HAMILTON ST","New Haven","CT",""
10583,"105 HAMILTON ST","New Haven","CT",""
10584,"EAST ST","New Haven","CT",""
10585,"260 EAST ST","New Haven","CT",""
10586,"662 GRAND AV","New Haven","CT",""
10587,"708 GRAND AV","New Haven","CT",""
10588,"724 GRAND AV","New Haven","CT",""
10589,"GRAND AV","New Haven","CT",""
10590,"130 HAMILTON ST","New Haven","CT",""
10591,"654 GRAND AV","New Haven","CT",""
10592,"630 GRAND AV","New Haven","CT",""
10593,"620 GRAND AV","New Haven","CT",""
10594,"150 WALLACE ST","New Haven","CT",""
10595,"133 HAMILTON ST","New Haven","CT",""
10596,"580 GRAND AV","New Haven","CT",""
10597,"300 EAST ST","New Haven","CT",""
10598,"90 HAMILTON ST","New Haven","CT",""
10599,"80 HAMILTON ST","New Haven","CT",""
10600,"60 HAMILTON ST","New Haven","CT",""
10601,"95 HAMILTON ST","New Haven","CT",""
10602,"95 HAMILTON ST","New Haven","CT",""
10603,"75 HAMILTON ST","New Haven","CT",""
10604,"64 WALLACE ST","New Haven","CT",""
10605,"56 WALLACE ST","New Haven","CT",""
10606,"419 CHAPEL ST","New Haven","CT",""
10607,"433 CHAPEL ST","New Haven","CT",""
10608,"441 CHAPEL ST","New Haven","CT",""
10609,"63 HAMILTON ST","New Haven","CT",""
10610,"50 IVES PL","New Haven","CT",""
10611,"189 EAST ST","New Haven","CT",""
10612,"EAST ST","New Haven","CT",""
10613,"166 BRIDGE ST","New Haven","CT",""
10614,"150 BRIDGE ST","New Haven","CT",""
10615,"111 EAST ST","New Haven","CT",""
10616,"45 WATER ST","New Haven","CT",""
10617,"34 WALLACE ST","New Haven","CT",""
10618,"130 EAST ST","New Haven","CT",""
10619,"120 EAST ST","New Haven","CT",""
10620,"EAST ST","New Haven","CT",""
10621,"424 CHAPEL ST","New Haven","CT",""
10622,"414 CHAPEL ST","New Haven","CT",""
10623,"188 EAST ST","New Haven","CT",""
10624,"160 EAST ST","New Haven","CT",""
10625,"181 EAST ST","New Haven","CT",""
10626,"151 EAST ST","New Haven","CT",""
10627,"169 EAST ST","New Haven","CT",""
10628,"153 EAST ST","New Haven","CT",""
10629,"155 EAST ST","New Haven","CT",""
10630,"127 EAST ST","New Haven","CT",""
10631,"4 HAMILTON ST","New Haven","CT",""
10632,"BREWERY ST","New Haven","CT",""
10633,"600 LONG WHARF DR","New Haven","CT",""
10634,"501 LONG WHARF DR","New Haven","CT",""
10635,"545 LONG WHARF DR","New Haven","CT",""
10636,"LONG WHARF DR","New Haven","CT",""
10637,"LONG WHARF DR","New Haven","CT",""
10638,"555 LONG WHARF DR","New Haven","CT",""
10639,"500 SARGENT DR","New Haven","CT",""
10640,"351 LONG WHARF DR","New Haven","CT",""
10641,"LONG WHARF DR","New Haven","CT",""
10642,"LONG WHARF DR","New Haven","CT",""
10643,"15 OLIVE ST","New Haven","CT",""
10644,"238 WOOSTER ST","New Haven","CT",""
10645,"WOOSTER ST","New Haven","CT",""
10646,"236 WOOSTER ST","New Haven","CT",""
10647,"230 WOOSTER ST","New Haven","CT",""
10648,"224 WOOSTER ST","New Haven","CT",""
10649,"66 WARREN ST","New Haven","CT",""
10650,"52 WARREN ST","New Haven","CT",""
10651,"50 WARREN ST","New Haven","CT",""
10652,"46 WARREN ST","New Haven","CT",""
10653,"42 WARREN ST","New Haven","CT",""
10654,"137 WATER ST","New Haven","CT",""
10655,"214 WOOSTER ST","New Haven","CT",""
10656,"212 WOOSTER ST","New Haven","CT",""
10657,"210 WOOSTER ST","New Haven","CT",""
10658,"208 WOOSTER ST","New Haven","CT",""
10659,"206 WOOSTER ST","New Haven","CT",""
10660,"204 WOOSTER ST","New Haven","CT",""
10661,"158 WOOSTER ST","New Haven","CT",""
10662,"BREWERY ST","New Haven","CT",""
10663,"24 BROWN ST","New Haven","CT",""
10664,"22 BROWN ST","New Haven","CT",""
10665,"20 BROWN ST","New Haven","CT",""
10666,"18 BROWN ST","New Haven","CT",""
10667,"16 BROWN ST","New Haven","CT",""
10668,"14 BROWN ST","New Haven","CT",""
10669,"12 BROWN ST","New Haven","CT",""
10670,"10 BROWN ST","New Haven","CT",""
10671,"6 BROWN ST","New Haven","CT",""
10672,"4 BROWN ST","New Haven","CT",""
10673,"WATER ST","New Haven","CT",""
10674,"99 WATER ST","New Haven","CT",""
10675,"109 WATER ST","New Haven","CT",""
10676,"111 WATER ST","New Haven","CT",""
10677,NA,"New Haven","CT",""
10678,NA,"New Haven","CT",""
10679,"49 WARREN ST","New Haven","CT",""
10680,"55 WARREN ST","New Haven","CT",""
10681,"WARREN ST","New Haven","CT",""
10682,"63 WARREN ST","New Haven","CT",""
10683,"67 WARREN ST","New Haven","CT",""
10684,"71 WARREN ST","New Haven","CT",""
10685,"75 WARREN ST","New Haven","CT",""
10686,"150 WOOSTER ST","New Haven","CT",""
10687,"138 WOOSTER ST","New Haven","CT",""
10688,NA,"New Haven","CT",""
10689,NA,"New Haven","CT",""
10690,"83 WATER ST","New Haven","CT",""
10691,"CHESTNUT ST","New Haven","CT",""
10692,"89 WATER ST","New Haven","CT",""
10693,"3 BROWN ST","New Haven","CT",""
10694,"5 BROWN ST","New Haven","CT",""
10695,"BROWN ST","New Haven","CT",""
10696,"7 BROWN ST","New Haven","CT",""
10697,"BROWN ST","New Haven","CT",""
10698,"9 BROWN ST","New Haven","CT",""
10699,"15 BROWN ST","New Haven","CT",""
10700,"17 BROWN ST","New Haven","CT",""
10701,"19 BROWN ST","New Haven","CT",""
10702,"21 BROWN ST","New Haven","CT",""
10703,"23 BROWN ST","New Haven","CT",""
10704,"112 WOOSTER ST","New Haven","CT",""
10705,"106 WOOSTER ST","New Haven","CT",""
10706,"100 WOOSTER ST","New Haven","CT",""
10707,"33 CHESTNUT ST","New Haven","CT",""
10708,NA,"New Haven","CT",""
10709,NA,"New Haven","CT",""
10710,"51 CHESTNUT ST","New Haven","CT",""
10711,"120 WOOSTER ST #A","New Haven","CT",""
10712,"120 WOOSTER ST #B","New Haven","CT",""
10713,"120 WOOSTER ST #C","New Haven","CT",""
10714,"120 WOOSTER ST #D","New Haven","CT",""
10715,"120 WOOSTER ST #E","New Haven","CT",""
10716,"120 WOOSTER ST #F","New Haven","CT",""
10717,"120 WOOSTER ST #G","New Haven","CT",""
10718,"120 WOOSTER ST #H","New Haven","CT",""
10719,"120 WOOSTER ST #I","New Haven","CT",""
10720,"120 WOOSTER ST #J","New Haven","CT",""
10721,"120 WOOSTER ST #K","New Haven","CT",""
10722,"120 WOOSTER ST #L","New Haven","CT",""
10723,"120 WOOSTER ST #M","New Haven","CT",""
10724,"120 WOOSTER ST #N","New Haven","CT",""
10725,"120 WOOSTER ST #O","New Haven","CT",""
10726,"120 WOOSTER ST #P","New Haven","CT",""
10727,"120 WOOSTER ST #Q","New Haven","CT",""
10728,"120 WOOSTER ST #R","New Haven","CT",""
10729,"120 WOOSTER ST #S","New Haven","CT",""
10730,"120 WOOSTER ST #T","New Haven","CT",""
10731,"120 WOOSTER ST #U","New Haven","CT",""
10732,"120 WOOSTER ST #V","New Haven","CT",""
10733,"120 WOOSTER ST #W","New Haven","CT",""
10734,"620 CHAPEL ST","New Haven","CT",""
10735,"614 CHAPEL ST","New Haven","CT",""
10736,"612 CHAPEL ST","New Haven","CT",""
10737,"604 CHAPEL ST","New Haven","CT",""
10738,"600 CHAPEL ST","New Haven","CT",""
10739,"592 CHAPEL ST","New Haven","CT",""
10740,"584 CHAPEL ST","New Haven","CT",""
10741,NA,"New Haven","CT",""
10742,"189 WOOSTER ST","New Haven","CT",""
10743,"191 WOOSTER ST","New Haven","CT",""
10744,"195 WOOSTER ST #1","New Haven","CT",""
10745,"195 WOOSTER ST #2","New Haven","CT",""
10746,"195 WOOSTER ST #3","New Haven","CT",""
10747,"197 WOOSTER ST","New Haven","CT",""
10748,"213 WOOSTER ST","New Haven","CT",""
10749,"WOOSTER ST","New Haven","CT",""
10750,"223 WOOSTER ST","New Haven","CT",""
10751,"235 WOOSTER ST","New Haven","CT",""
10752,"237 WOOSTER ST","New Haven","CT",""
10753,"245 WOOSTER ST","New Haven","CT",""
10754,"WOOSTER ST","New Haven","CT",""
10755,"CHAPEL ST","New Haven","CT",""
10756,"562 CHAPEL ST","New Haven","CT",""
10757,"560 CHAPEL ST","New Haven","CT",""
10758,"558 CHAPEL ST","New Haven","CT",""
10759,"556 CHAPEL ST #1","New Haven","CT",""
10760,"556 CHAPEL ST #2","New Haven","CT",""
10761,"556 CHAPEL ST #3","New Haven","CT",""
10762,"556 CHAPEL ST #4","New Haven","CT",""
10763,"554 CHAPEL ST #1","New Haven","CT",""
10764,"554 CHAPEL ST #2","New Haven","CT",""
10765,"554 CHAPEL ST #3","New Haven","CT",""
10766,"554 CHAPEL ST #2B","New Haven","CT",""
10767,"552 CHAPEL ST","New Haven","CT",""
10768,"548 CHAPEL ST","New Haven","CT",""
10769,"546 CHAPEL ST","New Haven","CT",""
10770,"542 CHAPEL ST","New Haven","CT",""
10771,"538 CHAPEL ST","New Haven","CT",""
10772,"532 CHAPEL ST","New Haven","CT",""
10773,"526 CHAPEL ST","New Haven","CT",""
10774,"524 CHAPEL ST","New Haven","CT",""
10775,"520 CHAPEL ST","New Haven","CT",""
10776,"518 CHAPEL ST","New Haven","CT",""
10777,"516 CHAPEL ST","New Haven","CT",""
10778,"86 CHESTNUT ST","New Haven","CT",""
10779,"82 CHESTNUT ST","New Haven","CT",""
10780,"129 WOOSTER ST","New Haven","CT",""
10781,"135 WOOSTER ST","New Haven","CT",""
10782,"147 WOOSTER ST","New Haven","CT",""
10783,"153 WOOSTER ST","New Haven","CT",""
10784,"159 WOOSTER ST","New Haven","CT",""
10785,"163 WOOSTER ST","New Haven","CT",""
10786,"165 WOOSTER ST","New Haven","CT",""
10787,"171 WOOSTER ST","New Haven","CT",""
10788,"175 WOOSTER ST","New Haven","CT",""
10789,"514 CHAPEL ST","New Haven","CT",""
10790,"512 CHAPEL ST","New Haven","CT",""
10791,"508 CHAPEL ST","New Haven","CT",""
10792,"504 CHAPEL ST","New Haven","CT",""
10793,"502 CHAPEL ST","New Haven","CT",""
10794,"500 CHAPEL ST","New Haven","CT",""
10795,"494 CHAPEL ST","New Haven","CT",""
10796,"488 CHAPEL ST","New Haven","CT",""
10797,NA,"New Haven","CT",""
10798,"40 FRANKLIN ST","New Haven","CT",""
10799,"38 FRANKLIN ST","New Haven","CT",""
10800,"103 WOOSTER ST #001","New Haven","CT",""
10801,"103 WOOSTER ST #002","New Haven","CT",""
10802,"103 WOOSTER ST #003","New Haven","CT",""
10803,"103 WOOSTER ST #004","New Haven","CT",""
10804,"105 WOOSTER ST","New Haven","CT",""
10805,"107 WOOSTER ST","New Haven","CT",""
10806,"111 WOOSTER ST","New Haven","CT",""
10807,NA,"New Haven","CT",""
10808,"121 WOOSTER ST","New Haven","CT",""
10809,"81 CHESTNUT ST","New Haven","CT",""
10810,"85 OLIVE ST #85","New Haven","CT",""
10811,"85 OLIVE ST #85A","New Haven","CT",""
10812,"85 OLIVE ST #85-B","New Haven","CT",""
10813,"87 OLIVE ST #87","New Haven","CT",""
10814,"87 OLIVE ST #87-A","New Haven","CT",""
10815,"87 OLIVE ST #87-B","New Haven","CT",""
10816,"30 COURT ST","New Haven","CT",""
10817,"28 COURT ST","New Haven","CT",""
10818,"26 COURT ST","New Haven","CT",""
10819,"24 COURT ST","New Haven","CT",""
10820,"22 COURT ST","New Haven","CT",""
10821,"20 COURT ST","New Haven","CT",""
10822,"18 COURT ST","New Haven","CT",""
10823,"16 COURT ST","New Haven","CT",""
10824,"14 COURT ST","New Haven","CT",""
10825,"12 COURT ST","New Haven","CT",""
10826,"10 COURT ST","New Haven","CT",""
10827,"6 COURT ST","New Haven","CT",""
10828,"20 ACADEMY ST","New Haven","CT",""
10829,NA,"New Haven","CT",""
10830,"12 ACADEMY ST #2A","New Haven","CT",""
10831,"12 ACADEMY ST #3B","New Haven","CT",""
10832,"12 ACADEMY ST #4C","New Haven","CT",""
10833,"12 ACADEMY ST #5D","New Haven","CT",""
10834,"12 ACADEMY ST #1E","New Haven","CT",""
10835,"10 ACADEMY ST","New Haven","CT",""
10836,"8 ACADEMY ST","New Haven","CT",""
10837,"585 CHAPEL ST","New Haven","CT",""
10838,"4 ACADEMY ST","New Haven","CT",""
10839,"593 CHAPEL ST","New Haven","CT",""
10840,"597 CHAPEL ST","New Haven","CT",""
10841,"601 CHAPEL ST","New Haven","CT",""
10842,"CHAPEL ST","New Haven","CT",""
10843,"607 CHAPEL ST #A","New Haven","CT",""
10844,"607 CHAPEL ST #B","New Haven","CT",""
10845,"607 CHAPEL ST #C","New Haven","CT",""
10846,"607 CHAPEL ST #D","New Haven","CT",""
10847,"613 CHAPEL ST","New Haven","CT",""
10848,"621 CHAPEL ST","New Haven","CT",""
10849,NA,"New Haven","CT",""
10850,NA,"New Haven","CT",""
10851,"71 OLIVE ST","New Haven","CT",""
10852,"OLIVE ST","New Haven","CT",""
10853,"81 OLIVE ST","New Haven","CT",""
10854,"83 OLIVE ST","New Haven","CT",""
10855,"ACADEMY ST","New Haven","CT",""
10856,"39 WOOSTER PL","New Haven","CT",""
10857,"250 GREENE ST","New Haven","CT",""
10858,"240 GREENE ST","New Haven","CT",""
10859,"234 GREENE ST","New Haven","CT",""
10860,"29 WOOSTER PL","New Haven","CT",""
10861,"523 CHAPEL ST","New Haven","CT",""
10862,"515 CHAPEL ST","New Haven","CT",""
10863,"CHAPEL ST","New Haven","CT",""
10864,"WOOSTER PL","New Haven","CT",""
10865,"CHAPEL ST","New Haven","CT",""
10866,"527 CHAPEL ST","New Haven","CT",""
10867,"533 CHAPEL ST","New Haven","CT",""
10868,"541 CHAPEL ST #A","New Haven","CT",""
10869,"541 CHAPEL ST #B","New Haven","CT",""
10870,"541 CHAPEL ST #C","New Haven","CT",""
10871,"541 CHAPEL ST #D","New Haven","CT",""
10872,"541 CHAPEL ST #E","New Haven","CT",""
10873,"541 CHAPEL ST #F","New Haven","CT",""
10874,"7 WOOSTER PL #1","New Haven","CT",""
10875,"7 WOOSTER PL #2","New Haven","CT",""
10876,"7 WOOSTER PL #3","New Haven","CT",""
10877,"7 WOOSTER PL #4","New Haven","CT",""
10878,"7 WOOSTER PL #5","New Haven","CT",""
10879,"7 WOOSTER PL #6","New Haven","CT",""
10880,"7 WOOSTER PL #7","New Haven","CT",""
10881,"9 WOOSTER PL","New Haven","CT",""
10882,"11 WOOSTER PL","New Haven","CT",""
10883,"15 WOOSTER PL","New Haven","CT",""
10884,"37 WOOSTER PL","New Haven","CT",""
10885,"107 OLIVE ST","New Haven","CT",""
10886,"352 GREENE ST","New Haven","CT",""
10887,"346 GREENE ST","New Haven","CT",""
10888,"342 GREENE ST","New Haven","CT",""
10889,"42 ACADEMY ST #1","New Haven","CT",""
10890,"42 ACADEMY ST #2","New Haven","CT",""
10891,"42 ACADEMY ST #3","New Haven","CT",""
10892,"42 ACADEMY ST #4","New Haven","CT",""
10893,"42 ACADEMY ST #5","New Haven","CT",""
10894,"42 ACADEMY ST #6","New Haven","CT",""
10895,"40 ACADEMY ST","New Haven","CT",""
10896,"38 ACADEMY ST","New Haven","CT",""
10897,"34 ACADEMY ST","New Haven","CT",""
10898,"30 ACADEMY ST","New Haven","CT",""
10899,"28 ACADEMY ST","New Haven","CT",""
10900,"26 ACADEMY ST","New Haven","CT",""
10901,"11 COURT ST","New Haven","CT",""
10902,"13 COURT ST","New Haven","CT",""
10903,"15 COURT ST","New Haven","CT",""
10904,"17 COURT ST","New Haven","CT",""
10905,"19 COURT ST","New Haven","CT",""
10906,"21 COURT ST","New Haven","CT",""
10907,"23 COURT ST","New Haven","CT",""
10908,"25 COURT ST","New Haven","CT",""
10909,"27 COURT ST","New Haven","CT",""
10910,"29 COURT ST","New Haven","CT",""
10911,"91 OLIVE ST #1A","New Haven","CT",""
10912,"91 OLIVE ST #2B","New Haven","CT",""
10913,"91 OLIVE ST #3C","New Haven","CT",""
10914,"91 OLIVE ST #4D","New Haven","CT",""
10915,"93 OLIVE ST","New Haven","CT",""
10916,"95 OLIVE ST","New Haven","CT",""
10917,"97 OLIVE ST","New Haven","CT",""
10918,"99 OLIVE ST","New Haven","CT",""
10919,"125 OLIVE ST #D-1","New Haven","CT",""
10920,"125 OLIVE ST #D-2","New Haven","CT",""
10921,"125 OLIVE ST #D-3","New Haven","CT",""
10922,"125 OLIVE ST #D-4","New Haven","CT",""
10923,"125 OLIVE ST #D-5","New Haven","CT",""
10924,"125 OLIVE ST #D-6","New Haven","CT",""
10925,"125 OLIVE ST #D-7","New Haven","CT",""
10926,"125 OLIVE ST #D-8","New Haven","CT",""
10927,"125 OLIVE ST #E-1","New Haven","CT",""
10928,"125 OLIVE ST #E-2","New Haven","CT",""
10929,"125 OLIVE ST #E-3","New Haven","CT",""
10930,"125 OLIVE ST #E-4","New Haven","CT",""
10931,"125 OLIVE ST #G-1","New Haven","CT",""
10932,"125 OLIVE ST #G-2","New Haven","CT",""
10933,"125 OLIVE ST #G-3","New Haven","CT",""
10934,"125 OLIVE ST #G-4","New Haven","CT",""
10935,"324 SAINT JOHN ST #1","New Haven","CT",""
10936,"324 SAINT JOHN ST #2","New Haven","CT",""
10937,"324 SAINT JOHN ST #3","New Haven","CT",""
10938,"324 SAINT JOHN ST #4","New Haven","CT",""
10939,"334 SAINT JOHN ST","New Haven","CT",""
10940,"316 SAINT JOHN ST","New Haven","CT",""
10941,"312 SAINT JOHN ST","New Haven","CT",""
10942,"6 HUGHES PL","New Haven","CT",""
10943,"323 GREENE ST #C-1","New Haven","CT",""
10944,"323 GREENE ST #C-2","New Haven","CT",""
10945,"323 GREENE ST #C-3","New Haven","CT",""
10946,"311 GREENE ST #A-1","New Haven","CT",""
10947,"311 GREENE ST #A-2","New Haven","CT",""
10948,"311 GREENE ST #A-3","New Haven","CT",""
10949,"311 GREENE ST #A-4","New Haven","CT",""
10950,"311 GREENE ST #A-5","New Haven","CT",""
10951,"12 HUGHES PL #T-1","New Haven","CT",""
10952,"14 HUGHES PL #T-2","New Haven","CT",""
10953,"16 HUGHES PL #T-3","New Haven","CT",""
10954,"18 HUGHES PL #T-4","New Haven","CT",""
10955,NA,"New Haven","CT",""
10956,"315 GREENE ST #B-2","New Haven","CT",""
10957,"319 GREENE ST #B-1","New Haven","CT",""
10958,NA,"New Haven","CT",""
10959,"339 GREENE ST","New Haven","CT",""
10960,"345 GREENE ST","New Haven","CT",""
10961,"351 GREENE ST","New Haven","CT",""
10962,"109 OLIVE ST","New Haven","CT",""
10963,"GREENE ST","New Haven","CT",""
10964,"117 OLIVE ST","New Haven","CT",""
10965,"119 OLIVE ST","New Haven","CT",""
10966,"OLIVE ST","New Haven","CT",""
10967,"282 SAINT JOHN ST #282","New Haven","CT",""
10968,"15 HUGHES PL #15","New Haven","CT",""
10969,"282 SAINT JOHN ST #282A","New Haven","CT",""
10970,"284 SAINT JOHN ST #284","New Haven","CT",""
10971,"278 SAINT JOHN ST","New Haven","CT",""
10972,"272 SAINT JOHN ST","New Haven","CT",""
10973,"258 SAINT JOHN ST","New Haven","CT",""
10974,"254 SAINT JOHN ST","New Haven","CT",""
10975,"248 SAINT JOHN ST","New Haven","CT",""
10976,"244 SAINT JOHN ST","New Haven","CT",""
10977,"236 SAINT JOHN ST","New Haven","CT",""
10978,"232 SAINT JOHN ST","New Haven","CT",""
10979,"224 SAINT JOHN ST","New Haven","CT",""
10980,"216 SAINT JOHN ST","New Haven","CT",""
10981,"186 CHESTNUT ST","New Haven","CT",""
10982,"182 CHESTNUT ST","New Haven","CT",""
10983,"176 CHESTNUT ST","New Haven","CT",""
10984,NA,"New Haven","CT",""
10985,"237 GREENE ST","New Haven","CT",""
10986,"245 GREENE ST","New Haven","CT",""
10987,"251 GREENE ST","New Haven","CT",""
10988,"257 GREENE ST","New Haven","CT",""
10989,"297 GREENE ST #G-1","New Haven","CT",""
10990,"299 GREENE ST #G-2","New Haven","CT",""
10991,"293 GREENE ST #G-3","New Haven","CT",""
10992,"295 GREENE ST #G-4","New Haven","CT",""
10993,"287 GREENE ST #G-5","New Haven","CT",""
10994,"289 GREENE ST #G-6","New Haven","CT",""
10995,"283 GREENE ST #G-7","New Haven","CT",""
10996,"285 GREENE ST #G-8","New Haven","CT",""
10997,"281 GREENE ST #G-9","New Haven","CT",""
10998,"277 GREENE ST #G-10","New Haven","CT",""
10999,"275 GREENE ST #G-11","New Haven","CT",""
11000,"273 GREENE ST #G-12","New Haven","CT",""
