"pid","location","city","state","zip"
19001,"242 DAVENPORT AV","New Haven","CT",""
19002,"236 DAVENPORT AV","New Haven","CT",""
19003,"48 KOSSUTH ST","New Haven","CT",""
19004,"44 KOSSUTH ST","New Haven","CT",""
19005,"36 KOSSUTH ST","New Haven","CT",""
19006,"11 ANN ST","New Haven","CT",""
19007,"17 ANN ST","New Haven","CT",""
19008,"21 ANN ST","New Haven","CT",""
19009,"23 ANN ST","New Haven","CT",""
19010,"25 ANN ST","New Haven","CT",""
19011,"29 ANN ST","New Haven","CT",""
19012,"27 ANN ST","New Haven","CT",""
19013,"31 ANN ST","New Haven","CT",""
19014,"35 ANN ST","New Haven","CT",""
19015,"ANN ST","New Haven","CT",""
19016,"37 ANN ST","New Haven","CT",""
19017,"39 ANN ST","New Haven","CT",""
19018,"ANN ST","New Haven","CT",""
19019,"41 ANN ST","New Haven","CT",""
19020,"43 ANN ST","New Haven","CT",""
19021,"51 ANN ST","New Haven","CT",""
19022,"53 ANN ST","New Haven","CT",""
19023,"57 ANN ST","New Haven","CT",""
19024,"63 ANN ST","New Haven","CT",""
19025,"215 WEST ST","New Haven","CT",""
19026,"WEST ST","New Haven","CT",""
19027,"219 WEST ST","New Haven","CT",""
19028,"224 DAVENPORT AV","New Haven","CT",""
19029,"220 DAVENPORT AV","New Haven","CT",""
19030,"218 DAVENPORT AV","New Haven","CT",""
19031,"216 DAVENPORT AV","New Haven","CT",""
19032,"206 DAVENPORT AV","New Haven","CT",""
19033,"202 DAVENPORT AV","New Haven","CT",""
19034,NA,"New Haven","CT",""
19035,NA,"New Haven","CT",""
19036,NA,"New Haven","CT",""
19037,NA,"New Haven","CT",""
19038,NA,"New Haven","CT",""
19039,NA,"New Haven","CT",""
19040,NA,"New Haven","CT",""
19041,NA,"New Haven","CT",""
19042,NA,"New Haven","CT",""
19043,NA,"New Haven","CT",""
19044,NA,"New Haven","CT",""
19045,NA,"New Haven","CT",""
19046,NA,"New Haven","CT",""
19047,NA,"New Haven","CT",""
19048,NA,"New Haven","CT",""
19049,NA,"New Haven","CT",""
19050,"649 CONGRESS AV","New Haven","CT",""
19051,"5 KOSSUTH ST","New Haven","CT",""
19052,"9 KOSSUTH ST","New Haven","CT",""
19053,"15 KOSSUTH ST","New Haven","CT",""
19054,"21 KOSSUTH ST","New Haven","CT",""
19055,"25 KOSSUTH ST","New Haven","CT",""
19056,"27 KOSSUTH ST","New Haven","CT",""
19057,"29 KOSSUTH ST","New Haven","CT",""
19058,"33 KOSSUTH ST","New Haven","CT",""
19059,"39 KOSSUTH ST","New Haven","CT",""
19060,"45 KOSSUTH ST","New Haven","CT",""
19061,"49 KOSSUTH ST","New Haven","CT",""
19062,"198 DAVENPORT AV","New Haven","CT",""
19063,"196 DAVENPORT AV","New Haven","CT",""
19064,"192 DAVENPORT AV","New Haven","CT",""
19065,"180 DAVENPORT AV","New Haven","CT",""
19066,"38 ASYLUM ST","New Haven","CT",""
19067,"34 ASYLUM ST","New Haven","CT",""
19068,NA,"New Haven","CT",""
19069,NA,"New Haven","CT",""
19070,NA,"New Haven","CT",""
19071,NA,"New Haven","CT",""
19072,NA,"New Haven","CT",""
19073,NA,"New Haven","CT",""
19074,NA,"New Haven","CT",""
19075,NA,"New Haven","CT",""
19076,NA,"New Haven","CT",""
19077,NA,"New Haven","CT",""
19078,"587 CONGRESS AV","New Haven","CT",""
19079,NA,"New Haven","CT",""
19080,NA,"New Haven","CT",""
19081,NA,"New Haven","CT",""
19082,NA,"New Haven","CT",""
19083,NA,"New Haven","CT",""
19084,NA,"New Haven","CT",""
19085,NA,"New Haven","CT",""
19086,NA,"New Haven","CT",""
19087,NA,"New Haven","CT",""
19088,NA,"New Haven","CT",""
19089,"698 CONGRESS AV","New Haven","CT",""
19090,"702 CONGRESS AV","New Haven","CT",""
19091,"706 CONGRESS AV","New Haven","CT",""
19092,"710 CONGRESS AV","New Haven","CT",""
19093,"712 CONGRESS AV","New Haven","CT",""
19094,"718 CONGRESS AV","New Haven","CT",""
19095,"724 CONGRESS AV","New Haven","CT",""
19096,"730 CONGRESS AV","New Haven","CT",""
19097,"70 WHITE ST","New Haven","CT",""
19098,NA,"New Haven","CT",""
19099,NA,"New Haven","CT",""
19100,"58 WHITE ST","New Haven","CT",""
19101,"56 WHITE ST","New Haven","CT",""
19102,"52 WHITE ST","New Haven","CT",""
19103,"50 WHITE ST","New Haven","CT",""
19104,"48 WHITE ST","New Haven","CT",""
19105,"WHITE ST","New Haven","CT",""
19106,"34 WHITE ST","New Haven","CT",""
19107,"30 WHITE ST","New Haven","CT",""
19108,"20 WHITE ST","New Haven","CT",""
19109,"395 COLUMBUS AV","New Haven","CT",""
19110,"5 REDFIELD ST","New Haven","CT",""
19111,"REDFIELD ST","New Haven","CT",""
19112,"11 REDFIELD ST","New Haven","CT",""
19113,"13 REDFIELD ST","New Haven","CT",""
19114,"15 REDFIELD ST","New Haven","CT",""
19115,"17 REDFIELD ST","New Haven","CT",""
19116,"19 REDFIELD ST","New Haven","CT",""
19117,"23 REDFIELD ST","New Haven","CT",""
19118,"27 REDFIELD ST","New Haven","CT",""
19119,"33 REDFIELD ST","New Haven","CT",""
19120,"37 REDFIELD ST","New Haven","CT",""
19121,"41 REDFIELD ST","New Haven","CT",""
19122,"43 REDFIELD ST","New Haven","CT",""
19123,"REDFIELD ST","New Haven","CT",""
19124,"47 REDFIELD ST","New Haven","CT",""
19125,"51 REDFIELD ST","New Haven","CT",""
19126,"55 REDFIELD ST","New Haven","CT",""
19127,"REDFIELD ST","New Haven","CT",""
19128,"59 REDFIELD ST","New Haven","CT",""
19129,"658 CONGRESS AV","New Haven","CT",""
19130,"84 ARCH ST","New Haven","CT",""
19131,"92 ARCH ST","New Haven","CT",""
19132,"80 ARCH ST","New Haven","CT",""
19133,"82 ARCH ST","New Haven","CT",""
19134,"76 ARCH ST","New Haven","CT",""
19135,"ARCH ST","New Haven","CT",""
19136,"68 ARCH ST","New Haven","CT",""
19137,"70 ARCH ST","New Haven","CT",""
19138,"72 ARCH ST","New Haven","CT",""
19139,"66 ARCH ST","New Haven","CT",""
19140,"62 ARCH ST","New Haven","CT",""
19141,"50 ARCH ST","New Haven","CT",""
19142,"52 ARCH ST","New Haven","CT",""
19143,"54 ARCH ST","New Haven","CT",""
19144,"56 ARCH ST","New Haven","CT",""
19145,"46 ARCH ST","New Haven","CT",""
19146,"44 ARCH ST","New Haven","CT",""
19147,"40 ARCH ST","New Haven","CT",""
19148,"38 ARCH ST","New Haven","CT",""
19149,"34 ARCH ST","New Haven","CT",""
19150,"28 ARCH ST","New Haven","CT",""
19151,"24 ARCH ST","New Haven","CT",""
19152,"20 ARCH ST","New Haven","CT",""
19153,"12 ARCH ST","New Haven","CT",""
19154,"10 ARCH ST","New Haven","CT",""
19155,"8 ARCH ST","New Haven","CT",""
19156,"6 ARCH ST","New Haven","CT",""
19157,"2 ARCH ST","New Haven","CT",""
19158,"373 COLUMBUS AV","New Haven","CT",""
19159,"379 COLUMBUS AV","New Haven","CT",""
19160,"393 COLUMBUS AV","New Haven","CT",""
19161,"9 WHITE ST","New Haven","CT",""
19162,"11 WHITE ST","New Haven","CT",""
19163,"WHITE ST","New Haven","CT",""
19164,"13 WHITE ST","New Haven","CT",""
19165,"17 WHITE ST","New Haven","CT",""
19166,"21 WHITE ST","New Haven","CT",""
19167,"25 WHITE ST","New Haven","CT",""
19168,"27 WHITE ST","New Haven","CT",""
19169,"29 WHITE ST","New Haven","CT",""
19170,"37 WHITE ST","New Haven","CT",""
19171,"43 WHITE ST","New Haven","CT",""
19172,"45 WHITE ST","New Haven","CT",""
19173,"47 WHITE ST","New Haven","CT",""
19174,"49 WHITE ST","New Haven","CT",""
19175,"53 WHITE ST","New Haven","CT",""
19176,"57 WHITE ST","New Haven","CT",""
19177,"67 WHITE ST","New Haven","CT",""
19178,"69 WHITE ST","New Haven","CT",""
19179,"WHITE ST","New Haven","CT",""
19180,"71 WHITE ST","New Haven","CT",""
19181,"73 WHITE ST","New Haven","CT",""
19182,"75 WHITE ST","New Haven","CT",""
19183,"672 CONGRESS AV","New Haven","CT",""
19184,"596 CONGRESS AV","New Haven","CT",""
19185,"88 HALLOCK ST","New Haven","CT",""
19186,"86 HALLOCK ST","New Haven","CT",""
19187,"84 HALLOCK ST","New Haven","CT",""
19188,"82 HALLOCK ST","New Haven","CT",""
19189,"80 HALLOCK ST","New Haven","CT",""
19190,"78 HALLOCK ST","New Haven","CT",""
19191,"72 HALLOCK ST","New Haven","CT",""
19192,"70 HALLOCK ST","New Haven","CT",""
19193,"68 HALLOCK ST","New Haven","CT",""
19194,"64 HALLOCK ST","New Haven","CT",""
19195,"58 HALLOCK ST","New Haven","CT",""
19196,"56 HALLOCK ST","New Haven","CT",""
19197,"52 HALLOCK ST","New Haven","CT",""
19198,"40 HALLOCK ST","New Haven","CT",""
19199,"46 HALLOCK ST","New Haven","CT",""
19200,"38 HALLOCK ST","New Haven","CT",""
19201,"36 HALLOCK ST","New Haven","CT",""
19202,"34 HALLOCK ST","New Haven","CT",""
19203,"32 HALLOCK ST","New Haven","CT",""
19204,"22 HALLOCK ST","New Haven","CT",""
19205,"14 HALLOCK ST","New Haven","CT",""
19206,NA,"New Haven","CT",""
19207,NA,"New Haven","CT",""
19208,NA,"New Haven","CT",""
19209,NA,"New Haven","CT",""
19210,NA,"New Haven","CT",""
19211,NA,"New Haven","CT",""
19212,NA,"New Haven","CT",""
19213,NA,"New Haven","CT",""
19214,NA,"New Haven","CT",""
19215,"10 HALLOCK ST","New Haven","CT",""
19216,"HALLOCK ST","New Haven","CT",""
19217,"3 ARCH ST","New Haven","CT",""
19218,"5 ARCH ST","New Haven","CT",""
19219,"7 ARCH ST","New Haven","CT",""
19220,"11 ARCH ST","New Haven","CT",""
19221,"19 ARCH ST","New Haven","CT",""
19222,"19 ARCH ST","New Haven","CT",""
19223,"21 ARCH ST","New Haven","CT",""
19224,"23 ARCH ST","New Haven","CT",""
19225,"25 ARCH ST","New Haven","CT",""
19226,"ARCH ST","New Haven","CT",""
19227,"27 ARCH ST","New Haven","CT",""
19228,"33 ARCH ST","New Haven","CT",""
19229,"35 ARCH ST","New Haven","CT",""
19230,"39 ARCH ST","New Haven","CT",""
19231,"43 ARCH ST","New Haven","CT",""
19232,"45 ARCH ST","New Haven","CT",""
19233,"49 ARCH ST","New Haven","CT",""
19234,"61 ARCH ST","New Haven","CT",""
19235,"63 ARCH ST","New Haven","CT",""
19236,"63 ARCH ST","New Haven","CT",""
19237,"65 ARCH ST","New Haven","CT",""
19238,"67 ARCH ST","New Haven","CT",""
19239,"ARCH ST","New Haven","CT",""
19240,"69 ARCH ST","New Haven","CT",""
19241,"71 ARCH ST","New Haven","CT",""
19242,"71 ARCH ST","New Haven","CT",""
19243,"77 ARCH ST","New Haven","CT",""
19244,"79 ARCH ST","New Haven","CT",""
19245,"83 ARCH ST","New Haven","CT",""
19246,"85 ARCH ST","New Haven","CT",""
19247,"630 CONGRESS AV","New Haven","CT",""
19248,"620 CONGRESS AV","New Haven","CT",""
19249,"600 CONGRESS AV","New Haven","CT",""
19250,"546 CONGRESS AV","New Haven","CT",""
19251,"88 DAGGETT ST","New Haven","CT",""
19252,"84 DAGGETT ST","New Haven","CT",""
19253,"80 DAGGETT ST","New Haven","CT",""
19254,"78 DAGGETT ST","New Haven","CT",""
19255,"74 DAGGETT ST","New Haven","CT",""
19256,"72 DAGGETT ST","New Haven","CT",""
19257,"68 DAGGETT ST","New Haven","CT",""
19258,"66 DAGGETT ST","New Haven","CT",""
19259,NA,"New Haven","CT",""
19260,"64 DAGGETT ST","New Haven","CT",""
19261,"58 DAGGETT ST","New Haven","CT",""
19262,NA,"New Haven","CT",""
19263,"52 DAGGETT ST","New Haven","CT",""
19264,"50 DAGGETT ST","New Haven","CT",""
19265,"48 DAGGETT ST","New Haven","CT",""
19266,"44 DAGGETT ST","New Haven","CT",""
19267,"42 DAGGETT ST","New Haven","CT",""
19268,"38 DAGGETT ST","New Haven","CT",""
19269,"34 DAGGETT ST","New Haven","CT",""
19270,"32 DAGGETT ST","New Haven","CT",""
19271,"28 DAGGETT ST","New Haven","CT",""
19272,"26 DAGGETT ST","New Haven","CT",""
19273,"22 DAGGETT ST","New Haven","CT",""
19274,"20 DAGGETT ST","New Haven","CT",""
19275,"16 DAGGETT ST","New Haven","CT",""
19276,"12 DAGGETT ST","New Haven","CT",""
19277,"10 DAGGETT ST","New Haven","CT",""
19278,"DAGGETT ST","New Haven","CT",""
19279,"369 WASHINGTON AV","New Haven","CT",""
19280,"13 HALLOCK ST","New Haven","CT",""
19281,"15 HALLOCK ST","New Haven","CT",""
19282,"21 HALLOCK ST","New Haven","CT",""
19283,"23 HALLOCK ST","New Haven","CT",""
19284,"25 HALLOCK ST","New Haven","CT",""
19285,"29 HALLOCK ST","New Haven","CT",""
19286,"33 HALLOCK ST","New Haven","CT",""
19287,"35 HALLOCK ST","New Haven","CT",""
19288,"37 HALLOCK ST","New Haven","CT",""
19289,"39 HALLOCK ST","New Haven","CT",""
19290,"43 HALLOCK ST","New Haven","CT",""
19291,"49 HALLOCK ST","New Haven","CT",""
19292,"55 HALLOCK ST","New Haven","CT",""
19293,"57 HALLOCK ST","New Haven","CT",""
19294,"61 HALLOCK ST","New Haven","CT",""
19295,"63 HALLOCK ST #A","New Haven","CT",""
19296,"63 HALLOCK ST #B","New Haven","CT",""
19297,"71 HALLOCK ST","New Haven","CT",""
19298,NA,"New Haven","CT",""
19299,"75 HALLOCK ST","New Haven","CT",""
19300,"79 HALLOCK ST","New Haven","CT",""
19301,"81 HALLOCK ST","New Haven","CT",""
19302,"83 HALLOCK ST","New Haven","CT",""
19303,"584 CONGRESS AV","New Haven","CT",""
19304,"592 CONGRESS AV","New Haven","CT",""
19305,"574 CONGRESS AV","New Haven","CT",""
19306,"570 CONGRESS AV","New Haven","CT",""
19307,"560 CONGRESS AV","New Haven","CT",""
19308,"554 CONGRESS AV","New Haven","CT",""
19309,"20 KING PL","New Haven","CT",""
19310,"16 KING PL","New Haven","CT",""
19311,"12 KING PL","New Haven","CT",""
19312,"633 WASHINGTON AV","New Haven","CT",""
19313,"637 WASHINGTON AV","New Haven","CT",""
19314,"639 WASHINGTON AV","New Haven","CT",""
19315,"643 WASHINGTON AV","New Haven","CT",""
19316,"645 WASHINGTON AV","New Haven","CT",""
19317,"649 WASHINGTON AV","New Haven","CT",""
19318,"653 WASHINGTON AV","New Haven","CT",""
19319,"655 WASHINGTON AV","New Haven","CT",""
19320,"659 WASHINGTON AV","New Haven","CT",""
19321,"11 CLOVER PL","New Haven","CT",""
19322,"64 TRUMAN ST","New Haven","CT",""
19323,"60 TRUMAN ST","New Haven","CT",""
19324,"58 TRUMAN ST","New Haven","CT",""
19325,"52 TRUMAN ST","New Haven","CT",""
19326,"48 TRUMAN ST","New Haven","CT",""
19327,"606 WASHINGTON AV","New Haven","CT",""
19328,"114 HURLBURT ST","New Haven","CT",""
19329,"110 HURLBURT ST","New Haven","CT",""
19330,"203 SPRING ST","New Haven","CT",""
19331,"205 SPRING ST","New Haven","CT",""
19332,"207 SPRING ST","New Haven","CT",""
19333,"209 SPRING ST","New Haven","CT",""
19334,"211 SPRING ST","New Haven","CT",""
19335,"215 SPRING ST","New Haven","CT",""
19336,"219 SPRING ST","New Haven","CT",""
19337,"225 SPRING ST","New Haven","CT",""
19338,"656 WASHINGTON AV","New Haven","CT",""
19339,NA,"New Haven","CT",""
19340,"640 WASHINGTON AV","New Haven","CT",""
19341,"634 WASHINGTON AV","New Haven","CT",""
19342,"630 WASHINGTON AV","New Haven","CT",""
19343,"626 WASHINGTON AV","New Haven","CT",""
19344,"624 WASHINGTON AV","New Haven","CT",""
19345,"620 WASHINGTON AV","New Haven","CT",""
19346,"614 WASHINGTON AV","New Haven","CT",""
19347,"266 PUTNAM ST","New Haven","CT",""
19348,"120 BUTTON ST","New Haven","CT",""
19349,"116 BUTTON ST","New Haven","CT",""
19350,"114 BUTTON ST","New Haven","CT",""
19351,"191 SPRING ST","New Haven","CT",""
19352,"193 SPRING ST","New Haven","CT",""
19353,"195 SPRING ST","New Haven","CT",""
19354,"197 SPRING ST","New Haven","CT",""
19355,"201 SPRING ST","New Haven","CT",""
19356,"109 HURLBURT ST","New Haven","CT",""
19357,"113 HURLBURT ST","New Haven","CT",""
19358,"119 HURLBURT ST","New Haven","CT",""
19359,"127 HURLBURT ST","New Haven","CT",""
19360,"284 PUTNAM ST","New Haven","CT",""
19361,"520 WASHINGTON AV","New Haven","CT",""
19362,"139 BUTTON ST","New Haven","CT",""
19363,"24 WEST ST","New Haven","CT",""
19364,NA,"New Haven","CT",""
19365,"12 WEST ST","New Haven","CT",""
19366,"10 WEST ST","New Haven","CT",""
19367,NA,"New Haven","CT",""
19368,"607 WASHINGTON AV","New Haven","CT",""
19369,"613 WASHINGTON AV","New Haven","CT",""
19370,"615 WASHINGTON AV","New Haven","CT",""
19371,"623 WASHINGTON AV","New Haven","CT",""
19372,"627 WASHINGTON AV","New Haven","CT",""
19373,"3 KING PL","New Haven","CT",""
19374,"32 TRUMAN ST","New Haven","CT",""
19375,"28 TRUMAN ST","New Haven","CT",""
19376,"24 TRUMAN ST","New Haven","CT",""
19377,"18 TRUMAN ST","New Haven","CT",""
19378,"16 TRUMAN ST","New Haven","CT",""
19379,"1 FRANK ST","New Haven","CT",""
19380,"5 FRANK ST","New Haven","CT",""
19381,"9 FRANK ST","New Haven","CT",""
19382,"15 FRANK ST","New Haven","CT",""
19383,"FRANK ST","New Haven","CT",""
19384,"19 FRANK ST","New Haven","CT",""
19385,"FRANK ST","New Haven","CT",""
19386,"25 FRANK ST","New Haven","CT",""
19387,"FRANK ST","New Haven","CT",""
19388,"27 FRANK ST","New Haven","CT",""
19389,"FRANK ST","New Haven","CT",""
19390,"29 FRANK ST","New Haven","CT",""
19391,"31 FRANK ST","New Haven","CT",""
19392,"35 FRANK ST","New Haven","CT",""
19393,"39 FRANK ST","New Haven","CT",""
19394,"43 FRANK ST","New Haven","CT",""
19395,"45 FRANK ST","New Haven","CT",""
19396,"47 FRANK ST","New Haven","CT",""
19397,"49 FRANK ST","New Haven","CT",""
19398,"51 FRANK ST","New Haven","CT",""
19399,"53 FRANK ST","New Haven","CT",""
19400,"55 FRANK ST","New Haven","CT",""
19401,"77 WEST ST","New Haven","CT",""
19402,"83 WEST ST","New Haven","CT",""
19403,"95 WEST ST","New Haven","CT",""
19404,"97 WEST ST","New Haven","CT",""
19405,"99 WEST ST","New Haven","CT",""
19406,"101 WEST ST","New Haven","CT",""
19407,"103 WEST ST","New Haven","CT",""
19408,"400 COLUMBUS AV","New Haven","CT",""
19409,"44 FRANK ST","New Haven","CT",""
19410,"36 LINES ST","New Haven","CT",""
19411,"34 LINES ST","New Haven","CT",""
19412,"32 LINES ST","New Haven","CT",""
19413,"30 LINES ST","New Haven","CT",""
19414,"22 LINES ST","New Haven","CT",""
19415,"20 LINES ST","New Haven","CT",""
19416,"18 LINES ST","New Haven","CT",""
19417,"12 LINES ST","New Haven","CT",""
19418,"8 LINES ST","New Haven","CT",""
19419,"6 LINES ST","New Haven","CT",""
19420,"569 WASHINGTON AV","New Haven","CT",""
19421,"589 WASHINGTON AV","New Haven","CT",""
19422,"599 WASHINGTON AV","New Haven","CT",""
19423,"21 WEST ST","New Haven","CT",""
19424,"23 WEST ST","New Haven","CT",""
19425,"25 WEST ST","New Haven","CT",""
19426,"35 WEST ST","New Haven","CT",""
19427,"37 WEST ST","New Haven","CT",""
19428,"43 WEST ST","New Haven","CT",""
19429,"47 WEST ST","New Haven","CT",""
19430,"60 FRANK ST","New Haven","CT",""
19431,"56 FRANK ST","New Haven","CT",""
19432,"54 FRANK ST","New Haven","CT",""
19433,"52 FRANK ST","New Haven","CT",""
19434,"48 FRANK ST","New Haven","CT",""
19435,"46 FRANK ST","New Haven","CT",""
19436,"10 FRANK ST","New Haven","CT",""
19437,"441 WASHINGTON AV","New Haven","CT",""
19438,"517 WASHINGTON AV","New Haven","CT",""
19439,"527 WASHINGTON AV","New Haven","CT",""
19440,"13 LINES ST","New Haven","CT",""
19441,"19 LINES ST","New Haven","CT",""
19442,"27 LINES ST","New Haven","CT",""
19443,"31 LINES ST","New Haven","CT",""
19444,"35 LINES ST","New Haven","CT",""
19445,"37 LINES ST","New Haven","CT",""
19446,"39 LINES ST","New Haven","CT",""
19447,"41 LINES ST","New Haven","CT",""
19448,"43 LINES ST","New Haven","CT",""
19449,"45 LINES ST","New Haven","CT",""
19450,"51 LINES ST","New Haven","CT",""
19451,"30 FRANK ST","New Haven","CT",""
19452,"28 FRANK ST","New Haven","CT",""
19453,"24 FRANK ST","New Haven","CT",""
19454,"22 FRANK ST","New Haven","CT",""
19455,"54 WEST ST","New Haven","CT",""
19456,"50 WEST ST","New Haven","CT",""
19457,"44 WEST ST","New Haven","CT",""
19458,"40 WEST ST","New Haven","CT",""
19459,"38 WEST ST","New Haven","CT",""
19460,"34 WEST ST","New Haven","CT",""
19461,"11 TRUMAN ST","New Haven","CT",""
19462,"15 TRUMAN ST","New Haven","CT",""
19463,"19 TRUMAN ST","New Haven","CT",""
19464,"25 TRUMAN ST","New Haven","CT",""
19465,NA,"New Haven","CT",""
19466,"29 TRUMAN ST","New Haven","CT",""
19467,"33 TRUMAN ST","New Haven","CT",""
19468,"37 TRUMAN ST","New Haven","CT",""
19469,"41 TRUMAN ST","New Haven","CT",""
19470,"45 TRUMAN ST","New Haven","CT",""
19471,"47 TRUMAN ST","New Haven","CT",""
19472,NA,"New Haven","CT",""
19473,NA,"New Haven","CT",""
19474,"57 TRUMAN ST","New Haven","CT",""
19475,"61 TRUMAN ST","New Haven","CT",""
19476,"65 TRUMAN ST","New Haven","CT",""
19477,"138 FRANK ST","New Haven","CT",""
19478,"136 FRANK ST","New Haven","CT",""
19479,"130 FRANK ST","New Haven","CT",""
19480,"124 FRANK ST","New Haven","CT",""
19481,"122 FRANK ST","New Haven","CT",""
19482,"116 FRANK ST","New Haven","CT",""
19483,"112 FRANK ST","New Haven","CT",""
19484,"106 FRANK ST","New Haven","CT",""
19485,"FRANK ST","New Haven","CT",""
19486,"96 FRANK ST","New Haven","CT",""
19487,"94 FRANK ST","New Haven","CT",""
19488,"86 FRANK ST","New Haven","CT",""
19489,"84 FRANK ST","New Haven","CT",""
19490,"80 WEST ST","New Haven","CT",""
19491,NA,"New Haven","CT",""
19492,"70 WEST ST","New Haven","CT",""
19493,"68 WEST ST","New Haven","CT",""
19494,"66 WEST ST","New Haven","CT",""
19495,"69 FRANK ST","New Haven","CT",""
19496,"73 FRANK ST","New Haven","CT",""
19497,"77 FRANK ST","New Haven","CT",""
19498,"79 FRANK ST","New Haven","CT",""
19499,"83 FRANK ST","New Haven","CT",""
19500,"85 FRANK ST","New Haven","CT",""
19501,"87 FRANK ST","New Haven","CT",""
19502,"89 FRANK ST","New Haven","CT",""
19503,"93 FRANK ST","New Haven","CT",""
19504,"95 FRANK ST","New Haven","CT",""
19505,"109 FRANK ST","New Haven","CT",""
19506,"54 ADELINE ST","New Haven","CT",""
19507,"52 ADELINE ST","New Haven","CT",""
19508,"42 ADELINE ST","New Haven","CT",""
19509,"40 ADELINE ST","New Haven","CT",""
19510,"36 ADELINE ST","New Haven","CT",""
19511,"32 ADELINE ST","New Haven","CT",""
19512,"28 ADELINE ST","New Haven","CT",""
19513,"24 ADELINE ST","New Haven","CT",""
19514,"22 ADELINE ST","New Haven","CT",""
19515,"20 ADELINE ST","New Haven","CT",""
19516,"16 ADELINE ST","New Haven","CT",""
19517,"14 ADELINE ST","New Haven","CT",""
19518,"2 THORN ST","New Haven","CT",""
19519,"86 WEST ST","New Haven","CT",""
19520,"9 ADELINE ST","New Haven","CT",""
19521,"17 ADELINE ST","New Haven","CT",""
19522,"19 ADELINE ST","New Haven","CT",""
19523,"27 ADELINE ST","New Haven","CT",""
19524,"31 ADELINE ST","New Haven","CT",""
19525,"33 ADELINE ST","New Haven","CT",""
19526,NA,"New Haven","CT",""
19527,"41 ADELINE ST","New Haven","CT",""
19528,"43 ADELINE ST","New Haven","CT",""
19529,"45 ADELINE ST","New Haven","CT",""
19530,"45 EDDY ST","New Haven","CT",""
19531,"49 EDDY ST","New Haven","CT",""
19532,"EDDY ST","New Haven","CT",""
19533,"58 THORN ST","New Haven","CT",""
19534,"54 THORN ST","New Haven","CT",""
19535,"50 THORN ST","New Haven","CT",""
19536,"48 THORN ST","New Haven","CT",""
19537,"44 THORN ST","New Haven","CT",""
19538,"467 COLUMBUS AV","New Haven","CT",""
19539,"136 WEST ST","New Haven","CT",""
19540,"469 COLUMBUS AV","New Haven","CT",""
19541,NA,"New Haven","CT",""
19542,"473 COLUMBUS AV","New Haven","CT",""
19543,"475 COLUMBUS AV","New Haven","CT",""
19544,"53 THORN ST","New Haven","CT",""
19545,"55 THORN ST","New Haven","CT",""
19546,"57 THORN ST","New Haven","CT",""
19547,"59 THORN ST","New Haven","CT",""
19548,"476 COLUMBUS AV","New Haven","CT",""
19549,"31 THORN ST","New Haven","CT",""
19550,"744 CONGRESS AV","New Haven","CT",""
19551,"64 REDFIELD ST","New Haven","CT",""
19552,"60 REDFIELD ST","New Haven","CT",""
19553,"56 REDFIELD ST","New Haven","CT",""
19554,"54 REDFIELD ST","New Haven","CT",""
19555,"48 REDFIELD ST","New Haven","CT",""
19556,"44 REDFIELD ST","New Haven","CT",""
19557,"40 REDFIELD ST","New Haven","CT",""
19558,"36 REDFIELD ST","New Haven","CT",""
19559,"28 REDFIELD ST","New Haven","CT",""
19560,"32 REDFIELD ST","New Haven","CT",""
19561,"24 REDFIELD ST","New Haven","CT",""
19562,"20 REDFIELD ST","New Haven","CT",""
19563,"16 REDFIELD ST","New Haven","CT",""
19564,"425 COLUMBUS AV","New Haven","CT",""
19565,"431 COLUMBUS AV","New Haven","CT",""
19566,"437 COLUMBUS AV","New Haven","CT",""
19567,"449 COLUMBUS AV","New Haven","CT",""
19568,"131 WEST ST","New Haven","CT",""
19569,NA,"New Haven","CT",""
19570,"137 WEST ST","New Haven","CT",""
19571,"143 WEST ST","New Haven","CT",""
19572,"145 WEST ST","New Haven","CT",""
19573,"149 WEST ST","New Haven","CT",""
19574,"151 WEST ST","New Haven","CT",""
19575,"155 WEST ST","New Haven","CT",""
19576,"157 WEST ST","New Haven","CT",""
19577,"159 WEST ST","New Haven","CT",""
19578,"163 WEST ST","New Haven","CT",""
19579,"167 WEST ST","New Haven","CT",""
19580,"169 WEST ST","New Haven","CT",""
19581,"790 CONGRESS AV","New Haven","CT",""
19582,"784 CONGRESS AV","New Haven","CT",""
19583,"778 CONGRESS AV","New Haven","CT",""
19584,"766 CONGRESS AV","New Haven","CT",""
19585,"762 CONGRESS AV","New Haven","CT",""
19586,"756 CONGRESS AV","New Haven","CT",""
19587,"150 TRUMAN ST","New Haven","CT",""
19588,"729 WASHINGTON AV","New Haven","CT",""
19589,"733 WASHINGTON AV","New Haven","CT",""
19590,"737 WASHINGTON AV","New Haven","CT",""
19591,"741 WASHINGTON AV","New Haven","CT",""
19592,"743 WASHINGTON AV","New Haven","CT",""
19593,"745 WASHINGTON AV","New Haven","CT",""
19594,"747 WASHINGTON AV","New Haven","CT",""
19595,"339 ELLA T GRASSO BLVD","New Haven","CT",""
19596,"ELLA T GRASSO BLVD","New Haven","CT",""
19597,"114 TRUMAN ST","New Haven","CT",""
19598,"MORRIS ST","New Haven","CT",""
19599,"156 MORRIS ST","New Haven","CT",""
19600,"695 WASHINGTON AV","New Haven","CT",""
19601,"697 WASHINGTON AV","New Haven","CT",""
19602,"703 WASHINGTON AV","New Haven","CT",""
19603,"705 WASHINGTON AV","New Haven","CT",""
19604,"709 WASHINGTON AV","New Haven","CT",""
19605,"723 WASHINGTON AV","New Haven","CT",""
19606,"24 CLOVER PL","New Haven","CT",""
19607,"18 CLOVER PL","New Haven","CT",""
19608,"16 CLOVER PL","New Haven","CT",""
19609,"14 CLOVER PL","New Haven","CT",""
19610,"665 WASHINGTON AV","New Haven","CT",""
19611,"667 WASHINGTON AV","New Haven","CT",""
19612,"669 WASHINGTON AV","New Haven","CT",""
19613,"673 WASHINGTON AV","New Haven","CT",""
19614,"677 WASHINGTON AV","New Haven","CT",""
19615,"683 WASHINGTON AV","New Haven","CT",""
19616,"689 WASHINGTON AV","New Haven","CT",""
19617,"157 MORRIS ST","New Haven","CT",""
19618,"163 MORRIS ST","New Haven","CT",""
19619,"92 TRUMAN ST","New Haven","CT",""
19620,"88 TRUMAN ST","New Haven","CT",""
19621,"86 TRUMAN ST","New Haven","CT",""
19622,"82 TRUMAN ST","New Haven","CT",""
19623,"78 TRUMAN ST","New Haven","CT",""
19624,"20 CLOVER PL","New Haven","CT",""
19625,"62 BARCLAY ST","New Haven","CT",""
19626,"66 BARCLAY ST","New Haven","CT",""
19627,"68 BARCLAY ST","New Haven","CT",""
19628,"439 ELLA T GRASSO BLVD","New Haven","CT",""
19629,"155 TRUMAN ST","New Haven","CT",""
19630,"240 FRANK ST","New Haven","CT",""
19631,"154 FRANK ST","New Haven","CT",""
19632,"71 TRUMAN ST","New Haven","CT",""
19633,"75 TRUMAN ST","New Haven","CT",""
19634,"77 TRUMAN ST","New Haven","CT",""
19635,"81 TRUMAN ST","New Haven","CT",""
19636,"85 TRUMAN ST","New Haven","CT",""
19637,"87 TRUMAN ST","New Haven","CT",""
19638,"TRUMAN ST","New Haven","CT",""
19639,"95 TRUMAN ST","New Haven","CT",""
19640,"99 TRUMAN ST","New Haven","CT",""
19641,"103 TRUMAN ST","New Haven","CT",""
19642,"109 TRUMAN ST","New Haven","CT",""
19643,"111 TRUMAN ST","New Haven","CT",""
19644,"113 TRUMAN ST","New Haven","CT",""
19645,"117 TRUMAN ST","New Haven","CT",""
19646,"121 TRUMAN ST","New Haven","CT",""
19647,"125 TRUMAN ST","New Haven","CT",""
19648,"129 TRUMAN ST","New Haven","CT",""
19649,"198 FRANK ST","New Haven","CT",""
19650,"196 FRANK ST","New Haven","CT",""
19651,"194 FRANK ST","New Haven","CT",""
19652,"192 FRANK ST","New Haven","CT",""
19653,"188 FRANK ST","New Haven","CT",""
19654,"184 FRANK ST","New Haven","CT",""
19655,"176 FRANK ST","New Haven","CT",""
19656,"174 FRANK ST","New Haven","CT",""
19657,"170 FRANK ST","New Haven","CT",""
19658,"168 FRANK ST","New Haven","CT",""
19659,"164 FRANK ST","New Haven","CT",""
19660,"162 FRANK ST","New Haven","CT",""
19661,"160 FRANK ST","New Haven","CT",""
19662,"158 FRANK ST","New Haven","CT",""
19663,"156 FRANK ST","New Haven","CT",""
19664,"88 BARCLAY ST","New Haven","CT",""
19665,"84 BARCLAY ST","New Haven","CT",""
19666,"80 BARCLAY ST #REAR","New Haven","CT",""
19667,"80 BARCLAY ST","New Haven","CT",""
19668,"465 ELLA T GRASSO BLVD","New Haven","CT",""
19669,"475 ELLA T GRASSO BLVD","New Haven","CT",""
19670,"150 ADELINE ST","New Haven","CT",""
19671,"60 ADELINE ST","New Haven","CT",""
19672,"117 FRANK ST","New Haven","CT",""
19673,"123 FRANK ST","New Haven","CT",""
19674,"131 FRANK ST","New Haven","CT",""
19675,"137 FRANK ST","New Haven","CT",""
19676,"139 FRANK ST","New Haven","CT",""
19677,"141 FRANK ST","New Haven","CT",""
19678,"143 FRANK ST","New Haven","CT",""
19679,"147 FRANK ST","New Haven","CT",""
19680,"159 FRANK ST","New Haven","CT",""
19681,"165 FRANK ST","New Haven","CT",""
19682,"169 FRANK ST","New Haven","CT",""
19683,"171 FRANK ST","New Haven","CT",""
19684,"173 FRANK ST","New Haven","CT",""
19685,"175 FRANK ST","New Haven","CT",""
19686,"181 FRANK ST","New Haven","CT",""
19687,"183 FRANK ST","New Haven","CT",""
19688,"187 FRANK ST","New Haven","CT",""
19689,"191 FRANK ST","New Haven","CT",""
19690,"193 FRANK ST","New Haven","CT",""
19691,"69 BARCLAY ST","New Haven","CT",""
19692,"77 BARCLAY ST","New Haven","CT",""
19693,"81 BARCLAY ST","New Haven","CT",""
19694,NA,"New Haven","CT",""
19695,"134 ADELINE ST","New Haven","CT",""
19696,NA,"New Haven","CT",""
19697,NA,"New Haven","CT",""
19698,"130 ADELINE ST","New Haven","CT",""
19699,NA,"New Haven","CT",""
19700,"124 ADELINE ST","New Haven","CT",""
19701,"120 ADELINE ST","New Haven","CT",""
19702,"118 ADELINE ST","New Haven","CT",""
19703,"114 ADELINE ST","New Haven","CT",""
19704,"112 ADELINE ST","New Haven","CT",""
19705,"108 ADELINE ST","New Haven","CT",""
19706,"102 ADELINE ST","New Haven","CT",""
19707,"98 ADELINE ST","New Haven","CT",""
19708,"96 ADELINE ST","New Haven","CT",""
19709,"90 ADELINE ST","New Haven","CT",""
19710,"86 ADELINE ST","New Haven","CT",""
19711,"80 ADELINE ST","New Haven","CT",""
19712,"78 ADELINE ST","New Haven","CT",""
19713,"74 ADELINE ST","New Haven","CT",""
19714,"72 ADELINE ST","New Haven","CT",""
19715,"70 ADELINE ST","New Haven","CT",""
19716,"66 ADELINE ST","New Haven","CT",""
19717,"62 ADELINE ST","New Haven","CT",""
19718,"50 EDDY ST","New Haven","CT",""
19719,"61 ADELINE ST","New Haven","CT",""
19720,"67 ADELINE ST","New Haven","CT",""
19721,"77 ADELINE ST","New Haven","CT",""
19722,"81 ADELINE ST","New Haven","CT",""
19723,"85 ADELINE ST","New Haven","CT",""
19724,"91 ADELINE ST","New Haven","CT",""
19725,"95 ADELINE ST","New Haven","CT",""
19726,"99 ADELINE ST","New Haven","CT",""
19727,"103 ADELINE ST","New Haven","CT",""
19728,"109 ADELINE ST","New Haven","CT",""
19729,"113 ADELINE ST","New Haven","CT",""
19730,"113 ADELINE ST #REAR","New Haven","CT",""
19731,"119 ADELINE ST","New Haven","CT",""
19732,"121 ADELINE ST","New Haven","CT",""
19733,"125 ADELINE ST","New Haven","CT",""
19734,"127 ADELINE ST","New Haven","CT",""
19735,"133 ADELINE ST","New Haven","CT",""
19736,"135 ADELINE ST","New Haven","CT",""
19737,"105 BARCLAY ST","New Haven","CT",""
19738,"109 BARCLAY ST","New Haven","CT",""
19739,"100 BARCLAY ST","New Haven","CT",""
19740,"96 BARCLAY ST","New Haven","CT",""
19741,"145 ADELINE ST","New Haven","CT",""
19742,"155 ADELINE ST","New Haven","CT",""
19743,"525 ELLA T GRASSO BLVD","New Haven","CT",""
19744,"808 WASHINGTON AV","New Haven","CT",""
19745,"WASHINGTON AV","New Haven","CT",""
19746,"203 LAMBERTON ST","New Haven","CT",""
19747,"205 LAMBERTON ST","New Haven","CT",""
19748,"215 LAMBERTON ST","New Haven","CT",""
19749,"ELLA T GRASSO BLVD","New Haven","CT",""
19750,"396 ELLA T GRASSO BLVD","New Haven","CT",""
19751,"ELLA T GRASSO BLVD","New Haven","CT",""
19752,"WASHINGTON AV","New Haven","CT",""
19753,"540 ELLA T GRASSO BLVD","New Haven","CT",""
19754,"ELLA T GRASSO BLVD","New Haven","CT",""
19755,"ELLA T GRASSO BLVD","New Haven","CT",""
19756,"500 ELLA T GRASSO BLVD","New Haven","CT",""
19757,"468 ELLA T GRASSO BLVD","New Haven","CT",""
19758,"440 ELLA T GRASSO BLVD","New Haven","CT",""
19759,"ELLA T GRASSO BLVD","New Haven","CT",""
19760,"ELLA T GRASSO BLVD","New Haven","CT",""
19761,"WASHINGTON AV","New Haven","CT",""
19762,"220 TERMINAL PL","New Haven","CT",""
19763,"PRINTERS LA","New Haven","CT",""
19764,"PRINTERS LA","New Haven","CT",""
19765,"TERMINAL PL","New Haven","CT",""
19766,"30 PRINTERS LA","New Haven","CT",""
19767,"PRINTERS LA","New Haven","CT",""
19768,"60 PRINTERS LA","New Haven","CT",""
19769,"ORANGE AV","New Haven","CT",""
19770,"30 ORANGE AV","New Haven","CT",""
19771,"690 ELLA T GRASSO BLVD","New Haven","CT",""
19772,"10 ORANGE AV","New Haven","CT",""
19773,"670 ELLA T GRASSO BLVD","New Haven","CT",""
19774,"650 ELLA T GRASSO BLVD","New Haven","CT",""
19775,"41 LONGHINI LA","New Haven","CT",""
19776,"47 LONGHINI LA","New Haven","CT",""
19777,"51 LONGHINI LA","New Haven","CT",""
19778,"TERMINAL PL","New Haven","CT",""
19779,"592 ELLA T GRASSO BLVD","New Haven","CT",""
19780,"586 ELLA T GRASSO BLVD","New Haven","CT",""
19781,"630 ELLA T GRASSO BLVD","New Haven","CT",""
19782,"624 ELLA T GRASSO BLVD","New Haven","CT",""
19783,"620 ELLA T GRASSO BLVD","New Haven","CT",""
19784,"610 ELLA T GRASSO BLVD","New Haven","CT",""
19785,"604 ELLA T GRASSO BLVD","New Haven","CT",""
19786,"29 TERMINAL PL","New Haven","CT",""
19787,"199 TERMINAL PL","New Haven","CT",""
19788,"209 TERMINAL PL","New Haven","CT",""
19789,"219 TERMINAL PL","New Haven","CT",""
19790,"299 TERMINAL PL","New Haven","CT",""
19791,"COLUMBUS AV","New Haven","CT",""
19792,"EDDY ST","New Haven","CT",""
19793,"516 COLUMBUS AV","New Haven","CT",""
19794,"CONGRESS AV","New Haven","CT",""
19795,"914 CONGRESS AV","New Haven","CT",""
19796,"910 CONGRESS AV","New Haven","CT",""
19797,"906 CONGRESS AV","New Haven","CT",""
19798,"900 CONGRESS AV","New Haven","CT",""
19799,"896 CONGRESS AV","New Haven","CT",""
19800,"892 CONGRESS AV","New Haven","CT",""
19801,"890 CONGRESS AV","New Haven","CT",""
19802,"886 CONGRESS AV","New Haven","CT",""
19803,NA,"New Haven","CT",""
19804,"880 CONGRESS AV","New Haven","CT",""
19805,"878 CONGRESS AV","New Haven","CT",""
19806,"874 CONGRESS AV","New Haven","CT",""
19807,"870 CONGRESS AV","New Haven","CT",""
19808,"866 CONGRESS AV","New Haven","CT",""
19809,"864 CONGRESS AV","New Haven","CT",""
19810,"862 CONGRESS AV","New Haven","CT",""
19811,"856 CONGRESS AV","New Haven","CT",""
19812,"26 DOWNES ST","New Haven","CT",""
19813,"24 DOWNES ST","New Haven","CT",""
19814,"20 DOWNES ST","New Haven","CT",""
19815,"16 DOWNES ST","New Haven","CT",""
19816,"4 DOWNES ST","New Haven","CT",""
19817,"541 COLUMBUS AV","New Haven","CT",""
19818,"547 COLUMBUS AV","New Haven","CT",""
19819,"551 COLUMBUS AV","New Haven","CT",""
19820,"563 COLUMBUS AV","New Haven","CT",""
19821,"565 COLUMBUS AV","New Haven","CT",""
19822,"569 COLUMBUS AV","New Haven","CT",""
19823,"573 COLUMBUS AV","New Haven","CT",""
19824,"575 COLUMBUS AV","New Haven","CT",""
19825,"583 COLUMBUS AV","New Haven","CT",""
19826,"585 COLUMBUS AV","New Haven","CT",""
19827,"593 COLUMBUS AV","New Haven","CT",""
19828,"595 COLUMBUS AV","New Haven","CT",""
19829,"848 CONGRESS AV","New Haven","CT",""
19830,"25 DOWNES ST","New Haven","CT",""
19831,"846 CONGRESS AV","New Haven","CT",""
19832,"842 CONGRESS AV","New Haven","CT",""
19833,"840 CONGRESS AV","New Haven","CT",""
19834,"836 CONGRESS AV","New Haven","CT",""
19835,"834 CONGRESS AV","New Haven","CT",""
19836,"826 CONGRESS AV","New Haven","CT",""
19837,"28 BOND ST","New Haven","CT",""
19838,"24 BOND ST","New Haven","CT",""
19839,"20 BOND ST","New Haven","CT",""
19840,"18 BOND ST","New Haven","CT",""
19841,"14 BOND ST","New Haven","CT",""
19842,"513 COLUMBUS AV","New Haven","CT",""
19843,"517 COLUMBUS AV","New Haven","CT",""
19844,"519 COLUMBUS AV","New Haven","CT",""
19845,"521 COLUMBUS AV","New Haven","CT",""
19846,"523 COLUMBUS AV","New Haven","CT",""
19847,"525 COLUMBUS AV","New Haven","CT",""
19848,"535 COLUMBUS AV","New Haven","CT",""
19849,"5 DOWNES ST","New Haven","CT",""
19850,"15 DOWNES ST","New Haven","CT",""
19851,"19 DOWNES ST","New Haven","CT",""
19852,"21 DOWNES ST","New Haven","CT",""
19853,"800 CONGRESS AV","New Haven","CT",""
19854,"158 WEST ST","New Haven","CT",""
19855,"162 WEST ST","New Haven","CT",""
19856,"156 WEST ST","New Haven","CT",""
19857,"150 WEST ST","New Haven","CT",""
19858,"140 WEST ST","New Haven","CT",""
19859,"5 WEST LA","New Haven","CT",""
19860,"487 COLUMBUS AV","New Haven","CT",""
19861,"WEST LA","New Haven","CT",""
19862,"499 COLUMBUS AV","New Haven","CT",""
19863,"418 DAVENPORT AV","New Haven","CT",""
19864,"907 CONGRESS AV","New Haven","CT",""
19865,"410 DAVENPORT AV","New Haven","CT",""
19866,"408 DAVENPORT AV","New Haven","CT",""
19867,"394 DAVENPORT AV","New Haven","CT",""
19868,"384 DAVENPORT AV","New Haven","CT",""
19869,"380 DAVENPORT AV","New Haven","CT",""
19870,"370 DAVENPORT AV","New Haven","CT",""
19871,"354 DAVENPORT AV","New Haven","CT",""
19872,"348 DAVENPORT AV","New Haven","CT",""
19873,"326 DAVENPORT AV","New Haven","CT",""
19874,"322 DAVENPORT AV","New Haven","CT",""
19875,"320 DAVENPORT AV","New Haven","CT",""
19876,"316 DAVENPORT AV","New Haven","CT",""
19877,"312 DAVENPORT AV","New Haven","CT",""
19878,"306 DAVENPORT AV","New Haven","CT",""
19879,"218 WEST ST","New Haven","CT",""
19880,"214 WEST ST","New Haven","CT",""
19881,"212 WEST ST","New Haven","CT",""
19882,"210 WEST ST","New Haven","CT",""
19883,"817 CONGRESS AV","New Haven","CT",""
19884,"827 CONGRESS AV","New Haven","CT",""
19885,"829 CONGRESS AV","New Haven","CT",""
19886,"833 CONGRESS AV","New Haven","CT",""
19887,"837 CONGRESS AV","New Haven","CT",""
19888,"843 CONGRESS AV","New Haven","CT",""
19889,NA,"New Haven","CT",""
19890,"849 CONGRESS AV","New Haven","CT",""
19891,"855 CONGRESS AV","New Haven","CT",""
19892,"859 CONGRESS AV","New Haven","CT",""
19893,"865 CONGRESS AV","New Haven","CT",""
19894,"879 CONGRESS AV","New Haven","CT",""
19895,"885 CONGRESS AV","New Haven","CT",""
19896,"889 CONGRESS AV","New Haven","CT",""
19897,"893 CONGRESS AV","New Haven","CT",""
19898,"897 CONGRESS AV","New Haven","CT",""
19899,"903 CONGRESS AV","New Haven","CT",""
19900,"200 DERBY AV","New Haven","CT",""
19901,NA,"New Haven","CT",""
19902,NA,"New Haven","CT",""
19903,NA,"New Haven","CT",""
19904,"66 STEVENS ST","New Haven","CT",""
19905,"64 STEVENS ST","New Haven","CT",""
19906,"62 STEVENS ST","New Haven","CT",""
19907,"60 STEVENS ST","New Haven","CT",""
19908,"58 STEVENS ST","New Haven","CT",""
19909,"56 STEVENS ST","New Haven","CT",""
19910,"54 STEVENS ST","New Haven","CT",""
19911,"52 STEVENS ST","New Haven","CT",""
19912,"50 STEVENS ST","New Haven","CT",""
19913,"48 STEVENS ST","New Haven","CT",""
19914,"46 STEVENS ST","New Haven","CT",""
19915,"44 STEVENS ST","New Haven","CT",""
19916,"42 STEVENS ST","New Haven","CT",""
19917,"40 STEVENS ST","New Haven","CT",""
19918,"38 STEVENS ST","New Haven","CT",""
19919,"36 STEVENS ST","New Haven","CT",""
19920,"34 STEVENS ST","New Haven","CT",""
19921,"32 STEVENS ST","New Haven","CT",""
19922,"30 STEVENS ST","New Haven","CT",""
19923,"28 STEVENS ST","New Haven","CT",""
19924,"26 STEVENS ST","New Haven","CT",""
19925,"24 STEVENS ST","New Haven","CT",""
19926,"22 STEVENS ST","New Haven","CT",""
19927,"20 STEVENS ST","New Haven","CT",""
19928,"18 STEVENS ST","New Haven","CT",""
19929,"14 STEVENS ST","New Haven","CT",""
19930,"12 STEVENS ST","New Haven","CT",""
19931,"261 DAVENPORT AV","New Haven","CT",""
19932,"263 DAVENPORT AV","New Haven","CT",""
19933,"265 DAVENPORT AV","New Haven","CT",""
19934,"267 DAVENPORT AV","New Haven","CT",""
19935,"269 DAVENPORT AV","New Haven","CT",""
19936,"271 DAVENPORT AV","New Haven","CT",""
19937,"277 DAVENPORT AV","New Haven","CT",""
19938,"279 DAVENPORT AV","New Haven","CT",""
19939,"281 DAVENPORT AV","New Haven","CT",""
19940,"9 WINTHROP AV","New Haven","CT",""
19941,"11 WINTHROP AV","New Haven","CT",""
19942,"13 WINTHROP AV","New Haven","CT",""
19943,"15 WINTHROP AV","New Haven","CT",""
19944,"17 WINTHROP AV","New Haven","CT",""
19945,"19 WINTHROP AV","New Haven","CT",""
19946,"21 WINTHROP AV","New Haven","CT",""
19947,"23 WINTHROP AV","New Haven","CT",""
19948,"25 WINTHROP AV","New Haven","CT",""
19949,"27 WINTHROP AV","New Haven","CT",""
19950,"29 WINTHROP AV","New Haven","CT",""
19951,"33 WINTHROP AV","New Haven","CT",""
19952,"35 WINTHROP AV","New Haven","CT",""
19953,"37 WINTHROP AV","New Haven","CT",""
19954,"39 WINTHROP AV","New Haven","CT",""
19955,"41 WINTHROP AV","New Haven","CT",""
19956,"43 WINTHROP AV","New Haven","CT",""
19957,"45 WINTHROP AV","New Haven","CT",""
19958,"47 WINTHROP AV","New Haven","CT",""
19959,"49 WINTHROP AV","New Haven","CT",""
19960,"51 WINTHROP AV","New Haven","CT",""
19961,"53 WINTHROP AV","New Haven","CT",""
19962,"55 WINTHROP AV","New Haven","CT",""
19963,"57 WINTHROP AV","New Haven","CT",""
19964,"59 WINTHROP AV","New Haven","CT",""
19965,"61 WINTHROP AV","New Haven","CT",""
19966,"63 WINTHROP AV","New Haven","CT",""
19967,"65 WINTHROP AV","New Haven","CT",""
19968,"67 WINTHROP AV","New Haven","CT",""
19969,"69 WINTHROP AV","New Haven","CT",""
19970,"71 WINTHROP AV","New Haven","CT",""
19971,"75 WINTHROP AV","New Haven","CT",""
19972,"77 WINTHROP AV","New Haven","CT",""
19973,"79 WINTHROP AV","New Haven","CT",""
19974,"81 WINTHROP AV","New Haven","CT",""
19975,"83 WINTHROP AV","New Haven","CT",""
19976,"148 SYLVAN AV","New Haven","CT",""
19977,"142 SYLVAN AV","New Haven","CT",""
19978,"138 SYLVAN AV","New Haven","CT",""
19979,NA,"New Haven","CT",""
19980,"92 WINTHROP AV","New Haven","CT",""
19981,"899 ELLA T GRASSO BLVD","New Haven","CT",""
19982,"2 AUBURN ST","New Haven","CT",""
19983,"109 WINTHROP AV","New Haven","CT",""
19984,"123 WINTHROP AV","New Haven","CT",""
19985,"125 WINTHROP AV","New Haven","CT",""
19986,"127 WINTHROP AV","New Haven","CT",""
19987,"129 WINTHROP AV","New Haven","CT",""
19988,"133 WINTHROP AV","New Haven","CT",""
19989,"135 WINTHROP AV","New Haven","CT",""
19990,"139 WINTHROP AV","New Haven","CT",""
19991,"1 SHERMAN AV","New Haven","CT",""
19992,"SHERMAN AV","New Haven","CT",""
19993,"3 SHERMAN AV","New Haven","CT",""
19994,"476 LEGION AV","New Haven","CT",""
19995,"466 LEGION AV","New Haven","CT",""
19996,NA,"New Haven","CT",""
19997,"442 LEGION AV","New Haven","CT",""
19998,"56 AUBURN ST","New Haven","CT",""
19999,"46 AUBURN ST","New Haven","CT",""
20000,"44 AUBURN ST","New Haven","CT",""
