"pid","location","city","state","zip"
25001,"1083 WHALLEY AV","New Haven","CT",""
25002,"1089 WHALLEY AV","New Haven","CT",""
25003,"1097 WHALLEY AV","New Haven","CT",""
25004,"1101 WHALLEY AV","New Haven","CT",""
25005,"1155 WHALLEY AV","New Haven","CT",""
25006,"WHALLEY AV","New Haven","CT",""
25007,"210 VALLEY ST","New Haven","CT",""
25008,"1159 WHALLEY AV","New Haven","CT",""
25009,"1175 WHALLEY AV","New Haven","CT",""
25010,"1185 WHALLEY AV","New Haven","CT",""
25011,"1201 WHALLEY AV","New Haven","CT",""
25012,"199 VALLEY ST","New Haven","CT",""
25013,"195 VALLEY ST","New Haven","CT",""
25014,"191 VALLEY ST","New Haven","CT",""
25015,"185 VALLEY ST","New Haven","CT",""
25016,"177 VALLEY ST","New Haven","CT",""
25017,"173 VALLEY ST","New Haven","CT",""
25018,"169 VALLEY ST","New Haven","CT",""
25019,"263 FOUNTAIN ST","New Haven","CT",""
25020,"15 DAYTON ST","New Haven","CT",""
25021,"19 DAYTON ST","New Haven","CT",""
25022,"27 DAYTON ST","New Haven","CT",""
25023,"35 DAYTON ST","New Haven","CT",""
25024,NA,"New Haven","CT",""
25025,NA,"New Haven","CT",""
25026,NA,"New Haven","CT",""
25027,"1150 WHALLEY AV","New Haven","CT",""
25028,NA,"New Haven","CT",""
25029,NA,"New Haven","CT",""
25030,NA,"New Haven","CT",""
25031,NA,"New Haven","CT",""
25032,NA,"New Haven","CT",""
25033,"1116 WHALLEY AV","New Haven","CT",""
25034,"1112 WHALLEY AV","New Haven","CT",""
25035,"WHALLEY AV","New Haven","CT",""
25036,"1094 WHALLEY AV","New Haven","CT",""
25037,"1086 WHALLEY AV","New Haven","CT",""
25038,"1076 WHALLEY AV","New Haven","CT",""
25039,"1070 WHALLEY AV","New Haven","CT",""
25040,"64 EMERSON ST","New Haven","CT",""
25041,"60 EMERSON ST","New Haven","CT",""
25042,"56 EMERSON ST","New Haven","CT",""
25043,"52 EMERSON ST","New Haven","CT",""
25044,"48 EMERSON ST","New Haven","CT",""
25045,"46 EMERSON ST","New Haven","CT",""
25046,"42 EMERSON ST","New Haven","CT",""
25047,"38 EMERSON ST","New Haven","CT",""
25048,"34 EMERSON ST","New Haven","CT",""
25049,"191 FOUNTAIN ST","New Haven","CT",""
25050,"211 FOUNTAIN ST","New Haven","CT",""
25051,"225 FOUNTAIN ST","New Haven","CT",""
25052,"227 FOUNTAIN ST","New Haven","CT",""
25053,"231 FOUNTAIN ST","New Haven","CT",""
25054,"235 FOUNTAIN ST","New Haven","CT",""
25055,"243 FOUNTAIN ST","New Haven","CT",""
25056,NA,"New Haven","CT",""
25057,"251 FOUNTAIN ST","New Haven","CT",""
25058,"257 FOUNTAIN ST","New Haven","CT",""
25059,"79 VISTA TER","New Haven","CT",""
25060,"85 VISTA TER","New Haven","CT",""
25061,"93 VISTA TER","New Haven","CT",""
25062,"101 VISTA TER","New Haven","CT",""
25063,"107 VISTA TER","New Haven","CT",""
25064,"115 VISTA TER","New Haven","CT",""
25065,"119 VISTA TER","New Haven","CT",""
25066,"125 VISTA TER","New Haven","CT",""
25067,"133 VISTA TER","New Haven","CT",""
25068,"139 VISTA TER","New Haven","CT",""
25069,"143 VISTA TER","New Haven","CT",""
25070,"147 VISTA TER","New Haven","CT",""
25071,"151 VISTA TER","New Haven","CT",""
25072,"157 VISTA TER","New Haven","CT",""
25073,"280 FOUNTAIN ST","New Haven","CT",""
25074,"272 FOUNTAIN ST","New Haven","CT",""
25075,"264 FOUNTAIN ST","New Haven","CT",""
25076,"1274 FOREST RD","New Haven","CT",""
25077,"1270 FOREST RD","New Haven","CT",""
25078,"1266 FOREST RD","New Haven","CT",""
25079,"1262 FOREST RD","New Haven","CT",""
25080,"1246 FOREST RD","New Haven","CT",""
25081,"1244 FOREST RD","New Haven","CT",""
25082,"1238 FOREST RD","New Haven","CT",""
25083,"1232 FOREST RD","New Haven","CT",""
25084,"1226 FOREST RD","New Haven","CT",""
25085,"1224 FOREST RD","New Haven","CT",""
25086,"1218 FOREST RD","New Haven","CT",""
25087,"1210 FOREST RD","New Haven","CT",""
25088,"1206 FOREST RD","New Haven","CT",""
25089,"1202 FOREST RD","New Haven","CT",""
25090,"1196 FOREST RD","New Haven","CT",""
25091,"293 WEST ELM ST","New Haven","CT",""
25092,"1205 FOREST RD","New Haven","CT",""
25093,"265 WEST ELM ST #1","New Haven","CT",""
25094,"1217 FOREST RD #2","New Haven","CT",""
25095,"1219 FOREST RD #3","New Haven","CT",""
25096,"1221 FOREST RD #4","New Haven","CT",""
25097,"1223 FOREST RD #5","New Haven","CT",""
25098,"1215 FOREST RD #6","New Haven","CT",""
25099,"1213 FOREST RD #7","New Haven","CT",""
25100,"1225 FOREST RD #8","New Haven","CT",""
25101,"1227 FOREST RD #9","New Haven","CT",""
25102,"1211 FOREST RD #10","New Haven","CT",""
25103,"1229 FOREST RD","New Haven","CT",""
25104,"1235 FOREST RD","New Haven","CT",""
25105,"1239 FOREST RD","New Haven","CT",""
25106,"196 WILLARD ST","New Haven","CT",""
25107,"190 WILLARD ST","New Haven","CT",""
25108,"186 WILLARD ST","New Haven","CT",""
25109,"182 WILLARD ST","New Haven","CT",""
25110,"176 WILLARD ST","New Haven","CT",""
25111,"174 WILLARD ST","New Haven","CT",""
25112,"168 WILLARD ST","New Haven","CT",""
25113,"162 WILLARD ST","New Haven","CT",""
25114,"156 WILLARD ST","New Haven","CT",""
25115,"152 WILLARD ST","New Haven","CT",""
25116,"140 WILLARD ST","New Haven","CT",""
25117,"50 BARNETT ST","New Haven","CT",""
25118,"44 BARNETT ST","New Haven","CT",""
25119,"38 BARNETT ST","New Haven","CT",""
25120,"26 BARNETT ST","New Haven","CT",""
25121,"22 BARNETT ST","New Haven","CT",""
25122,"12 BARNETT ST","New Haven","CT",""
25123,"6 BARNETT ST","New Haven","CT",""
25124,"2 BARNETT ST","New Haven","CT",""
25125,"235 WEST ELM ST","New Haven","CT",""
25126,"241 WEST ELM ST","New Haven","CT",""
25127,"253 WEST ELM ST","New Haven","CT",""
25128,"259 WEST ELM ST","New Haven","CT",""
25129,"275 WEST ELM ST","New Haven","CT",""
25130,"281 WEST ELM ST","New Haven","CT",""
25131,"287 WEST ELM ST","New Haven","CT",""
25132,"3 BARNETT ST","New Haven","CT",""
25133,"11 BARNETT ST","New Haven","CT",""
25134,"13 BARNETT ST","New Haven","CT",""
25135,"19 BARNETT ST","New Haven","CT",""
25136,"31 BARNETT ST","New Haven","CT",""
25137,"37 BARNETT ST","New Haven","CT",""
25138,"43 BARNETT ST","New Haven","CT",""
25139,"132 WILLARD ST","New Haven","CT",""
25140,"126 WILLARD ST","New Haven","CT",""
25141,"120 WILLARD ST","New Haven","CT",""
25142,"310 MCKINLEY AV","New Haven","CT",""
25143,"300 MCKINLEY AV","New Haven","CT",""
25144,"296 MCKINLEY AV","New Haven","CT",""
25145,"290 MCKINLEY AV","New Haven","CT",""
25146,"288 MCKINLEY AV","New Haven","CT",""
25147,"280 MCKINLEY AV","New Haven","CT",""
25148,"270 MCKINLEY AV","New Haven","CT",""
25149,"256 MCKINLEY AV","New Haven","CT",""
25150,"209 WILLARD ST","New Haven","CT",""
25151,"1253 FOREST RD","New Haven","CT",""
25152,"1259 FOREST RD","New Haven","CT",""
25153,"1267 FOREST RD","New Haven","CT",""
25154,"1269 FOREST RD","New Haven","CT",""
25155,"1275 FOREST RD","New Haven","CT",""
25156,"250 FOUNTAIN ST","New Haven","CT",""
25157,"240 FOUNTAIN ST","New Haven","CT",""
25158,"234 FOUNTAIN ST","New Haven","CT",""
25159,"226 FOUNTAIN ST","New Haven","CT",""
25160,"216 FOUNTAIN ST","New Haven","CT",""
25161,"200 FOUNTAIN ST","New Haven","CT",""
25162,"194 FOUNTAIN ST","New Haven","CT",""
25163,"188 FOUNTAIN ST","New Haven","CT",""
25164,"184 FOUNTAIN ST","New Haven","CT",""
25165,"180 FOUNTAIN ST","New Haven","CT",""
25166,"172 FOUNTAIN ST","New Haven","CT",""
25167,"102 BARNETT ST","New Haven","CT",""
25168,"96 BARNETT ST","New Haven","CT",""
25169,"92 BARNETT ST","New Haven","CT",""
25170,"88 BARNETT ST","New Haven","CT",""
25171,"80 BARNETT ST","New Haven","CT",""
25172,"72 BARNETT ST","New Haven","CT",""
25173,"BARNETT ST","New Haven","CT",""
25174,"BARNETT ST","New Haven","CT",""
25175,"66 BARNETT ST","New Haven","CT",""
25176,"157 WILLARD ST","New Haven","CT",""
25177,"161 WILLARD ST","New Haven","CT",""
25178,"167 WILLARD ST","New Haven","CT",""
25179,"177 WILLARD ST","New Haven","CT",""
25180,"181 WILLARD ST","New Haven","CT",""
25181,"187 WILLARD ST","New Haven","CT",""
25182,"191 WILLARD ST","New Haven","CT",""
25183,"195 WILLARD ST","New Haven","CT",""
25184,"197 WILLARD ST","New Haven","CT",""
25185,"203 WILLARD ST","New Haven","CT",""
25186,"63 BARNETT ST","New Haven","CT",""
25187,"67 BARNETT ST","New Haven","CT",""
25188,"71 BARNETT ST","New Haven","CT",""
25189,"77 BARNETT ST","New Haven","CT",""
25190,"81 BARNETT ST","New Haven","CT",""
25191,"87 BARNETT ST","New Haven","CT",""
25192,"91 BARNETT ST","New Haven","CT",""
25193,"95 BARNETT ST","New Haven","CT",""
25194,"101 BARNETT ST","New Haven","CT",""
25195,"154 FOUNTAIN ST","New Haven","CT",""
25196,"380 MCKINLEY AV","New Haven","CT",""
25197,"374 MCKINLEY AV","New Haven","CT",""
25198,"370 MCKINLEY AV","New Haven","CT",""
25199,"352 MCKINLEY AV","New Haven","CT",""
25200,"348 MCKINLEY AV","New Haven","CT",""
25201,"340 MCKINLEY AV","New Haven","CT",""
25202,"334 MCKINLEY AV","New Haven","CT",""
25203,"326 MCKINLEY AV","New Haven","CT",""
25204,"8 WOODSIDE TER","New Haven","CT",""
25205,"20 WOODSIDE TER","New Haven","CT",""
25206,"34 WOODSIDE TER","New Haven","CT",""
25207,"50 WOODSIDE TER","New Haven","CT",""
25208,"64 WOODSIDE TER","New Haven","CT",""
25209,"80 WOODSIDE TER","New Haven","CT",""
25210,"102 WOODSIDE TER","New Haven","CT",""
25211,"1041 FOREST RD","New Haven","CT",""
25212,"5 WOODSIDE TER","New Haven","CT",""
25213,"25 WOODSIDE TER","New Haven","CT",""
25214,"35 WOODSIDE TER","New Haven","CT",""
25215,"63 WOODSIDE TER","New Haven","CT",""
25216,"73 WOODSIDE TER","New Haven","CT",""
25217,"85 WOODSIDE TER","New Haven","CT",""
25218,"105 WOODSIDE TER","New Haven","CT",""
25219,"102 WOODBRIDGE AV","New Haven","CT",""
25220,"98 WOODBRIDGE AV","New Haven","CT",""
25221,"92 WOODBRIDGE AV","New Haven","CT",""
25222,"188 ALSTON AV","New Haven","CT",""
25223,"172 ALSTON AV","New Haven","CT",""
25224,"166 ALSTON AV","New Haven","CT",""
25225,"160 ALSTON AV","New Haven","CT",""
25226,"154 ALSTON AV","New Haven","CT",""
25227,"140 ALSTON AV","New Haven","CT",""
25228,"120 ALSTON AV","New Haven","CT",""
25229,"1125 FOREST RD","New Haven","CT",""
25230,"1135 FOREST RD","New Haven","CT",""
25231,"1141 FOREST RD","New Haven","CT",""
25232,"45 RICHMOND AV","New Haven","CT",""
25233,"40 RICHMOND AV","New Haven","CT",""
25234,"36 RICHMOND AV","New Haven","CT",""
25235,"22 COLONIAL PL","New Haven","CT",""
25236,"16 COLONIAL PL","New Haven","CT",""
25237,"99 WOODBRIDGE AV","New Haven","CT",""
25238,"105 WOODBRIDGE AV","New Haven","CT",""
25239,"109 WOODBRIDGE AV","New Haven","CT",""
25240,"115 WOODBRIDGE AV","New Haven","CT",""
25241,"87 WOODBRIDGE AV","New Haven","CT",""
25242,"15 COLONIAL PL","New Haven","CT",""
25243,"21 COLONIAL PL","New Haven","CT",""
25244,"210 ALSTON AV","New Haven","CT",""
25245,"200 ALSTON AV","New Haven","CT",""
25246,"81 WOODBRIDGE AV","New Haven","CT",""
25247,"1155 FOREST RD","New Haven","CT",""
25248,"1165 FOREST RD","New Haven","CT",""
25249,"FOREST RD","New Haven","CT",""
25250,"300 WEST ELM ST","New Haven","CT",""
25251,"284 WEST ELM ST","New Haven","CT",""
25252,"278 WEST ELM ST","New Haven","CT",""
25253,"272 WEST ELM ST","New Haven","CT",""
25254,"266 WEST ELM ST","New Haven","CT",""
25255,"262 WEST ELM ST","New Haven","CT",""
25256,"258 WEST ELM ST","New Haven","CT",""
25257,"252 WEST ELM ST","New Haven","CT",""
25258,"246 WEST ELM ST","New Haven","CT",""
25259,"242 WEST ELM ST","New Haven","CT",""
25260,"234 WEST ELM ST","New Haven","CT",""
25261,"230 WEST ELM ST","New Haven","CT",""
25262,"236 ALSTON AV","New Haven","CT",""
25263,"230 ALSTON AV","New Haven","CT",""
25264,"220 ALSTON AV","New Haven","CT",""
25265,"9 RICHMOND AV","New Haven","CT",""
25266,"15 RICHMOND AV","New Haven","CT",""
25267,"21 RICHMOND AV","New Haven","CT",""
25268,"25 RICHMOND AV","New Haven","CT",""
25269,"31 RICHMOND AV","New Haven","CT",""
25270,"35 RICHMOND AV","New Haven","CT",""
25271,"41 RICHMOND AV","New Haven","CT",""
25272,"15 EDGEWOOD #WY","New Haven","CT",""
25273,"41 EDGEWOOD #WY","New Haven","CT",""
25274,"49 EDGEWOOD #WY","New Haven","CT",""
25275,"71 EDGEWOOD #WY","New Haven","CT",""
25276,"79 EDGEWOOD #WY","New Haven","CT",""
25277,"95 EDGEWOOD #WY","New Haven","CT",""
25278,"1 VISTA TER","New Haven","CT",""
25279,"11 VISTA TER","New Haven","CT",""
25280,"15 VISTA TER","New Haven","CT",""
25281,"27 VISTA TER","New Haven","CT",""
25282,"35 VISTA TER","New Haven","CT",""
25283,"39 VISTA TER","New Haven","CT",""
25284,"47 VISTA TER","New Haven","CT",""
25285,"53 VISTA TER","New Haven","CT",""
25286,"57 VISTA TER","New Haven","CT",""
25287,"65 VISTA TER","New Haven","CT",""
25288,"71 VISTA TER","New Haven","CT",""
25289,"1190 FOREST RD","New Haven","CT",""
25290,"925 FOREST RD","New Haven","CT",""
25291,"951 FOREST RD","New Haven","CT",""
25292,"965 FOREST RD","New Haven","CT",""
25293,"987 FOREST RD","New Haven","CT",""
25294,"995 FOREST RD","New Haven","CT",""
25295,"999 FOREST RD","New Haven","CT",""
25296,"1031 FOREST RD","New Haven","CT",""
25297,"100 ALSTON AV","New Haven","CT",""
25298,"90 ALSTON AV","New Haven","CT",""
25299,"80 ALSTON AV","New Haven","CT",""
25300,"70 ALSTON AV","New Haven","CT",""
25301,"60 ALSTON AV","New Haven","CT",""
25302,"50 ALSTON AV","New Haven","CT",""
25303,"40 ALSTON AV","New Haven","CT",""
25304,"30 ALSTON AV","New Haven","CT",""
25305,"20 ALSTON AV","New Haven","CT",""
25306,"16 ALSTON AV","New Haven","CT",""
25307,"10 ALSTON AV","New Haven","CT",""
25308,"2135 CHAPEL ST","New Haven","CT",""
25309,"2141 CHAPEL ST","New Haven","CT",""
25310,"2151 CHAPEL ST","New Haven","CT",""
25311,"986 FOREST RD","New Haven","CT",""
25312,"FOREST RD","New Haven","CT",""
25313,"1020 FOREST RD","New Haven","CT",""
25314,"986 FOREST RD","New Haven","CT",""
25315,"154 KOHARY DR","New Haven","CT",""
25316,"140 KOHARY DR","New Haven","CT",""
25317,"126 KOHARY DR","New Haven","CT",""
25318,"116 KOHARY DR","New Haven","CT",""
25319,"106 KOHARY DR","New Haven","CT",""
25320,"96 KOHARY DR","New Haven","CT",""
25321,"86 KOHARY DR","New Haven","CT",""
25322,"KOHARY DR","New Haven","CT",""
25323,"200 KOHARY DR","New Haven","CT",""
25324,"190 KOHARY DR","New Haven","CT",""
25325,"180 KOHARY DR","New Haven","CT",""
25326,"415 STEVENSON RD","New Haven","CT",""
25327,"425 STEVENSON RD","New Haven","CT",""
25328,"435 STEVENSON RD","New Haven","CT",""
25329,"445 STEVENSON RD","New Haven","CT",""
25330,"455 STEVENSON RD","New Haven","CT",""
25331,"465 STEVENSON RD","New Haven","CT",""
25332,"475 STEVENSON RD","New Haven","CT",""
25333,"470 STEVENSON RD","New Haven","CT",""
25334,"460 STEVENSON RD","New Haven","CT",""
25335,"450 STEVENSON RD","New Haven","CT",""
25336,"446 STEVENSON RD","New Haven","CT",""
25337,"440 STEVENSON RD","New Haven","CT",""
25338,"430 STEVENSON RD","New Haven","CT",""
25339,"420 STEVENSON RD","New Haven","CT",""
25340,"410 STEVENSON RD","New Haven","CT",""
25341,"400 STEVENSON RD","New Haven","CT",""
25342,"390 STEVENSON RD","New Haven","CT",""
25343,"374 STEVENSON RD","New Haven","CT",""
25344,"370 STEVENSON RD","New Haven","CT",""
25345,"FOREST RD","New Haven","CT",""
25346,"FOREST RD","New Haven","CT",""
25347,"KOHARY DR","New Haven","CT",""
25348,"FOREST RD","New Haven","CT",""
25349,"FOREST RD","New Haven","CT",""
25350,"KOHARY DR","New Haven","CT",""
25351,NA,"New Haven","CT",""
25352,"270 KOHARY DR","New Haven","CT",""
25353,"260 KOHARY DR","New Haven","CT",""
25354,"250 KOHARY DR","New Haven","CT",""
25355,"240 KOHARY DR","New Haven","CT",""
25356,"230 KOHARY DR","New Haven","CT",""
25357,"220 KOHARY DR","New Haven","CT",""
25358,"210 KOHARY DR","New Haven","CT",""
25359,"375 STEVENSON RD","New Haven","CT",""
25360,"385 STEVENSON RD","New Haven","CT",""
25361,"395 STEVENSON RD","New Haven","CT",""
25362,"405 STEVENSON RD","New Haven","CT",""
25363,"FOREST RD","New Haven","CT",""
25364,"45 SPENCER PL","New Haven","CT",""
25365,"35 SPENCER PL","New Haven","CT",""
25366,"25 SPENCER PL","New Haven","CT",""
25367,"15 SPENCER PL","New Haven","CT",""
25368,"5 SPENCER PL","New Haven","CT",""
25369,"345 STEVENSON RD","New Haven","CT",""
25370,NA,"New Haven","CT",""
25371,"355 STEVENSON RD","New Haven","CT",""
25372,"365 STEVENSON RD","New Haven","CT",""
25373,"360 STEVENSON RD","New Haven","CT",""
25374,"180 WHITTIER RD","New Haven","CT",""
25375,"170 WHITTIER RD","New Haven","CT",""
25376,"86 BYRON PL","New Haven","CT",""
25377,"235 KOHARY DR","New Haven","CT",""
25378,"245 KOHARY DR","New Haven","CT",""
25379,"255 KOHARY DR","New Haven","CT",""
25380,"265 KOHARY DR","New Haven","CT",""
25381,"78 BYRON PL","New Haven","CT",""
25382,"200 WHITTIER RD","New Haven","CT",""
25383,"210 STEVENSON RD","New Haven","CT",""
25384,"161 WHITTIER RD","New Haven","CT",""
25385,"175 WHITTIER RD","New Haven","CT",""
25386,"185 WHITTIER RD","New Haven","CT",""
25387,"195 WHITTIER RD","New Haven","CT",""
25388,"207 WHITTIER RD","New Haven","CT",""
25389,"6 SPENCER PL","New Haven","CT",""
25390,"16 SPENCER PL","New Haven","CT",""
25391,"26 SPENCER PL","New Haven","CT",""
25392,"36 SPENCER PL","New Haven","CT",""
25393,"46 SPENCER PL","New Haven","CT",""
25394,"294 STEVENSON RD","New Haven","CT",""
25395,"284 STEVENSON RD","New Haven","CT",""
25396,"270 STEVENSON RD","New Haven","CT",""
25397,"262 STEVENSON RD","New Haven","CT",""
25398,"250 STEVENSON RD","New Haven","CT",""
25399,"240 STEVENSON RD","New Haven","CT",""
25400,"230 STEVENSON RD","New Haven","CT",""
25401,"220 STEVENSON RD","New Haven","CT",""
25402,"205 STEVENSON RD","New Haven","CT",""
25403,"215 STEVENSON RD","New Haven","CT",""
25404,"225 STEVENSON RD","New Haven","CT",""
25405,"235 STEVENSON RD","New Haven","CT",""
25406,"245 STEVENSON RD","New Haven","CT",""
25407,"257 STEVENSON RD","New Haven","CT",""
25408,"271 STEVENSON RD","New Haven","CT",""
25409,"STEVENSON RD","New Haven","CT",""
25410,"285 STEVENSON RD","New Haven","CT",""
25411,"295 STEVENSON RD","New Haven","CT",""
25412,"305 STEVENSON RD","New Haven","CT",""
25413,"315 STEVENSON RD","New Haven","CT",""
25414,"325 STEVENSON RD","New Haven","CT",""
25415,"147 KOHARY DR","New Haven","CT",""
25416,"165 KOHARY DR","New Haven","CT",""
25417,"205 KOHARY DR","New Haven","CT",""
25418,"215 KOHARY DR","New Haven","CT",""
25419,"225 KOHARY DR","New Haven","CT",""
25420,"70 BYRON PL","New Haven","CT",""
25421,"60 BYRON PL","New Haven","CT",""
25422,"50 BYRON PL","New Haven","CT",""
25423,"40 BYRON PL","New Haven","CT",""
25424,"30 BYRON PL","New Haven","CT",""
25425,"70 WHITTIER RD","New Haven","CT",""
25426,"5 BYRON PL","New Haven","CT",""
25427,"11 BYRON PL","New Haven","CT",""
25428,"21 BYRON PL","New Haven","CT",""
25429,"31 BYRON PL","New Haven","CT",""
25430,"41 BYRON PL","New Haven","CT",""
25431,"51 BYRON PL","New Haven","CT",""
25432,"65 BYRON PL","New Haven","CT",""
25433,"83 BYRON PL","New Haven","CT",""
25434,"150 WHITTIER RD","New Haven","CT",""
25435,"138 WHITTIER RD","New Haven","CT",""
25436,"126 WHITTIER RD","New Haven","CT",""
25437,"114 WHITTIER RD","New Haven","CT",""
25438,"104 WHITTIER RD","New Haven","CT",""
25439,"94 WHITTIER RD","New Haven","CT",""
25440,"80 WHITTIER RD","New Haven","CT",""
25441,"110 STEVENSON RD","New Haven","CT",""
25442,"71 WHITTIER RD","New Haven","CT",""
25443,"81 WHITTIER RD","New Haven","CT",""
25444,"91 WHITTIER RD","New Haven","CT",""
25445,"99 WHITTIER RD","New Haven","CT",""
25446,"111 WHITTIER RD","New Haven","CT",""
25447,"119 WHITTIER RD","New Haven","CT",""
25448,"129 WHITTIER RD","New Haven","CT",""
25449,"139 WHITTIER RD","New Haven","CT",""
25450,"149 WHITTIER RD","New Haven","CT",""
25451,"200 STEVENSON RD","New Haven","CT",""
25452,"190 STEVENSON RD","New Haven","CT",""
25453,"180 STEVENSON RD","New Haven","CT",""
25454,"170 STEVENSON RD","New Haven","CT",""
25455,"160 STEVENSON RD","New Haven","CT",""
25456,"150 STEVENSON RD","New Haven","CT",""
25457,"140 STEVENSON RD","New Haven","CT",""
25458,"130 STEVENSON RD","New Haven","CT",""
25459,"120 STEVENSON RD","New Haven","CT",""
25460,"109 STEVENSON RD","New Haven","CT",""
25461,"125 STEVENSON RD","New Haven","CT",""
25462,"137 STEVENSON RD","New Haven","CT",""
25463,"145 STEVENSON RD","New Haven","CT",""
25464,"155 STEVENSON RD","New Haven","CT",""
25465,"165 STEVENSON RD","New Haven","CT",""
25466,"175 STEVENSON RD","New Haven","CT",""
25467,"185 STEVENSON RD","New Haven","CT",""
25468,"195 STEVENSON RD","New Haven","CT",""
25469,"60 WHITTIER RD","New Haven","CT",""
25470,"50 WHITTIER RD","New Haven","CT",""
25471,"40 WHITTIER RD","New Haven","CT",""
25472,"30 WHITTIER RD","New Haven","CT",""
25473,"83 KOHARY DR","New Haven","CT",""
25474,"95 KOHARY DR","New Haven","CT",""
25475,"105 KOHARY DR","New Haven","CT",""
25476,"115 KOHARY DR","New Haven","CT",""
25477,"125 KOHARY DR","New Haven","CT",""
25478,"100 STEVENSON RD","New Haven","CT",""
25479,"90 STEVENSON RD","New Haven","CT",""
25480,"80 STEVENSON RD","New Haven","CT",""
25481,"68 STEVENSON RD","New Haven","CT",""
25482,"58 STEVENSON RD","New Haven","CT",""
25483,"46 STEVENSON RD","New Haven","CT",""
25484,"36 STEVENSON RD","New Haven","CT",""
25485,"26 STEVENSON RD","New Haven","CT",""
25486,"45 KOHARY DR","New Haven","CT",""
25487,"5 WHITTIER RD","New Haven","CT",""
25488,"15 WHITTIER RD","New Haven","CT",""
25489,"23 WHITTIER RD","New Haven","CT",""
25490,"31 WHITTIER RD","New Haven","CT",""
25491,"41 WHITTIER RD","New Haven","CT",""
25492,"51 WHITTIER RD","New Haven","CT",""
25493,"61 WHITTIER RD","New Haven","CT",""
25494,"170 CONRAD DR","New Haven","CT",""
25495,"156 CONRAD DR","New Haven","CT",""
25496,"146 CONRAD DR","New Haven","CT",""
25497,"136 CONRAD DR","New Haven","CT",""
25498,"126 CONRAD DR","New Haven","CT",""
25499,"116 CONRAD DR","New Haven","CT",""
25500,"106 CONRAD DR","New Haven","CT",""
25501,"96 CONRAD DR","New Haven","CT",""
25502,"86 CONRAD DR","New Haven","CT",""
25503,"76 CONRAD DR","New Haven","CT",""
25504,"66 CONRAD DR","New Haven","CT",""
25505,"9 KOHARY DR","New Haven","CT",""
25506,"25 KOHARY DR","New Haven","CT",""
25507,"7 STEVENSON RD","New Haven","CT",""
25508,"17 STEVENSON RD","New Haven","CT",""
25509,"27 STEVENSON RD","New Haven","CT",""
25510,"37 STEVENSON RD","New Haven","CT",""
25511,"47 STEVENSON RD","New Haven","CT",""
25512,"57 STEVENSON RD","New Haven","CT",""
25513,"65 STEVENSON RD","New Haven","CT",""
25514,"75 STEVENSON RD","New Haven","CT",""
25515,"85 STEVENSON RD","New Haven","CT",""
25516,"95 STEVENSON RD","New Haven","CT",""
25517,"190 RAY RD","New Haven","CT",""
25518,"182 RAY RD","New Haven","CT",""
25519,"170 RAY RD","New Haven","CT",""
25520,"160 RAY RD","New Haven","CT",""
25521,"148 RAY RD","New Haven","CT",""
25522,"134 RAY RD","New Haven","CT",""
25523,"124 RAY RD","New Haven","CT",""
25524,"114 RAY RD","New Haven","CT",""
25525,"93 MUMFORD RD","New Haven","CT",""
25526,"85 MUMFORD RD","New Haven","CT",""
25527,"75 MUMFORD RD","New Haven","CT",""
25528,"69 MUMFORD RD","New Haven","CT",""
25529,"61 MUMFORD RD","New Haven","CT",""
25530,"55 MUMFORD RD","New Haven","CT",""
25531,"45 MUMFORD RD","New Haven","CT",""
25532,"35 MUMFORD RD","New Haven","CT",""
25533,"25 MUMFORD RD","New Haven","CT",""
25534,"9 MUMFORD RD","New Haven","CT",""
25535,"99 KNOLLWOOD DR","New Haven","CT",""
25536,"89 KNOLLWOOD DR","New Haven","CT",""
25537,"77 KNOLLWOOD DR","New Haven","CT",""
25538,"65 KNOLLWOOD DR","New Haven","CT",""
25539,"55 KNOLLWOOD DR","New Haven","CT",""
25540,"45 KNOLLWOOD DR","New Haven","CT",""
25541,"35 KNOLLWOOD DR","New Haven","CT",""
25542,"25 KNOLLWOOD DR","New Haven","CT",""
25543,"15 KNOLLWOOD DR","New Haven","CT",""
25544,"90 MUMFORD RD","New Haven","CT",""
25545,"74 MUMFORD RD","New Haven","CT",""
25546,"60 MUMFORD RD","New Haven","CT",""
25547,"50 MUMFORD RD","New Haven","CT",""
25548,"40 MUMFORD RD","New Haven","CT",""
25549,"30 MUMFORD RD","New Haven","CT",""
25550,"20 MUMFORD RD","New Haven","CT",""
25551,"10 MUMFORD RD","New Haven","CT",""
25552,"231 KNOLLWOOD DR","New Haven","CT",""
25553,"245 KNOLLWOOD DR","New Haven","CT",""
25554,"259 KNOLLWOOD DR","New Haven","CT",""
25555,"275 KNOLLWOOD DR","New Haven","CT",""
25556,"285 KNOLLWOOD DR","New Haven","CT",""
25557,"76 KOHARY DR","New Haven","CT",""
25558,"66 KOHARY DR","New Haven","CT",""
25559,"56 KOHARY DR","New Haven","CT",""
25560,"46 KOHARY DR","New Haven","CT",""
25561,"36 KOHARY DR","New Haven","CT",""
25562,"26 KOHARY DR","New Haven","CT",""
25563,"16 KOHARY DR","New Haven","CT",""
25564,"10 KOHARY DR","New Haven","CT",""
25565,"30 CONRAD DR","New Haven","CT",""
25566,"20 CONRAD DR","New Haven","CT",""
25567,"CONRAD DR","New Haven","CT",""
25568,"320 KNOLLWOOD DR","New Haven","CT",""
25569,"310 KNOLLWOOD DR","New Haven","CT",""
25570,"300 KNOLLWOOD DR","New Haven","CT",""
25571,"290 KNOLLWOOD DR","New Haven","CT",""
25572,"280 KNOLLWOOD DR","New Haven","CT",""
25573,"270 KNOLLWOOD DR","New Haven","CT",""
25574,"260 KNOLLWOOD DR","New Haven","CT",""
25575,"250 KNOLLWOOD DR","New Haven","CT",""
25576,"240 KNOLLWOOD DR","New Haven","CT",""
25577,"230 KNOLLWOOD DR","New Haven","CT",""
25578,"226 KNOLLWOOD DR","New Haven","CT",""
25579,"220 KNOLLWOOD DR","New Haven","CT",""
25580,"190 KNOLLWOOD DR","New Haven","CT",""
25581,"120 KNOLLWOOD DR","New Haven","CT",""
25582,"112 KNOLLWOOD DR","New Haven","CT",""
25583,"104 KNOLLWOOD DR","New Haven","CT",""
25584,"94 KNOLLWOOD DR","New Haven","CT",""
25585,"KNOLLWOOD DR","New Haven","CT",""
25586,"60 KNOLLWOOD DR","New Haven","CT",""
25587,"54 KNOLLWOOD DR","New Haven","CT",""
25588,"46 KNOLLWOOD DR","New Haven","CT",""
25589,"30 KNOLLWOOD DR","New Haven","CT",""
25590,"40 LAUREL RD","New Haven","CT",""
25591,"100 EDGEWOOD #WY","New Haven","CT",""
25592,"90 EDGEWOOD #WY","New Haven","CT",""
25593,"80 EDGEWOOD #WY","New Haven","CT",""
25594,"70 EDGEWOOD #WY","New Haven","CT",""
25595,"62 EDGEWOOD #WY","New Haven","CT",""
25596,"52 EDGEWOOD #WY","New Haven","CT",""
25597,"42 EDGEWOOD #WY","New Haven","CT",""
25598,"34 EDGEWOOD #WY","New Haven","CT",""
25599,"26 EDGEWOOD #WY","New Haven","CT",""
25600,"18 EDGEWOOD #WY","New Haven","CT",""
25601,"184 HEMLOCK RD","New Haven","CT",""
25602,"170 HEMLOCK RD","New Haven","CT",""
25603,"160 HEMLOCK RD","New Haven","CT",""
25604,"90 MARLIN DR","New Haven","CT",""
25605,"78 MARLIN DR","New Haven","CT",""
25606,"60 MARLIN DR","New Haven","CT",""
25607,"50 MARLIN DR","New Haven","CT",""
25608,"40 MARLIN DR","New Haven","CT",""
25609,"30 MARLIN DR","New Haven","CT",""
25610,"20 MARLIN DR","New Haven","CT",""
25611,"10 MARLIN DR","New Haven","CT",""
25612,"55 LAKE VIEW TER","New Haven","CT",""
25613,"67 LAKE VIEW TER","New Haven","CT",""
25614,"85 LAKE VIEW TER","New Haven","CT",""
25615,"95 LAKE VIEW TER","New Haven","CT",""
25616,"105 LAKE VIEW TER","New Haven","CT",""
25617,"115 LAKE VIEW TER","New Haven","CT",""
25618,"125 LAKE VIEW TER","New Haven","CT",""
25619,"145 LAKE VIEW TER","New Haven","CT",""
25620,"155 LAKE VIEW TER","New Haven","CT",""
25621,"130 HEMLOCK RD","New Haven","CT",""
25622,"120 HEMLOCK RD","New Haven","CT",""
25623,"110 HEMLOCK RD","New Haven","CT",""
25624,"42 BIRCH DR","New Haven","CT",""
25625,"36 BIRCH DR","New Haven","CT",""
25626,"30 BIRCH DR","New Haven","CT",""
25627,"24 BIRCH DR","New Haven","CT",""
25628,"14 BIRCH DR","New Haven","CT",""
25629,"10 BIRCH DR","New Haven","CT",""
25630,"4 BIRCH DR","New Haven","CT",""
25631,"15 MARLIN DR","New Haven","CT",""
25632,"25 MARLIN DR","New Haven","CT",""
25633,"35 MARLIN DR","New Haven","CT",""
25634,"45 MARLIN DR","New Haven","CT",""
25635,"65 MARLIN DR","New Haven","CT",""
25636,"77 MARLIN DR","New Haven","CT",""
25637,"107 MARLIN DR","New Haven","CT",""
25638,"80 HEMLOCK RD","New Haven","CT",""
25639,"70 HEMLOCK RD","New Haven","CT",""
25640,"50 HEMLOCK RD","New Haven","CT",""
25641,"40 HEMLOCK RD","New Haven","CT",""
25642,"189 MARVELWOOD DR","New Haven","CT",""
25643,"227 MARVELWOOD DR","New Haven","CT",""
25644,"237 MARVELWOOD DR","New Haven","CT",""
25645,"251 MARVELWOOD DR","New Haven","CT",""
25646,"261 MARVELWOOD DR","New Haven","CT",""
25647,"275 MARVELWOOD DR","New Haven","CT",""
25648,"55 RAY RD","New Haven","CT",""
25649,"9 BIRCH DR","New Haven","CT",""
25650,"15 BIRCH DR","New Haven","CT",""
25651,"21 BIRCH DR","New Haven","CT",""
25652,"29 BIRCH DR","New Haven","CT",""
25653,"39 BIRCH DR","New Haven","CT",""
25654,"45 BIRCH DR","New Haven","CT",""
25655,"130 MARVELWOOD DR","New Haven","CT",""
25656,"120 MARVELWOOD DR","New Haven","CT",""
25657,"100 MARVELWOOD DR","New Haven","CT",""
25658,"90 MARVELWOOD DR","New Haven","CT",""
25659,"70 MARVELWOOD DR","New Haven","CT",""
25660,"118 VISTA TER","New Haven","CT",""
25661,"110 VISTA TER","New Haven","CT",""
25662,"102 VISTA TER","New Haven","CT",""
25663,"96 VISTA TER","New Haven","CT",""
25664,"88 VISTA TER","New Haven","CT",""
25665,"80 VISTA TER","New Haven","CT",""
25666,"74 VISTA TER","New Haven","CT",""
25667,"66 VISTA TER","New Haven","CT",""
25668,"58 VISTA TER","New Haven","CT",""
25669,"50 VISTA TER","New Haven","CT",""
25670,"42 VISTA TER","New Haven","CT",""
25671,"32 VISTA TER","New Haven","CT",""
25672,"28 VISTA TER","New Haven","CT",""
25673,"20 VISTA TER","New Haven","CT",""
25674,"12 VISTA TER","New Haven","CT",""
25675,"10 VISTA TER","New Haven","CT",""
25676,"55 LAUREL RD","New Haven","CT",""
25677,"65 LAUREL RD","New Haven","CT",""
25678,"75 LAUREL RD","New Haven","CT",""
25679,"115 LAUREL RD","New Haven","CT",""
25680,"10 KENTER PL","New Haven","CT",""
25681,"127 LAUREL RD","New Haven","CT",""
25682,"137 LAUREL RD","New Haven","CT",""
25683,"12 KENTER PL","New Haven","CT",""
25684,"155 LAUREL RD","New Haven","CT",""
25685,"165 LAUREL RD","New Haven","CT",""
25686,"20 KENTER PL","New Haven","CT",""
25687,"189 LAUREL RD","New Haven","CT",""
25688,"200 MARVELWOOD DR","New Haven","CT",""
25689,"160 LAUREL RD","New Haven","CT",""
25690,"140 LAUREL RD","New Haven","CT",""
25691,"110 LAUREL RD","New Haven","CT",""
25692,"90 LAUREL RD","New Haven","CT",""
25693,"276 MARVELWOOD DR","New Haven","CT",""
25694,"266 MARVELWOOD DR","New Haven","CT",""
25695,"240 MARVELWOOD DR","New Haven","CT",""
25696,"230 MARVELWOOD DR","New Haven","CT",""
25697,"220 MARVELWOOD DR","New Haven","CT",""
25698,"428 FOUNTAIN ST","New Haven","CT",""
25699,"424 FOUNTAIN ST","New Haven","CT",""
25700,"408 FOUNTAIN ST #3-C","New Haven","CT",""
25701,"408 FOUNTAIN ST #3-D","New Haven","CT",""
25702,"408 FOUNTAIN ST #3-A","New Haven","CT",""
25703,"408 FOUNTAIN ST #3-B","New Haven","CT",""
25704,"412 FOUNTAIN ST #A4-C","New Haven","CT",""
25705,"412 FOUNTAIN ST #B4-D","New Haven","CT",""
25706,"414 FOUNTAIN ST #A5-B","New Haven","CT",""
25707,"414 FOUNTAIN ST #B5-B","New Haven","CT",""
25708,"416 FOUNTAIN ST #A","New Haven","CT",""
25709,"416 FOUNTAIN ST #B","New Haven","CT",""
25710,"416 FOUNTAIN ST #C","New Haven","CT",""
25711,"416 FOUNTAIN ST #D","New Haven","CT",""
25712,"420 FOUNTAIN ST #A","New Haven","CT",""
25713,"420 FOUNTAIN ST #B","New Haven","CT",""
25714,"420 FOUNTAIN ST #C","New Haven","CT",""
25715,"420 FOUNTAIN ST #D","New Haven","CT",""
25716,"400 FOUNTAIN ST","New Haven","CT",""
25717,"374 FOUNTAIN ST","New Haven","CT",""
25718,"368 FOUNTAIN ST","New Haven","CT",""
25719,"366 FOUNTAIN ST","New Haven","CT",""
25720,"FOUNTAIN ST","New Haven","CT",""
25721,"364 FOUNTAIN ST","New Haven","CT",""
25722,"360 FOUNTAIN ST #1","New Haven","CT",""
25723,"360 FOUNTAIN ST #2","New Haven","CT",""
25724,"360 FOUNTAIN ST #3","New Haven","CT",""
25725,"360 FOUNTAIN ST #4","New Haven","CT",""
25726,"360 FOUNTAIN ST #5","New Haven","CT",""
25727,"360 FOUNTAIN ST #6","New Haven","CT",""
25728,"360 FOUNTAIN ST #7","New Haven","CT",""
25729,"360 FOUNTAIN ST #8","New Haven","CT",""
25730,"360 FOUNTAIN ST #9","New Haven","CT",""
25731,"360 FOUNTAIN ST #10","New Haven","CT",""
25732,"360 FOUNTAIN ST #11","New Haven","CT",""
25733,"360 FOUNTAIN ST #12","New Haven","CT",""
25734,"360 FOUNTAIN ST #13","New Haven","CT",""
25735,"360 FOUNTAIN ST #14","New Haven","CT",""
25736,"360 FOUNTAIN ST #15","New Haven","CT",""
25737,"360 FOUNTAIN ST #16","New Haven","CT",""
25738,"360 FOUNTAIN ST #17","New Haven","CT",""
25739,"360 FOUNTAIN ST #18","New Haven","CT",""
25740,"360 FOUNTAIN ST #19","New Haven","CT",""
25741,"360 FOUNTAIN ST #20","New Haven","CT",""
25742,"360 FOUNTAIN ST #21","New Haven","CT",""
25743,"360 FOUNTAIN ST #22","New Haven","CT",""
25744,"360 FOUNTAIN ST #23","New Haven","CT",""
25745,"360 FOUNTAIN ST #24","New Haven","CT",""
25746,"360 FOUNTAIN ST #25","New Haven","CT",""
25747,"360 FOUNTAIN ST #26","New Haven","CT",""
25748,"360 FOUNTAIN ST #27","New Haven","CT",""
25749,"360 FOUNTAIN ST #28","New Haven","CT",""
25750,"360 FOUNTAIN ST #29","New Haven","CT",""
25751,"360 FOUNTAIN ST #30","New Haven","CT",""
25752,"360 FOUNTAIN ST #31","New Haven","CT",""
25753,"360 FOUNTAIN ST #32","New Haven","CT",""
25754,"360 FOUNTAIN ST #33","New Haven","CT",""
25755,"360 FOUNTAIN ST #34","New Haven","CT",""
25756,"360 FOUNTAIN ST #35","New Haven","CT",""
25757,"360 FOUNTAIN ST #36","New Haven","CT",""
25758,"360 FOUNTAIN ST #37","New Haven","CT",""
25759,"360 FOUNTAIN ST #38","New Haven","CT",""
25760,"360 FOUNTAIN ST #39","New Haven","CT",""
25761,"360 FOUNTAIN ST #40","New Haven","CT",""
25762,"360 FOUNTAIN ST #41","New Haven","CT",""
25763,"360 FOUNTAIN ST #42","New Haven","CT",""
25764,"360 FOUNTAIN ST #43","New Haven","CT",""
25765,"360 FOUNTAIN ST #44","New Haven","CT",""
25766,"310 FOUNTAIN ST","New Haven","CT",""
25767,"306 FOUNTAIN ST","New Haven","CT",""
25768,"FOUNTAIN ST","New Haven","CT",""
25769,"302 FOUNTAIN ST","New Haven","CT",""
25770,"298 FOUNTAIN ST","New Haven","CT",""
25771,"294 FOUNTAIN ST","New Haven","CT",""
25772,"290 FOUNTAIN ST","New Haven","CT",""
25773,"152 VISTA TER","New Haven","CT",""
25774,"148 VISTA TER","New Haven","CT",""
25775,"144 VISTA TER","New Haven","CT",""
25776,"140 VISTA TER","New Haven","CT",""
25777,"136 VISTA TER","New Haven","CT",""
25778,"7 MARVELWOOD DR","New Haven","CT",""
25779,"25 MARVELWOOD DR","New Haven","CT",""
25780,"35 MARVELWOOD DR","New Haven","CT",""
25781,"45 MARVELWOOD DR","New Haven","CT",""
25782,"55 MARVELWOOD DR","New Haven","CT",""
25783,"65 MARVELWOOD DR","New Haven","CT",""
25784,"77 MARVELWOOD DR","New Haven","CT",""
25785,"95 MARVELWOOD DR","New Haven","CT",""
25786,"105 MARVELWOOD DR","New Haven","CT",""
25787,"135 MARVELWOOD DR","New Haven","CT",""
25788,"5 HEMLOCK RD","New Haven","CT",""
25789,"11 HEMLOCK RD","New Haven","CT",""
25790,"25 HEMLOCK RD","New Haven","CT",""
25791,"37 HEMLOCK RD","New Haven","CT",""
25792,"47 HEMLOCK RD","New Haven","CT",""
25793,"59 HEMLOCK RD","New Haven","CT",""
25794,"73 HEMLOCK RD","New Haven","CT",""
25795,"85 HEMLOCK RD","New Haven","CT",""
25796,"95 HEMLOCK RD","New Haven","CT",""
25797,"109 HEMLOCK RD","New Haven","CT",""
25798,"125 HEMLOCK RD","New Haven","CT",""
25799,"135 HEMLOCK RD","New Haven","CT",""
25800,"145 HEMLOCK RD","New Haven","CT",""
25801,"159 HEMLOCK RD","New Haven","CT",""
25802,"195 LAKE VIEW TER","New Haven","CT",""
25803,"203 LAKE VIEW TER","New Haven","CT",""
25804,"215 LAKE VIEW TER","New Haven","CT",""
25805,"225 LAKE VIEW TER","New Haven","CT",""
25806,"235 LAKE VIEW TER","New Haven","CT",""
25807,"245 LAKE VIEW TER","New Haven","CT",""
25808,"255 LAKE VIEW TER","New Haven","CT",""
25809,"99 WEST PROSPECT ST","New Haven","CT",""
25810,"1226 WHALLEY AV","New Haven","CT",""
25811,"1222 WHALLEY AV","New Haven","CT",""
25812,"WHALLEY AV","New Haven","CT",""
25813,"WHALLEY AV","New Haven","CT",""
25814,"1218 WHALLEY AV","New Haven","CT",""
25815,"1214 WHALLEY AV","New Haven","CT",""
25816,"1210 WHALLEY AV","New Haven","CT",""
25817,"1206 WHALLEY AV","New Haven","CT",""
25818,"1202 WHALLEY AV","New Haven","CT",""
25819,"1198 WHALLEY AV","New Haven","CT",""
25820,"1190 WHALLEY AV","New Haven","CT",""
25821,"1168 WHALLEY AV","New Haven","CT",""
25822,"1158 WHALLEY AV","New Haven","CT",""
25823,"31 FAIRFIELD ST","New Haven","CT",""
25824,"35 FAIRFIELD ST","New Haven","CT",""
25825,"39 FAIRFIELD ST","New Haven","CT",""
25826,"45 FAIRFIELD ST","New Haven","CT",""
25827,"49 FAIRFIELD ST","New Haven","CT",""
25828,"55 FAIRFIELD ST","New Haven","CT",""
25829,"59 FAIRFIELD ST","New Haven","CT",""
25830,"65 FAIRFIELD ST","New Haven","CT",""
25831,"69 FAIRFIELD ST","New Haven","CT",""
25832,"63 WEST PROSPECT ST","New Haven","CT",""
25833,"69 WEST PROSPECT ST","New Haven","CT",""
25834,"73 WEST PROSPECT ST","New Haven","CT",""
25835,"79 WEST PROSPECT ST","New Haven","CT",""
25836,"81 WEST PROSPECT ST","New Haven","CT",""
25837,"95 WEST PROSPECT ST","New Haven","CT",""
25838,"97 WEST PROSPECT ST","New Haven","CT",""
25839,"55 WEST PROSPECT ST","New Haven","CT",""
25840,"74 FAIRFIELD ST","New Haven","CT",""
25841,"70 FAIRFIELD ST","New Haven","CT",""
25842,"66 FAIRFIELD ST","New Haven","CT",""
25843,"62 FAIRFIELD ST","New Haven","CT",""
25844,"56 FAIRFIELD ST","New Haven","CT",""
25845,"52 FAIRFIELD ST","New Haven","CT",""
25846,"46 FAIRFIELD ST","New Haven","CT",""
25847,"40 FAIRFIELD ST","New Haven","CT",""
25848,"30 FAIRFIELD ST","New Haven","CT",""
25849,"48 PARDEE PL","New Haven","CT",""
25850,"44 PARDEE PL","New Haven","CT",""
25851,"40 PARDEE PL","New Haven","CT",""
25852,"36 PARDEE PL","New Haven","CT",""
25853,"24 PARDEE PL","New Haven","CT",""
25854,"20 PARDEE PL","New Haven","CT",""
25855,"14 PARDEE PL","New Haven","CT",""
25856,"297 FOUNTAIN ST","New Haven","CT",""
25857,"303 FOUNTAIN ST","New Haven","CT",""
25858,"307 FOUNTAIN ST","New Haven","CT",""
25859,"313 FOUNTAIN ST","New Haven","CT",""
25860,"315 FOUNTAIN ST","New Haven","CT",""
25861,"321 FOUNTAIN ST","New Haven","CT",""
25862,"325 FOUNTAIN ST","New Haven","CT",""
25863,"333 FOUNTAIN ST","New Haven","CT",""
25864,"349 FOUNTAIN ST","New Haven","CT",""
25865,"361 FOUNTAIN ST","New Haven","CT",""
25866,"17 WEST PROSPECT ST","New Haven","CT",""
25867,"31 WEST PROSPECT ST","New Haven","CT",""
25868,NA,"New Haven","CT",""
25869,NA,"New Haven","CT",""
25870,"37 WEST PROSPECT ST","New Haven","CT",""
25871,"43 WEST PROSPECT ST","New Haven","CT",""
25872,NA,"New Haven","CT",""
25873,"47 WEST PROSPECT ST","New Haven","CT",""
25874,"55 PARDEE PL","New Haven","CT",""
25875,"50 DAYTON ST","New Haven","CT",""
25876,"46 DAYTON ST","New Haven","CT",""
25877,"42 DAYTON ST","New Haven","CT",""
25878,"38 DAYTON ST","New Haven","CT",""
25879,"30 DAYTON ST","New Haven","CT",""
25880,"26 DAYTON ST","New Haven","CT",""
25881,"22 DAYTON ST","New Haven","CT",""
25882,"18 DAYTON ST","New Haven","CT",""
25883,"16 DAYTON ST","New Haven","CT",""
25884,"12 DAYTON ST","New Haven","CT",""
25885,"4 DAYTON ST","New Haven","CT",""
25886,"281 FOUNTAIN ST","New Haven","CT",""
25887,"291 FOUNTAIN ST","New Haven","CT",""
25888,"9 PARDEE PL","New Haven","CT",""
25889,"17 PARDEE PL","New Haven","CT",""
25890,"21 PARDEE PL","New Haven","CT",""
25891,"25 PARDEE PL","New Haven","CT",""
25892,"29 PARDEE PL","New Haven","CT",""
25893,"33 PARDEE PL","New Haven","CT",""
25894,"37 PARDEE PL","New Haven","CT",""
25895,"41 PARDEE PL","New Haven","CT",""
25896,"51 PARDEE PL","New Haven","CT",""
25897,"37 EARL ST","New Haven","CT",""
25898,"95 ANTHONY ST","New Haven","CT",""
25899,"103 ANTHONY ST","New Haven","CT",""
25900,"127 ANTHONY ST","New Haven","CT",""
25901,NA,"New Haven","CT",""
25902,"1330 WHALLEY AV","New Haven","CT",""
25903,"1294 WHALLEY AV","New Haven","CT",""
25904,"1292 WHALLEY AV","New Haven","CT",""
25905,"114 DAVIS ST","New Haven","CT",""
25906,"110 DAVIS ST","New Haven","CT",""
25907,"11 EARL ST","New Haven","CT",""
25908,"15 EARL ST","New Haven","CT",""
25909,"23 EARL ST","New Haven","CT",""
25910,"27 EARL ST","New Haven","CT",""
25911,"73 DAVIS ST","New Haven","CT",""
25912,"77 DAVIS ST","New Haven","CT",""
25913,"81 DAVIS ST","New Haven","CT",""
25914,"85 DAVIS ST","New Haven","CT",""
25915,"89 DAVIS ST","New Haven","CT",""
25916,"93 DAVIS ST","New Haven","CT",""
25917,"97 DAVIS ST","New Haven","CT",""
25918,"101 DAVIS ST","New Haven","CT",""
25919,"103 DAVIS ST","New Haven","CT",""
25920,"107 DAVIS ST","New Haven","CT",""
25921,"1290 WHALLEY AV","New Haven","CT",""
25922,"1276 WHALLEY AV","New Haven","CT",""
25923,"1272 WHALLEY AV","New Haven","CT",""
25924,"1268 WHALLEY AV","New Haven","CT",""
25925,"1264 WHALLEY AV","New Haven","CT",""
25926,"1260 WHALLEY AV","New Haven","CT",""
25927,"102 WEST PROSPECT ST","New Haven","CT",""
25928,"100 WEST PROSPECT ST","New Haven","CT",""
25929,"88 WEST PROSPECT ST","New Haven","CT",""
25930,"74 WEST PROSPECT ST","New Haven","CT",""
25931,"121 FAIRFIELD ST","New Haven","CT",""
25932,"125 FAIRFIELD ST","New Haven","CT",""
25933,"185 FAIRFIELD ST","New Haven","CT",""
25934,"61 ANTHONY ST","New Haven","CT",""
25935,"71 ANTHONY ST","New Haven","CT",""
25936,"73 ANTHONY ST","New Haven","CT",""
25937,"77 ANTHONY ST","New Haven","CT",""
25938,"24 EARL ST","New Haven","CT",""
25939,"16 EARL ST","New Haven","CT",""
25940,"100 DAVIS ST","New Haven","CT",""
25941,"96 DAVIS ST","New Haven","CT",""
25942,"90 DAVIS ST","New Haven","CT",""
25943,"86 DAVIS ST","New Haven","CT",""
25944,"82 DAVIS ST","New Haven","CT",""
25945,"157 FAIRFIELD ST","New Haven","CT",""
25946,"159 FAIRFIELD ST","New Haven","CT",""
25947,"165 FAIRFIELD ST","New Haven","CT",""
25948,"169 FAIRFIELD ST","New Haven","CT",""
25949,"173 FAIRFIELD ST","New Haven","CT",""
25950,"177 FAIRFIELD ST","New Haven","CT",""
25951,"181 FAIRFIELD ST","New Haven","CT",""
25952,"27 ANTHONY ST","New Haven","CT",""
25953,"33 ANTHONY ST","New Haven","CT",""
25954,"39 ANTHONY ST","New Haven","CT",""
25955,"43 ANTHONY ST","New Haven","CT",""
25956,"47 ANTHONY ST","New Haven","CT",""
25957,"53 ANTHONY ST","New Haven","CT",""
25958,"172 FAIRFIELD ST","New Haven","CT",""
25959,"166 FAIRFIELD ST","New Haven","CT",""
25960,"64 DAVIS ST","New Haven","CT",""
25961,"60 DAVIS ST","New Haven","CT",""
25962,"56 DAVIS ST","New Haven","CT",""
25963,"52 DAVIS ST","New Haven","CT",""
25964,"46 DAVIS ST","New Haven","CT",""
25965,"40 DAVIS ST","New Haven","CT",""
25966,"15 PLANT ST","New Haven","CT",""
25967,"35 PLANT ST","New Haven","CT",""
25968,"27 PLANT ST","New Haven","CT",""
25969,"433 FOUNTAIN ST","New Haven","CT",""
25970,"17 DAVIS ST","New Haven","CT",""
25971,"35 DAVIS ST","New Haven","CT",""
25972,"112 FAIRFIELD ST","New Haven","CT",""
25973,"62 WEST PROSPECT ST","New Haven","CT",""
25974,"58 WEST PROSPECT ST","New Haven","CT",""
25975,"50 WEST PROSPECT ST","New Haven","CT",""
25976,"48 WEST PROSPECT ST","New Haven","CT",""
25977,"44 WEST PROSPECT ST","New Haven","CT",""
25978,"38 WEST PROSPECT ST","New Haven","CT",""
25979,"34 WEST PROSPECT ST","New Haven","CT",""
25980,"28 WEST PROSPECT ST","New Haven","CT",""
25981,"24 WEST PROSPECT ST","New Haven","CT",""
25982,"10 WEST PROSPECT ST","New Haven","CT",""
25983,"371 FOUNTAIN ST","New Haven","CT",""
25984,"379 FOUNTAIN ST","New Haven","CT",""
25985,"385 FOUNTAIN ST","New Haven","CT",""
25986,"391 FOUNTAIN ST","New Haven","CT",""
25987,"399 FOUNTAIN ST","New Haven","CT",""
25988,"403 FOUNTAIN ST","New Haven","CT",""
25989,"409 FOUNTAIN ST","New Haven","CT",""
25990,"417 FOUNTAIN ST","New Haven","CT",""
25991,"421 FOUNTAIN ST","New Haven","CT",""
25992,"425 FOUNTAIN ST","New Haven","CT",""
25993,"473 FOUNTAIN ST","New Haven","CT",""
25994,"11 ANTHONY ST","New Haven","CT",""
25995,"17 ANTHONY ST","New Haven","CT",""
25996,"38 PLANT ST","New Haven","CT",""
25997,"32 PLANT ST","New Haven","CT",""
25998,"26 PLANT ST","New Haven","CT",""
25999,"24 PLANT ST","New Haven","CT",""
26000,"18 PLANT ST","New Haven","CT",""
