"pid","location","city","state","zip"
3001,"35 EDGEMERE RD","New Haven","CT",""
3002,"19 EDGEMERE RD","New Haven","CT",""
3003,"25 EDGEMERE RD","New Haven","CT",""
3004,"86 KENDALL ST","New Haven","CT",""
3005,"80 KENDALL ST","New Haven","CT",""
3006,"173 FULTON TER","New Haven","CT",""
3007,"179 FULTON TER #179","New Haven","CT",""
3008,"181 FULTON TER #181","New Haven","CT",""
3009,"183 FULTON TER #183","New Haven","CT",""
3010,"185 FULTON TER #185","New Haven","CT",""
3011,"195 FULTON TER","New Haven","CT",""
3012,"205 FULTON TER","New Haven","CT",""
3013,"FULTON TER","New Haven","CT",""
3014,"225 FULTON TER","New Haven","CT",""
3015,"384 FORBES AV","New Haven","CT",""
3016,"304 FORBES AV #304","New Haven","CT",""
3017,"306 FORBES AV #306","New Haven","CT",""
3018,"308 FORBES AV #308","New Haven","CT",""
3019,"310 FORBES AV #310","New Haven","CT",""
3020,"312 FORBES AV #312","New Haven","CT",""
3021,"314 FORBES AV #314","New Haven","CT",""
3022,"316 FORBES AV #316","New Haven","CT",""
3023,"318 FORBES AV #318","New Haven","CT",""
3024,"330 FORBES AV #330","New Haven","CT",""
3025,"332 FORBES AV #332","New Haven","CT",""
3026,"334 FORBES AV #334","New Haven","CT",""
3027,"336 FORBES AV #336","New Haven","CT",""
3028,"338 FORBES AV #338","New Haven","CT",""
3029,"340 FORBES AV #340","New Haven","CT",""
3030,"342 FORBES AV #342","New Haven","CT",""
3031,"344 FORBES AV #344","New Haven","CT",""
3032,"346 FORBES AV #346","New Haven","CT",""
3033,"348 FORBES AV #348","New Haven","CT",""
3034,"320 FORBES AV #320","New Haven","CT",""
3035,"322 FORBES AV #322","New Haven","CT",""
3036,"324 FORBES AV #324","New Haven","CT",""
3037,"326 FORBES AV #326","New Haven","CT",""
3038,"328 FORBES AV #328","New Haven","CT",""
3039,"5 CHAMBERLAIN ST #5","New Haven","CT",""
3040,"7 CHAMBERLAIN ST #7","New Haven","CT",""
3041,"9 CHAMBERLAIN ST #9","New Haven","CT",""
3042,"294 FORBES AV #294","New Haven","CT",""
3043,"296 FORBES AV #296","New Haven","CT",""
3044,"298 FORBES AV #298","New Haven","CT",""
3045,"300 FORBES AV #300","New Haven","CT",""
3046,"302 FORBES AV #302","New Haven","CT",""
3047,"350 FORBES AV #350","New Haven","CT",""
3048,"354 FORBES AV #354","New Haven","CT",""
3049,"21 CHAMBERLAIN ST #21","New Haven","CT",""
3050,"23 CHAMBERLAIN ST #23","New Haven","CT",""
3051,"25 CHAMBERLAIN ST #25","New Haven","CT",""
3052,"29 CHAMBERLAIN ST","New Haven","CT",""
3053,"43 CHAMBERLAIN ST","New Haven","CT",""
3054,"53 CHAMBERLAIN ST","New Haven","CT",""
3055,"55 CHAMBERLAIN ST","New Haven","CT",""
3056,"63 CHAMBERLAIN ST","New Haven","CT",""
3057,"67 CHAMBERLAIN ST","New Haven","CT",""
3058,"73 CHAMBERLAIN ST","New Haven","CT",""
3059,"79 CHAMBERLAIN ST","New Haven","CT",""
3060,"83 CHAMBERLAIN ST","New Haven","CT",""
3061,"40 FAIRMONT AV","New Haven","CT",""
3062,"87 CHAMBERLAIN ST","New Haven","CT",""
3063,"36 FAIRMONT AV","New Haven","CT",""
3064,"830 WOODWARD AV","New Haven","CT",""
3065,"816 WOODWARD AV","New Haven","CT",""
3066,"WOODWARD AV","New Haven","CT",""
3067,"810 WOODWARD AV","New Haven","CT",""
3068,"416 FORBES AV","New Haven","CT",""
3069,"396 FORBES AV","New Haven","CT",""
3070,"FORBES AV","New Haven","CT",""
3071,"6 BROWN PL","New Haven","CT",""
3072,"8 BROWN PL","New Haven","CT",""
3073,"10 BROWN PL","New Haven","CT",""
3074,"12 BROWN PL","New Haven","CT",""
3075,"14 BROWN PL","New Haven","CT",""
3076,"1330 TOWNSEND AV","New Haven","CT",""
3077,"1324 TOWNSEND AV","New Haven","CT",""
3078,"1318 TOWNSEND AV","New Haven","CT",""
3079,"1314 TOWNSEND AV","New Haven","CT",""
3080,"1308 TOWNSEND AV","New Haven","CT",""
3081,"1302 TOWNSEND AV","New Haven","CT",""
3082,"1296 TOWNSEND AV","New Haven","CT",""
3083,"1290 TOWNSEND AV","New Haven","CT",""
3084,"1280 TOWNSEND AV","New Haven","CT",""
3085,"1274 TOWNSEND AV","New Haven","CT",""
3086,"1270 TOWNSEND AV","New Haven","CT",""
3087,"1266 TOWNSEND AV","New Haven","CT",""
3088,"1260 TOWNSEND AV","New Haven","CT",""
3089,"1254 TOWNSEND AV","New Haven","CT",""
3090,"1250 TOWNSEND AV","New Haven","CT",""
3091,"1246 TOWNSEND AV","New Haven","CT",""
3092,"1242 TOWNSEND AV","New Haven","CT",""
3093,"TOWNSEND AV","New Haven","CT",""
3094,"TOWNSEND AV","New Haven","CT",""
3095,"FORBES AV","New Haven","CT",""
3096,"458 FORBES AV","New Haven","CT",""
3097,"454 FORBES AV","New Haven","CT",""
3098,"452 FORBES AV","New Haven","CT",""
3099,"442 FORBES AV","New Haven","CT",""
3100,"434 FORBES AV","New Haven","CT",""
3101,"430 FORBES AV","New Haven","CT",""
3102,"WOODWARD AV","New Haven","CT",""
3103,"819 WOODWARD AV","New Haven","CT",""
3104,"825 WOODWARD AV","New Haven","CT",""
3105,"827 WOODWARD AV","New Haven","CT",""
3106,"835 WOODWARD AV","New Haven","CT",""
3107,"841 WOODWARD AV","New Haven","CT",""
3108,"847 WOODWARD AV","New Haven","CT",""
3109,"851 WOODWARD AV","New Haven","CT",""
3110,"855 WOODWARD AV","New Haven","CT",""
3111,"859 WOODWARD AV","New Haven","CT",""
3112,"863 WOODWARD AV","New Haven","CT",""
3113,"867 WOODWARD AV","New Haven","CT",""
3114,"81 OAKLEY ST","New Haven","CT",""
3115,"107 ASHLAND PL","New Haven","CT",""
3116,"115 ASHLAND PL","New Haven","CT",""
3117,"ASHLAND PL","New Haven","CT",""
3118,"590 FORBES AV","New Haven","CT",""
3119,"67 OAKLEY ST","New Haven","CT",""
3120,"77 OAKLEY ST","New Haven","CT",""
3121,"1245 TOWNSEND AV","New Haven","CT",""
3122,"15 IRVINGTON ST","New Haven","CT",""
3123,"17 IRVINGTON ST","New Haven","CT",""
3124,"23 IRVINGTON ST","New Haven","CT",""
3125,"29 IRVINGTON ST","New Haven","CT",""
3126,"35 IRVINGTON ST","New Haven","CT",""
3127,"39 IRVINGTON ST","New Haven","CT",""
3128,"45 IRVINGTON ST","New Haven","CT",""
3129,"49 IRVINGTON ST","New Haven","CT",""
3130,"59 IRVINGTON ST","New Haven","CT",""
3131,"55 IRVINGTON ST","New Haven","CT",""
3132,"61 IRVINGTON ST","New Haven","CT",""
3133,"63 IRVINGTON ST","New Haven","CT",""
3134,"75 IRVINGTON ST","New Haven","CT",""
3135,"81 IRVINGTON ST","New Haven","CT",""
3136,"100 OAKLEY ST","New Haven","CT",""
3137,"98 OAKLEY ST","New Haven","CT",""
3138,"84 ASHLAND PL","New Haven","CT",""
3139,"76 ASHLAND PL","New Haven","CT",""
3140,"72 ASHLAND PL","New Haven","CT",""
3141,"64 ASHLAND PL","New Haven","CT",""
3142,"60 ASHLAND PL","New Haven","CT",""
3143,"54 ASHLAND PL","New Haven","CT",""
3144,"50 ASHLAND PL","New Haven","CT",""
3145,"42 ASHLAND PL","New Haven","CT",""
3146,"36 ASHLAND PL","New Haven","CT",""
3147,"30 ASHLAND PL","New Haven","CT",""
3148,"24 ASHLAND PL","New Haven","CT",""
3149,"20 ASHLAND PL","New Haven","CT",""
3150,"16 ASHLAND PL","New Haven","CT",""
3151,"1231 TOWNSEND AV","New Haven","CT",""
3152,"1235 TOWNSEND AV","New Haven","CT",""
3153,"1239 TOWNSEND AV","New Haven","CT",""
3154,"1241 TOWNSEND AV","New Haven","CT",""
3155,"105 OAKLEY ST","New Haven","CT",""
3156,"113 IRVINGTON ST","New Haven","CT",""
3157,"116 ASHLAND PL","New Haven","CT",""
3158,"91 OAKLEY ST","New Haven","CT",""
3159,"95 OAKLEY ST","New Haven","CT",""
3160,"101 OAKLEY ST","New Haven","CT",""
3161,"OAKLEY ST","New Haven","CT",""
3162,"33 BURWELL ST","New Haven","CT",""
3163,"13 CHESTER ST","New Haven","CT",""
3164,"15 CHESTER ST","New Haven","CT",""
3165,"19 CHESTER ST","New Haven","CT",""
3166,"25 CHESTER ST","New Haven","CT",""
3167,"29 CHESTER ST","New Haven","CT",""
3168,"35 CHESTER ST","New Haven","CT",""
3169,"37 CHESTER ST","New Haven","CT",""
3170,"47 CHESTER ST","New Haven","CT",""
3171,"51 CHESTER ST","New Haven","CT",""
3172,"138 OAKLEY ST","New Haven","CT",""
3173,"132 OAKLEY ST","New Haven","CT",""
3174,"128 OAKLEY ST","New Haven","CT",""
3175,"126 OAKLEY ST","New Haven","CT",""
3176,"124 OAKLEY ST","New Haven","CT",""
3177,"70 IRVINGTON ST","New Haven","CT",""
3178,"64 IRVINGTON ST","New Haven","CT",""
3179,"60 IRVINGTON ST","New Haven","CT",""
3180,"54 IRVINGTON ST","New Haven","CT",""
3181,"50 IRVINGTON ST","New Haven","CT",""
3182,"42 IRVINGTON ST","New Haven","CT",""
3183,"38 IRVINGTON ST","New Haven","CT",""
3184,"34 IRVINGTON ST","New Haven","CT",""
3185,"30 IRVINGTON ST","New Haven","CT",""
3186,"24 IRVINGTON ST","New Haven","CT",""
3187,"20 IRVINGTON ST","New Haven","CT",""
3188,"5 BURWELL ST","New Haven","CT",""
3189,"BURWELL ST","New Haven","CT",""
3190,"BURWELL ST","New Haven","CT",""
3191,"29 BURWELL ST","New Haven","CT",""
3192,"135 OAKLEY ST","New Haven","CT",""
3193,"138 PEAT MEADOW RD","New Haven","CT",""
3194,"136 PEAT MEADOW RD","New Haven","CT",""
3195,"91 CHESTER ST","New Haven","CT",""
3196,"118 IRVINGTON ST","New Haven","CT",""
3197,"112 IRVINGTON ST","New Haven","CT",""
3198,"108 IRVINGTON ST","New Haven","CT",""
3199,"115 OAKLEY ST","New Haven","CT",""
3200,"121 OAKLEY ST","New Haven","CT",""
3201,"125 OAKLEY ST","New Haven","CT",""
3202,"127 OAKLEY ST","New Haven","CT",""
3203,"133 OAKLEY ST","New Haven","CT",""
3204,"55 BURWELL ST","New Haven","CT",""
3205,"274 PEAT MEADOW RD","New Haven","CT",""
3206,"262 PEAT MEADOW RD","New Haven","CT",""
3207,"256 PEAT MEADOW RD","New Haven","CT",""
3208,"250 PEAT MEADOW RD","New Haven","CT",""
3209,"244 PEAT MEADOW RD","New Haven","CT",""
3210,"158 OAKLEY ST","New Haven","CT",""
3211,"60 CHESTER ST","New Haven","CT",""
3212,"56 CHESTER ST","New Haven","CT",""
3213,"50 CHESTER ST","New Haven","CT",""
3214,"38 CHESTER ST","New Haven","CT",""
3215,"30 CHESTER ST","New Haven","CT",""
3216,"28 CHESTER ST","New Haven","CT",""
3217,"20 CHESTER ST","New Haven","CT",""
3218,"43 BURWELL ST","New Haven","CT",""
3219,"47 BURWELL ST","New Haven","CT",""
3220,"51 BURWELL ST","New Haven","CT",""
3221,"171 OAKLEY ST","New Haven","CT",""
3222,"190 PEAT MEADOW RD","New Haven","CT",""
3223,"182 PEAT MEADOW RD","New Haven","CT",""
3224,"178 PEAT MEADOW RD","New Haven","CT",""
3225,"172 PEAT MEADOW RD","New Haven","CT",""
3226,"164 PEAT MEADOW RD","New Haven","CT",""
3227,"90 CHESTER ST","New Haven","CT",""
3228,"145 OAKLEY ST","New Haven","CT",""
3229,"155 OAKLEY ST","New Haven","CT",""
3230,"165 OAKLEY ST","New Haven","CT",""
3231,"1287 TOWNSEND AV","New Haven","CT",""
3232,"40 BURWELL ST #40","New Haven","CT",""
3233,"44 BURWELL ST #44","New Haven","CT",""
3234,"42 BURWELL ST #42","New Haven","CT",""
3235,"36 BURWELL ST","New Haven","CT",""
3236,"32 BURWELL ST","New Haven","CT",""
3237,"1269 TOWNSEND AV","New Haven","CT",""
3238,"1273 TOWNSEND AV","New Haven","CT",""
3239,"1285 TOWNSEND AV","New Haven","CT",""
3240,"PEAT MEADOW RD","New Haven","CT",""
3241,"PEAT MEADOW RD","New Haven","CT",""
3242,"115 PEAT MEADOW RD","New Haven","CT",""
3243,"610 FORBES AV","New Haven","CT",""
3244,"BURWELL ST","New Haven","CT",""
3245,"BURWELL ST","New Haven","CT",""
3246,"RUSSELL ST","New Haven","CT",""
3247,"211 PEAT MEADOW RD","New Haven","CT",""
3248,"BURWELL ST","New Haven","CT",""
3249,"81 BURWELL ST","New Haven","CT",""
3250,"89 BURWELL ST","New Haven","CT",""
3251,"95 BURWELL ST","New Haven","CT",""
3252,"101 BURWELL ST","New Haven","CT",""
3253,"109 BURWELL ST","New Haven","CT",""
3254,"115 BURWELL ST","New Haven","CT",""
3255,"121 BURWELL ST","New Haven","CT",""
3256,"127 BURWELL ST","New Haven","CT",""
3257,"131 BURWELL ST","New Haven","CT",""
3258,"135 BURWELL ST","New Haven","CT",""
3259,"139 BURWELL ST","New Haven","CT",""
3260,"143 BURWELL ST","New Haven","CT",""
3261,"147 BURWELL ST","New Haven","CT",""
3262,"157 BURWELL ST","New Haven","CT",""
3263,"163 BURWELL ST","New Haven","CT",""
3264,"175 BURWELL ST","New Haven","CT",""
3265,"193 BURWELL ST","New Haven","CT",""
3266,"BURWELL ST","New Haven","CT",""
3267,"195 BURWELL ST","New Haven","CT",""
3268,"197 BURWELL ST","New Haven","CT",""
3269,"BURWELL ST","New Haven","CT",""
3270,"MILTON ST","New Haven","CT",""
3271,"80 MILTON ST","New Haven","CT",""
3272,"70 MILTON ST","New Haven","CT",""
3273,"74 MILTON ST","New Haven","CT",""
3274,"76 MILTON ST","New Haven","CT",""
3275,"78 MILTON ST","New Haven","CT",""
3276,"66 MILTON ST","New Haven","CT",""
3277,"62 MILTON ST","New Haven","CT",""
3278,"58 MILTON ST","New Haven","CT",""
3279,"50 MILTON ST","New Haven","CT",""
3280,"42 MILTON ST","New Haven","CT",""
3281,"36 MILTON ST","New Haven","CT",""
3282,"MILTON ST","New Haven","CT",""
3283,"MILTON ST","New Haven","CT",""
3284,"MILTON ST","New Haven","CT",""
3285,"14 MILTON ST","New Haven","CT",""
3286,"255 PEAT MEADOW RD","New Haven","CT",""
3287,"PEAT MEADOW RD","New Haven","CT",""
3288,"BURWELL ST","New Haven","CT",""
3289,"BURWELL ST","New Haven","CT",""
3290,"BURWELL ST","New Haven","CT",""
3291,"20 BELLEVUE ST","New Haven","CT",""
3292,"10 BELLEVUE ST","New Haven","CT",""
3293,"8 BELLEVUE ST","New Haven","CT",""
3294,"29 RIVERVIEW RD","New Haven","CT",""
3295,"45 RIVERVIEW RD","New Haven","CT",""
3296,"10 CROFTON ST","New Haven","CT",""
3297,"3 CROFTON ST","New Haven","CT",""
3298,"15 CROFTON ST","New Haven","CT",""
3299,"25 CROFTON ST","New Haven","CT",""
3300,"RIVERVIEW RD","New Haven","CT",""
3301,"RIVERVIEW RD","New Haven","CT",""
3302,"45 CROFTON ST","New Haven","CT",""
3303,"59 CROFTON ST","New Haven","CT",""
3304,"65 CROFTON ST","New Haven","CT",""
3305,"79 CROFTON ST","New Haven","CT",""
3306,"91 CROFTON ST","New Haven","CT",""
3307,"103 CROFTON ST","New Haven","CT",""
3308,"115 CROFTON ST","New Haven","CT",""
3309,"125 CROFTON ST","New Haven","CT",""
3310,"135 CROFTON ST","New Haven","CT",""
3311,"79 CABOT ST","New Haven","CT",""
3312,"90 OVERLOOK ST","New Haven","CT",""
3313,"84 OVERLOOK ST","New Haven","CT",""
3314,"OVERLOOK ST","New Haven","CT",""
3315,"OVERLOOK ST","New Haven","CT",""
3316,"OVERLOOK ST","New Haven","CT",""
3317,"OVERLOOK ST","New Haven","CT",""
3318,"OVERLOOK ST","New Haven","CT",""
3319,"OVERLOOK ST","New Haven","CT",""
3320,"OVERLOOK ST","New Haven","CT",""
3321,"OVERLOOK ST","New Haven","CT",""
3322,"OVERLOOK ST","New Haven","CT",""
3323,"OVERLOOK ST","New Haven","CT",""
3324,"OVERLOOK ST","New Haven","CT",""
3325,"OVERLOOK ST","New Haven","CT",""
3326,"186 BURWELL ST","New Haven","CT",""
3327,"182 BURWELL ST","New Haven","CT",""
3328,"178 BURWELL ST","New Haven","CT",""
3329,"174 BURWELL ST","New Haven","CT",""
3330,"170 BURWELL ST","New Haven","CT",""
3331,"160 BURWELL ST","New Haven","CT",""
3332,"BURWELL ST","New Haven","CT",""
3333,"140 BURWELL ST","New Haven","CT",""
3334,"134 BURWELL ST","New Haven","CT",""
3335,"130 BURWELL ST","New Haven","CT",""
3336,"120 BURWELL ST","New Haven","CT",""
3337,"112 BURWELL ST","New Haven","CT",""
3338,"106 BURWELL ST","New Haven","CT",""
3339,"QUINNIPIAC AV","New Haven","CT",""
3340,"67 QUINNIPIAC AV #67","New Haven","CT",""
3341,"65 QUINNIPIAC AV #65","New Haven","CT",""
3342,"63 QUINNIPIAC AV #63","New Haven","CT",""
3343,"61 QUINNIPIAC AV #61","New Haven","CT",""
3344,"59 QUINNIPIAC AV #59","New Haven","CT",""
3345,"57 QUINNIPIAC AV #57","New Haven","CT",""
3346,"55 QUINNIPIAC AV #55","New Haven","CT",""
3347,"53 QUINNIPIAC AV #53","New Haven","CT",""
3348,"51 QUINNIPIAC AV #51","New Haven","CT",""
3349,"49 QUINNIPIAC AV #49","New Haven","CT",""
3350,"47 QUINNIPIAC AV #47","New Haven","CT",""
3351,"45 QUINNIPIAC AV #45","New Haven","CT",""
3352,"43 QUINNIPIAC AV #43","New Haven","CT",""
3353,"41 QUINNIPIAC AV #41","New Haven","CT",""
3354,"39 QUINNIPIAC AV #39","New Haven","CT",""
3355,"37 QUINNIPIAC AV #37","New Haven","CT",""
3356,"FAIRMONT AV","New Haven","CT",""
3357,"37 FAIRMONT AV","New Haven","CT",""
3358,"3 FARREN AV","New Haven","CT",""
3359,"9 FARREN AV","New Haven","CT",""
3360,"15 FARREN AV","New Haven","CT",""
3361,"17 FARREN AV","New Haven","CT",""
3362,"31 FARREN AV #A-1","New Haven","CT",""
3363,"31 FARREN AV #A-2","New Haven","CT",""
3364,"31 FARREN AV #A-3","New Haven","CT",""
3365,"31 FARREN AV #A-4","New Haven","CT",""
3366,"31 FARREN AV #A-5","New Haven","CT",""
3367,"31 FARREN AV #A-6","New Haven","CT",""
3368,"31 FARREN AV #A-7","New Haven","CT",""
3369,"31 FARREN AV #A-8","New Haven","CT",""
3370,"140 QUINNIPIAC AV #B-1","New Haven","CT",""
3371,"140 QUINNIPIAC AV #B-2","New Haven","CT",""
3372,"140 QUINNIPIAC AV #B-3","New Haven","CT",""
3373,"140 QUINNIPIAC AV #B-4","New Haven","CT",""
3374,"140 QUINNIPIAC AV #B-5","New Haven","CT",""
3375,"140 QUINNIPIAC AV #B-6","New Haven","CT",""
3376,"140 QUINNIPIAC AV #B-7","New Haven","CT",""
3377,"140 QUINNIPIAC AV #B-8","New Haven","CT",""
3378,"23 FARREN AV #C-1","New Haven","CT",""
3379,"23 FARREN AV #C-2","New Haven","CT",""
3380,"23 FARREN AV #C-3","New Haven","CT",""
3381,"23 FARREN AV #C-4","New Haven","CT",""
3382,"23 FARREN AV #C-5","New Haven","CT",""
3383,"23 FARREN AV #C-6","New Haven","CT",""
3384,"23 FARREN AV #C-7","New Haven","CT",""
3385,"23 FARREN AV #C-8","New Haven","CT",""
3386,"35 FARREN AV","New Haven","CT",""
3387,"39 FARREN AV","New Haven","CT",""
3388,"43 FARREN AV","New Haven","CT",""
3389,"51 FARREN AV","New Haven","CT",""
3390,"53 FARREN AV","New Haven","CT",""
3391,"59 FARREN AV","New Haven","CT",""
3392,"65 FARREN AV","New Haven","CT",""
3393,"67 FARREN AV","New Haven","CT",""
3394,"69 FARREN AV","New Haven","CT",""
3395,"77 FARREN AV","New Haven","CT",""
3396,"91 FARREN AV","New Haven","CT",""
3397,"95 FARREN AV","New Haven","CT",""
3398,"185 FULTON ST","New Haven","CT",""
3399,"209 FULTON ST","New Haven","CT",""
3400,"215 FULTON ST","New Haven","CT",""
3401,"217 FULTON ST","New Haven","CT",""
3402,"210 QUINNIPIAC AV","New Haven","CT",""
3403,"200 QUINNIPIAC AV","New Haven","CT",""
3404,"196 QUINNIPIAC AV","New Haven","CT",""
3405,"192 QUINNIPIAC AV","New Haven","CT",""
3406,"188 QUINNIPIAC AV","New Haven","CT",""
3407,"184 QUINNIPIAC AV","New Haven","CT",""
3408,"180 QUINNIPIAC AV","New Haven","CT",""
3409,"172 QUINNIPIAC AV","New Haven","CT",""
3410,"168 QUINNIPIAC AV","New Haven","CT",""
3411,"164 QUINNIPIAC AV","New Haven","CT",""
3412,"160 QUINNIPIAC AV","New Haven","CT",""
3413,"112 QUINNIPIAC AV","New Haven","CT",""
3414,"98 QUINNIPIAC AV","New Haven","CT",""
3415,"94 QUINNIPIAC AV","New Haven","CT",""
3416,"88 QUINNIPIAC AV","New Haven","CT",""
3417,"84 QUINNIPIAC AV","New Haven","CT",""
3418,"19 FAIRMONT AV","New Haven","CT",""
3419,"QUINNIPIAC AV","New Haven","CT",""
3420,"50 QUINNIPIAC AV","New Haven","CT",""
3421,"20 FARREN AV","New Haven","CT",""
3422,"28 FARREN AV","New Haven","CT",""
3423,"87 FAIRMONT AV","New Haven","CT",""
3424,"91 FAIRMONT AV","New Haven","CT",""
3425,"97 FAIRMONT AV","New Haven","CT",""
3426,"107 FAIRMONT AV","New Haven","CT",""
3427,"111 FAIRMONT AV","New Haven","CT",""
3428,"115 FAIRMONT AV","New Haven","CT",""
3429,"117 FAIRMONT AV","New Haven","CT",""
3430,"121 FAIRMONT AV","New Haven","CT",""
3431,"125 FAIRMONT AV","New Haven","CT",""
3432,"86 FARREN AV","New Haven","CT",""
3433,"74 FARREN AV","New Haven","CT",""
3434,"70 FARREN AV","New Haven","CT",""
3435,"66 FARREN AV","New Haven","CT",""
3436,"62 FARREN AV","New Haven","CT",""
3437,"60 FARREN AV","New Haven","CT",""
3438,"52 FARREN AV","New Haven","CT",""
3439,"48 FARREN AV","New Haven","CT",""
3440,"46 FARREN AV","New Haven","CT",""
3441,"FARREN AV","New Haven","CT",""
3442,"50 CHAMBERLAIN ST","New Haven","CT",""
3443,"26 CHAMBERLAIN PL","New Haven","CT",""
3444,"28 CHAMBERLAIN PL","New Haven","CT",""
3445,"30 CHAMBERLAIN PL","New Haven","CT",""
3446,"34 CHAMBERLAIN PL","New Haven","CT",""
3447,"63 FULTON ST","New Haven","CT",""
3448,NA,"New Haven","CT",""
3449,"87 FULTON ST","New Haven","CT",""
3450,"110 FAIRMONT AV","New Haven","CT",""
3451,"104 FAIRMONT AV","New Haven","CT",""
3452,"70 FAIRMONT AV","New Haven","CT",""
3453,"56 FAIRMONT AV","New Haven","CT",""
3454,"64 CHAMBERLAIN ST","New Haven","CT",""
3455,"54 CHAMBERLAIN ST","New Haven","CT",""
3456,"172 FORBES AV","New Haven","CT",""
3457,"16 WHEELER ST","New Haven","CT",""
3458,"77 WHEELER ST","New Haven","CT",""
3459,"69 WHEELER ST","New Haven","CT",""
3460,"33 LAURA ST","New Haven","CT",""
3461,"44 LAURA ST","New Haven","CT",""
3462,"222 FORBES AV","New Haven","CT",""
3463,"206 FORBES AV","New Haven","CT",""
3464,"192 FORBES AV","New Haven","CT",""
3465,NA,"New Haven","CT",""
3466,"49 WHEELER ST","New Haven","CT",""
3467,"57 WHEELER ST","New Haven","CT",""
3468,"61 WHEELER ST","New Haven","CT",""
3469,"65 WHEELER ST","New Haven","CT",""
3470,"99 LAURA ST","New Haven","CT",""
3471,"57 GOODWIN ST","New Haven","CT",""
3472,"85 LAURA ST","New Haven","CT",""
3473,"LAURA ST","New Haven","CT",""
3474,"59 GOODWIN ST","New Haven","CT",""
3475,"61 GOODWIN ST","New Haven","CT",""
3476,"104 FULTON ST","New Haven","CT",""
3477,"100 FULTON ST","New Haven","CT",""
3478,"76 FULTON ST","New Haven","CT",""
3479,"66 FULTON ST","New Haven","CT",""
3480,"LAURA ST","New Haven","CT",""
3481,"64 FULTON ST","New Haven","CT",""
3482,"62 FULTON ST","New Haven","CT",""
3483,"60 FULTON ST","New Haven","CT",""
3484,"65 LAURA ST","New Haven","CT",""
3485,"58 FULTON ST","New Haven","CT",""
3486,"55 LAURA ST","New Haven","CT",""
3487,"52 FULTON ST","New Haven","CT",""
3488,"47 LAURA ST","New Haven","CT",""
3489,"48 FULTON ST","New Haven","CT",""
3490,"LAURA ST","New Haven","CT",""
3491,"44 FULTON ST","New Haven","CT",""
3492,"43 LAURA ST","New Haven","CT",""
3493,"34 FULTON ST","New Haven","CT",""
3494,"14 FULTON ST","New Haven","CT",""
3495,"244 FORBES AV","New Haven","CT",""
3496,"234 FORBES AV","New Haven","CT",""
3497,"55 FULTON ST","New Haven","CT",""
3498,"31 FULTON ST","New Haven","CT",""
3499,"6 CHAMBERLAIN ST #1","New Haven","CT",""
3500,"8 CHAMBERLAIN ST #2","New Haven","CT",""
3501,"10 CHAMBERLAIN ST #3","New Haven","CT",""
3502,"12 CHAMBERLAIN ST #4","New Haven","CT",""
3503,"14 CHAMBERLAIN ST #5","New Haven","CT",""
3504,"16 CHAMBERLAIN ST #6","New Haven","CT",""
3505,"18 CHAMBERLAIN ST #7","New Haven","CT",""
3506,"20 CHAMBERLAIN ST #8","New Haven","CT",""
3507,"22 CHAMBERLAIN ST #9","New Haven","CT",""
3508,"24 CHAMBERLAIN ST #10","New Haven","CT",""
3509,"26 CHAMBERLAIN ST #11","New Haven","CT",""
3510,"1 CHAMBERLAIN PL","New Haven","CT",""
3511,"3 CHAMBERLAIN PL","New Haven","CT",""
3512,"5 CHAMBERLAIN PL","New Haven","CT",""
3513,"7 CHAMBERLAIN PL","New Haven","CT",""
3514,"9 CHAMBERLAIN PL","New Haven","CT",""
3515,"11 CHAMBERLAIN PL","New Haven","CT",""
3516,"15 CHAMBERLAIN PL","New Haven","CT",""
3517,"17 CHAMBERLAIN PL","New Haven","CT",""
3518,"19 CHAMBERLAIN PL","New Haven","CT",""
3519,"21 CHAMBERLAIN PL","New Haven","CT",""
3520,"46 CHAMBERLAIN ST #B","New Haven","CT",""
3521,"46 CHAMBERLAIN ST #A","New Haven","CT",""
3522,"44 CHAMBERLAIN ST #B","New Haven","CT",""
3523,"44 CHAMBERLAIN ST #A","New Haven","CT",""
3524,"42 CHAMBERLAIN ST #B","New Haven","CT",""
3525,"42 CHAMBERLAIN ST #A","New Haven","CT",""
3526,"40 CHAMBERLAIN ST #B","New Haven","CT",""
3527,"40 CHAMBERLAIN ST #A","New Haven","CT",""
3528,"34 CHAMBERLAIN ST #B","New Haven","CT",""
3529,"34 CHAMBERLAIN ST #A","New Haven","CT",""
3530,"32 CHAMBERLAIN ST #B","New Haven","CT",""
3531,"32 CHAMBERLAIN ST #A","New Haven","CT",""
3532,"30 CHAMBERLAIN ST #B","New Haven","CT",""
3533,"30 CHAMBERLAIN ST #A","New Haven","CT",""
3534,"28 CHAMBERLAIN ST #C","New Haven","CT",""
3535,"28 CHAMBERLAIN ST #B","New Haven","CT",""
3536,"28 CHAMBERLAIN ST #A","New Haven","CT",""
3537,"36 CHAMBERLAIN ST #A","New Haven","CT",""
3538,"36 CHAMBERLAIN ST #B","New Haven","CT",""
3539,"38 CHAMBERLAIN ST #A","New Haven","CT",""
3540,"38 CHAMBERLAIN ST #B","New Haven","CT",""
3541,"48 CHAMBERLAIN ST #B","New Haven","CT",""
3542,"48 CHAMBERLAIN ST #A","New Haven","CT",""
3543,"290 FORBES AV","New Haven","CT",""
3544,"282 FORBES AV","New Haven","CT",""
3545,"270 FORBES AV","New Haven","CT",""
3546,"262 FORBES AV","New Haven","CT",""
3547,"11 FULTON ST","New Haven","CT",""
3548,"13 FULTON ST","New Haven","CT",""
3549,"WATERFRONT ST","New Haven","CT",""
3550,"400 WATERFRONT ST","New Haven","CT",""
3551,"410 WATERFRONT ST","New Haven","CT",""
3552,"280 WATERFRONT ST","New Haven","CT",""
3553,"201 WATERFRONT ST","New Haven","CT",""
3554,"333 WATERFRONT ST","New Haven","CT",""
3555,"WATERFRONT ST","New Haven","CT",""
3556,"161 FORBES AV","New Haven","CT",""
3557,"153 FORBES AV","New Haven","CT",""
3558,"LONG WHARF DR","New Haven","CT",""
3559,"585 LONG WHARF DR","New Haven","CT",""
3560,"LONG WHARF DR","New Haven","CT",""
3561,"85 FORBES AV","New Haven","CT",""
3562,"500 WATERFRONT ST","New Haven","CT",""
3563,"FORBES AV","New Haven","CT",""
3564,"74 FORBES AV","New Haven","CT",""
3565,"120 FORBES AV","New Haven","CT",""
3566,"FORBES AV","New Haven","CT",""
3567,"134 FORBES AV","New Haven","CT",""
3568,"FORBES AV","New Haven","CT",""
3569,"FORBES AV","New Haven","CT",""
3570,"196 FAIRMONT AV","New Haven","CT",""
3571,"190 FAIRMONT AV","New Haven","CT",""
3572,"186 FAIRMONT AV","New Haven","CT",""
3573,"180 FAIRMONT AV","New Haven","CT",""
3574,"176 FAIRMONT AV","New Haven","CT",""
3575,"168 FAIRMONT AV","New Haven","CT",""
3576,"164 FAIRMONT AV","New Haven","CT",""
3577,"156 FAIRMONT AV","New Haven","CT",""
3578,"150 FAIRMONT AV","New Haven","CT",""
3579,"146 FAIRMONT AV","New Haven","CT",""
3580,"140 FAIRMONT AV","New Haven","CT",""
3581,"134 FAIRMONT AV","New Haven","CT",""
3582,"140 FULTON ST","New Haven","CT",""
3583,"126 FULTON ST","New Haven","CT",""
3584,"130 FULTON ST","New Haven","CT",""
3585,"106 FULTON ST","New Haven","CT",""
3586,"74 GOODWIN ST","New Haven","CT",""
3587,"64 GOODWIN ST","New Haven","CT",""
3588,"50 GOODWIN ST","New Haven","CT",""
3589,"46 GOODWIN ST","New Haven","CT",""
3590,"20 GOODWIN ST","New Haven","CT",""
3591,"102 WHEELER ST","New Haven","CT",""
3592,"FAIRMONT AV","New Haven","CT",""
3593,"GOODWIN ST","New Haven","CT",""
3594,"WHEELER ST","New Haven","CT",""
3595,"70 FERRY ST","New Haven","CT",""
3596,"270 FAIRMONT AV","New Haven","CT",""
3597,"266 FAIRMONT AV","New Haven","CT",""
3598,"258 FAIRMONT AV","New Haven","CT",""
3599,"135 FAIRMONT AV","New Haven","CT",""
3600,"139 FAIRMONT AV","New Haven","CT",""
3601,"143 FAIRMONT AV","New Haven","CT",""
3602,"153 FAIRMONT AV","New Haven","CT",""
3603,"159 FAIRMONT AV","New Haven","CT",""
3604,"163 FAIRMONT AV","New Haven","CT",""
3605,"169 FAIRMONT AV","New Haven","CT",""
3606,"175 FAIRMONT AV","New Haven","CT",""
3607,"179 FAIRMONT AV","New Haven","CT",""
3608,"181 FAIRMONT AV","New Haven","CT",""
3609,"187 FAIRMONT AV","New Haven","CT",""
3610,"193 FAIRMONT AV","New Haven","CT",""
3611,"197 FAIRMONT AV","New Haven","CT",""
3612,"LANCRAFT ST","New Haven","CT",""
3613,"24 LANCRAFT ST","New Haven","CT",""
3614,"140 FARREN AV","New Haven","CT",""
3615,"136 FARREN AV","New Haven","CT",""
3616,"126 FARREN AV","New Haven","CT",""
3617,"120 FARREN AV","New Haven","CT",""
3618,"118 FARREN AV","New Haven","CT",""
3619,"112 FARREN AV","New Haven","CT",""
3620,"106 FARREN AV","New Haven","CT",""
3621,"102 FARREN AV","New Haven","CT",""
3622,"100 FARREN AV","New Haven","CT",""
3623,"94 FARREN AV","New Haven","CT",""
3624,"101 FARREN AV","New Haven","CT",""
3625,"103 FARREN AV","New Haven","CT",""
3626,"107 FARREN AV","New Haven","CT",""
3627,"111 FARREN AV","New Haven","CT",""
3628,"117 FARREN AV","New Haven","CT",""
3629,"123 FARREN AV","New Haven","CT",""
3630,"125 FARREN AV","New Haven","CT",""
3631,"131 FARREN AV","New Haven","CT",""
3632,"139 FARREN AV","New Haven","CT",""
3633,"30 PARDEE ST","New Haven","CT",""
3634,"28 PARDEE ST","New Haven","CT",""
3635,NA,"New Haven","CT",""
3636,"18 PARDEE ST","New Haven","CT",""
3637,"14 PARDEE ST","New Haven","CT",""
3638,"10 PARDEE ST","New Haven","CT",""
3639,"6 PARDEE ST","New Haven","CT",""
3640,"222 FULTON ST","New Haven","CT",""
3641,"17 PARDEE ST","New Haven","CT",""
3642,"25 PARDEE ST","New Haven","CT",""
3643,"31 PARDEE ST","New Haven","CT",""
3644,"262 QUINNIPIAC AV","New Haven","CT",""
3645,"81 LANCRAFT ST","New Haven","CT",""
3646,"250 QUINNIPIAC AV","New Haven","CT",""
3647,"244 QUINNIPIAC AV","New Haven","CT",""
3648,"205 FAIRMONT AV","New Haven","CT",""
3649,"239 FAIRMONT AV","New Haven","CT",""
3650,"247 FAIRMONT AV","New Haven","CT",""
3651,"257 FAIRMONT AV","New Haven","CT",""
3652,"263 FAIRMONT AV","New Haven","CT",""
3653,"265 FAIRMONT AV","New Haven","CT",""
3654,"271 FAIRMONT AV","New Haven","CT",""
3655,"222 FARREN AV","New Haven","CT",""
3656,"218 FARREN AV","New Haven","CT",""
3657,"206 FARREN AV","New Haven","CT",""
3658,"200 FARREN AV","New Haven","CT",""
3659,"196 FARREN AV","New Haven","CT",""
3660,"194 FARREN AV","New Haven","CT",""
3661,"190 FARREN AV","New Haven","CT",""
3662,"186 FARREN AV","New Haven","CT",""
3663,"182 FARREN AV","New Haven","CT",""
3664,"180 FARREN AV","New Haven","CT",""
3665,"174 FARREN AV","New Haven","CT",""
3666,"168 FARREN AV","New Haven","CT",""
3667,"162 FARREN AV","New Haven","CT",""
3668,"156 FARREN AV","New Haven","CT",""
3669,"154 FARREN AV","New Haven","CT",""
3670,"150 FARREN AV","New Haven","CT",""
3671,"146 FARREN AV","New Haven","CT",""
3672,"18 LANCRAFT ST","New Haven","CT",""
3673,"147 FARREN AV","New Haven","CT",""
3674,"157 FARREN AV","New Haven","CT",""
3675,"161 FARREN AV","New Haven","CT",""
3676,"165 FARREN AV","New Haven","CT",""
3677,"169 FARREN AV","New Haven","CT",""
3678,"173 FARREN AV","New Haven","CT",""
3679,"179 FARREN AV","New Haven","CT",""
3680,"183 FARREN AV","New Haven","CT",""
3681,"185 FARREN AV","New Haven","CT",""
3682,"189 FARREN AV","New Haven","CT",""
3683,"193 FARREN AV","New Haven","CT",""
3684,"197 FARREN AV","New Haven","CT",""
3685,"201 FARREN AV","New Haven","CT",""
3686,"205 FARREN AV","New Haven","CT",""
3687,"209 FARREN AV","New Haven","CT",""
3688,"215 FARREN AV","New Haven","CT",""
3689,"217 FARREN AV","New Haven","CT",""
3690,"221 FARREN AV","New Haven","CT",""
3691,NA,"New Haven","CT",""
3692,"223 FARREN AV","New Haven","CT",""
3693,"32 FERRY ST","New Haven","CT",""
3694,"88 PARDEE ST","New Haven","CT",""
3695,NA,"New Haven","CT",""
3696,"84 PARDEE ST","New Haven","CT",""
3697,"82 PARDEE ST","New Haven","CT",""
3698,"80 PARDEE ST","New Haven","CT",""
3699,"PARDEE ST","New Haven","CT",""
3700,"PARDEE ST","New Haven","CT",""
3701,"60 PARDEE ST","New Haven","CT",""
3702,"56 PARDEE ST","New Haven","CT",""
3703,"PARDEE ST","New Haven","CT",""
3704,"37 LANCRAFT ST","New Haven","CT",""
3705,"35 LANCRAFT ST","New Haven","CT",""
3706,"35 PARDEE ST","New Haven","CT",""
3707,"43 PARDEE ST","New Haven","CT",""
3708,"47 PARDEE ST","New Haven","CT",""
3709,"51 PARDEE ST","New Haven","CT",""
3710,"61 PARDEE ST","New Haven","CT",""
3711,"69 PARDEE ST","New Haven","CT",""
3712,"75 PARDEE ST","New Haven","CT",""
3713,"79 PARDEE ST","New Haven","CT",""
3714,"85 PARDEE ST","New Haven","CT",""
3715,"87 PARDEE ST","New Haven","CT",""
3716,"89 PARDEE ST","New Haven","CT",""
3717,"95 PARDEE ST","New Haven","CT",""
3718,"99 PARDEE ST","New Haven","CT",""
3719,"105 PARDEE ST","New Haven","CT",""
3720,"320 QUINNIPIAC AV #1-A","New Haven","CT",""
3721,"320 QUINNIPIAC AV #1-B","New Haven","CT",""
3722,"320 QUINNIPIAC AV #1-C","New Haven","CT",""
3723,"320 QUINNIPIAC AV #1-D","New Haven","CT",""
3724,"320 QUINNIPIAC AV #1-E","New Haven","CT",""
3725,"320 QUINNIPIAC AV #1-F","New Haven","CT",""
3726,"320 QUINNIPIAC AV #2-A","New Haven","CT",""
3727,"320 QUINNIPIAC AV #2-B","New Haven","CT",""
3728,"320 QUINNIPIAC AV #2-C","New Haven","CT",""
3729,"320 QUINNIPIAC AV #2-D","New Haven","CT",""
3730,"320 QUINNIPIAC AV #2-E","New Haven","CT",""
3731,"320 QUINNIPIAC AV #2-F","New Haven","CT",""
3732,"320 QUINNIPIAC AV #3-A","New Haven","CT",""
3733,"320 QUINNIPIAC AV #3-B","New Haven","CT",""
3734,"320 QUINNIPIAC AV #3-C","New Haven","CT",""
3735,"320 QUINNIPIAC AV #3-D","New Haven","CT",""
3736,"320 QUINNIPIAC AV #3-E","New Haven","CT",""
3737,"320 QUINNIPIAC AV #3-F","New Haven","CT",""
3738,"320 QUINNIPIAC AV #4-A","New Haven","CT",""
3739,"320 QUINNIPIAC AV #4-B","New Haven","CT",""
3740,"320 QUINNIPIAC AV #4-C","New Haven","CT",""
3741,"320 QUINNIPIAC AV #4-D","New Haven","CT",""
3742,"320 QUINNIPIAC AV #4-E","New Haven","CT",""
3743,"320 QUINNIPIAC AV #4-F","New Haven","CT",""
3744,"320 QUINNIPIAC AV #5-A","New Haven","CT",""
3745,"320 QUINNIPIAC AV #5-B","New Haven","CT",""
3746,"320 QUINNIPIAC AV #5-C","New Haven","CT",""
3747,"320 QUINNIPIAC AV #5-D","New Haven","CT",""
3748,"320 QUINNIPIAC AV #5-E","New Haven","CT",""
3749,"320 QUINNIPIAC AV #5-F","New Haven","CT",""
3750,"320 QUINNIPIAC AV #6-A","New Haven","CT",""
3751,"320 QUINNIPIAC AV #6-B","New Haven","CT",""
3752,"320 QUINNIPIAC AV #6-C","New Haven","CT",""
3753,"320 QUINNIPIAC AV #6-D","New Haven","CT",""
3754,"320 QUINNIPIAC AV #6-E","New Haven","CT",""
3755,"320 QUINNIPIAC AV #6-F","New Haven","CT",""
3756,"320 QUINNIPIAC AV #7-A","New Haven","CT",""
3757,"320 QUINNIPIAC AV #7-B","New Haven","CT",""
3758,"320 QUINNIPIAC AV #7-C","New Haven","CT",""
3759,"320 QUINNIPIAC AV #7-D","New Haven","CT",""
3760,"320 QUINNIPIAC AV #7-E","New Haven","CT",""
3761,"320 QUINNIPIAC AV #7-F","New Haven","CT",""
3762,"12 FERRY ST","New Haven","CT",""
3763,"4 FERRY ST","New Haven","CT",""
3764,"332 QUINNIPIAC AV","New Haven","CT",""
3765,"318 QUINNIPIAC AV","New Haven","CT",""
3766,"310 QUINNIPIAC AV","New Haven","CT",""
3767,"300 QUINNIPIAC AV","New Haven","CT",""
3768,"294 QUINNIPIAC AV","New Haven","CT",""
3769,"288 QUINNIPIAC AV","New Haven","CT",""
3770,"282 QUINNIPIAC AV","New Haven","CT",""
3771,"274 QUINNIPIAC AV","New Haven","CT",""
3772,"82 LANCRAFT ST","New Haven","CT",""
3773,"78 LANCRAFT ST","New Haven","CT",""
3774,"171 QUINNIPIAC AV","New Haven","CT",""
3775,"209 QUINNIPIAC AV","New Haven","CT",""
3776,"215 QUINNIPIAC AV","New Haven","CT",""
3777,"15 JUDITH TER","New Haven","CT",""
3778,"25 JUDITH TER","New Haven","CT",""
3779,"39 JUDITH TER","New Haven","CT",""
3780,"51 JUDITH TER","New Haven","CT",""
3781,"61 JUDITH TER","New Haven","CT",""
3782,"73 JUDITH TER","New Haven","CT",""
3783,"79 JUDITH TER","New Haven","CT",""
3784,"85 JUDITH TER","New Haven","CT",""
3785,"93 JUDITH TER","New Haven","CT",""
3786,"101 JUDITH TER","New Haven","CT",""
3787,"RIVERVIEW RD","New Haven","CT",""
3788,"4 WARWICK ST #1","New Haven","CT",""
3789,"4 WARWICK ST #2","New Haven","CT",""
3790,"4 WARWICK ST #3","New Haven","CT",""
3791,"4 WARWICK ST #4","New Haven","CT",""
3792,"4 WARWICK ST #5","New Haven","CT",""
3793,"4 WARWICK ST #6","New Haven","CT",""
3794,"4 WARWICK ST #7","New Haven","CT",""
3795,"4 WARWICK ST #8","New Haven","CT",""
3796,"4 WARWICK ST #9","New Haven","CT",""
3797,"4 WARWICK ST #10","New Haven","CT",""
3798,"4 WARWICK ST #11","New Haven","CT",""
3799,"4 WARWICK ST #12","New Haven","CT",""
3800,"4 WARWICK ST #13","New Haven","CT",""
3801,"4 WARWICK ST #14","New Haven","CT",""
3802,"4 WARWICK ST #15","New Haven","CT",""
3803,"4 WARWICK ST #16","New Haven","CT",""
3804,"4 WARWICK ST #17","New Haven","CT",""
3805,"4 WARWICK ST #18","New Haven","CT",""
3806,"4 WARWICK ST #19","New Haven","CT",""
3807,"4 WARWICK ST #20","New Haven","CT",""
3808,"20 WARWICK ST #1","New Haven","CT",""
3809,"20 WARWICK ST #2","New Haven","CT",""
3810,"20 WARWICK ST #3","New Haven","CT",""
3811,"20 WARWICK ST #4","New Haven","CT",""
3812,"20 WARWICK ST #5","New Haven","CT",""
3813,"20 WARWICK ST #6","New Haven","CT",""
3814,"30 WARWICK ST","New Haven","CT",""
3815,"RUSSELL ST","New Haven","CT",""
3816,"225 QUINNIPIAC AV","New Haven","CT",""
3817,"227 QUINNIPIAC AV","New Haven","CT",""
3818,"233 QUINNIPIAC AV","New Haven","CT",""
3819,"241 QUINNIPIAC AV","New Haven","CT",""
3820,"253 QUINNIPIAC AV","New Haven","CT",""
3821,"257 QUINNIPIAC AV","New Haven","CT",""
3822,"263 QUINNIPIAC AV","New Haven","CT",""
3823,"269 QUINNIPIAC AV","New Haven","CT",""
3824,"285 QUINNIPIAC AV","New Haven","CT",""
3825,"289 QUINNIPIAC AV","New Haven","CT",""
3826,"25 WARWICK ST","New Haven","CT",""
3827,"27 WARWICK ST","New Haven","CT",""
3828,"29 WARWICK ST","New Haven","CT",""
3829,"31 WARWICK ST","New Haven","CT",""
3830,"35 WARWICK ST","New Haven","CT",""
3831,"49 WARWICK ST","New Haven","CT",""
3832,NA,"New Haven","CT",""
3833,"53 WARWICK ST","New Haven","CT",""
3834,"61 WARWICK ST","New Haven","CT",""
3835,"69 WARWICK ST","New Haven","CT",""
3836,"18 CABOT ST","New Haven","CT",""
3837,"10 CABOT ST","New Haven","CT",""
3838,"6 CABOT ST","New Haven","CT",""
3839,"9 CABOT ST","New Haven","CT",""
3840,"11 CABOT ST","New Haven","CT",""
3841,"13 CABOT ST","New Haven","CT",""
3842,"15 CABOT ST","New Haven","CT",""
3843,"25 CABOT ST","New Haven","CT",""
3844,"37 CABOT ST","New Haven","CT",""
3845,"41 CABOT ST","New Haven","CT",""
3846,"122 CROFTON ST","New Haven","CT",""
3847,"116 CROFTON ST","New Haven","CT",""
3848,"106 CROFTON ST","New Haven","CT",""
3849,"CROFTON ST","New Haven","CT",""
3850,"100 CROFTON ST","New Haven","CT",""
3851,"70 CROFTON ST","New Haven","CT",""
3852,"44 CROFTON ST","New Haven","CT",""
3853,NA,"New Haven","CT",""
3854,NA,"New Haven","CT",""
3855,NA,"New Haven","CT",""
3856,NA,"New Haven","CT",""
3857,NA,"New Haven","CT",""
3858,NA,"New Haven","CT",""
3859,NA,"New Haven","CT",""
3860,NA,"New Haven","CT",""
3861,NA,"New Haven","CT",""
3862,"84 JUDITH TER","New Haven","CT",""
3863,"78 JUDITH TER","New Haven","CT",""
3864,"70 JUDITH TER","New Haven","CT",""
3865,"66 JUDITH TER","New Haven","CT",""
3866,"54 JUDITH TER","New Haven","CT",""
3867,"50 JUDITH TER","New Haven","CT",""
3868,"44 JUDITH TER","New Haven","CT",""
3869,"40 JUDITH TER","New Haven","CT",""
3870,"28 JUDITH TER","New Haven","CT",""
3871,"22 JUDITH TER","New Haven","CT",""
3872,"RUSSELL ST","New Haven","CT",""
3873,"74 WARWICK ST","New Haven","CT",""
3874,"100 WARWICK ST","New Haven","CT",""
3875,"BURWELL ST","New Haven","CT",""
3876,"RUSSELL ST","New Haven","CT",""
3877,"215 BURWELL ST","New Haven","CT",""
3878,"5 RUSSELL ST","New Haven","CT",""
3879,"15 RUSSELL ST","New Haven","CT",""
3880,"25 RUSSELL ST","New Haven","CT",""
3881,"87 WARWICK ST","New Haven","CT",""
3882,"WARWICK ST","New Haven","CT",""
3883,"CABOT ST","New Haven","CT",""
3884,"99 WARWICK ST","New Haven","CT",""
3885,"107 WARWICK ST","New Haven","CT",""
3886,"210 BURWELL ST","New Haven","CT",""
3887,"84 CABOT ST","New Haven","CT",""
3888,"80 CABOT ST","New Haven","CT",""
3889,"78 CABOT ST","New Haven","CT",""
3890,"CABOT ST","New Haven","CT",""
3891,"CABOT ST","New Haven","CT",""
3892,"100 RUSSELL ST","New Haven","CT",""
3893,"124 RUSSELL ST","New Haven","CT",""
3894,"132 RUSSELL ST","New Haven","CT",""
3895,"140 RUSSELL ST","New Haven","CT",""
3896,"154 RUSSELL ST","New Haven","CT",""
3897,"160 RUSSELL ST","New Haven","CT",""
3898,"166 RUSSELL ST","New Haven","CT",""
3899,"51 RUSSELL ST","New Haven","CT",""
3900,"63 RUSSELL ST","New Haven","CT",""
3901,"89 RUSSELL ST","New Haven","CT",""
3902,"RUSSELL ST","New Haven","CT",""
3903,"115 RUSSELL ST","New Haven","CT",""
3904,"RUSSELL ST","New Haven","CT",""
3905,"RUSSELL ST","New Haven","CT",""
3906,"RUSSELL ST","New Haven","CT",""
3907,"178 RUSSELL ST","New Haven","CT",""
3908,"172 RUSSELL ST","New Haven","CT",""
3909,"184 RUSSELL ST","New Haven","CT",""
3910,"143 RUSSELL ST","New Haven","CT",""
3911,"RUSSELL ST","New Haven","CT",""
3912,"147 RUSSELL ST","New Haven","CT",""
3913,"149 RUSSELL ST","New Haven","CT",""
3914,"RUSSELL ST","New Haven","CT",""
3915,"171 RUSSELL ST","New Haven","CT",""
3916,"175 RUSSELL ST","New Haven","CT",""
3917,"181 RUSSELL ST","New Haven","CT",""
3918,"201 RUSSELL ST","New Haven","CT",""
3919,"203 RUSSELL ST","New Haven","CT",""
3920,"RUSSELL ST","New Haven","CT",""
3921,"223 RUSSELL ST","New Haven","CT",""
3922,"231 RUSSELL ST","New Haven","CT",""
3923,"235 RUSSELL ST","New Haven","CT",""
3924,"245 RUSSELL ST","New Haven","CT",""
3925,"257 RUSSELL ST","New Haven","CT",""
3926,"RUSSELL ST","New Haven","CT",""
3927,"269 RUSSELL ST","New Haven","CT",""
3928,"273 RUSSELL ST","New Haven","CT",""
3929,"275 RUSSELL ST","New Haven","CT",""
3930,"89 HIGHVIEW LA","New Haven","CT",""
3931,"83 HIGHVIEW LA","New Haven","CT",""
3932,"79 HIGHVIEW LA","New Haven","CT",""
3933,"38 SLEEPY HOLLOW CIR #6","New Haven","CT",""
3934,"44 SLEEPY HOLLOW CIR #7","New Haven","CT",""
3935,"52 SLEEPY HOLLOW CIR #8","New Haven","CT",""
3936,"60 SLEEPY HOLLOW CIR #9","New Haven","CT",""
3937,"70 SLEEPY HOLLOW CIR #10","New Haven","CT",""
3938,"76 SLEEPY HOLLOW CIR #11","New Haven","CT",""
3939,"84 SLEEPY HOLLOW CIR #12","New Haven","CT",""
3940,"76 HIGHVIEW LA","New Haven","CT",""
3941,"82 HIGHVIEW LA","New Haven","CT",""
3942,"88 HIGHVIEW LA","New Haven","CT",""
3943,"94 HIGHVIEW LA","New Haven","CT",""
3944,"94 HIGHVIEW LA","New Haven","CT",""
3945,"146 SUMMIT ST","New Haven","CT",""
3946,"140 SUMMIT ST","New Haven","CT",""
3947,"130 SUMMIT ST","New Haven","CT",""
3948,"120 SUMMIT ST","New Haven","CT",""
3949,"220 RUSSELL ST","New Haven","CT",""
3950,"200 RUSSELL ST","New Haven","CT",""
3951,"RUSSELL ST","New Haven","CT",""
3952,"264 RUSSELL ST","New Haven","CT",""
3953,"248 RUSSELL ST","New Haven","CT",""
3954,"240 RUSSELL ST","New Haven","CT",""
3955,"228 RUSSELL ST","New Haven","CT",""
3956,"RUSSELL ST","New Haven","CT",""
3957,"153 SUMMIT ST","New Haven","CT",""
3958,"139 SUMMIT ST","New Haven","CT",""
3959,"141 SUMMIT ST","New Haven","CT",""
3960,"135 SUMMIT ST","New Haven","CT",""
3961,"137 SUMMIT ST","New Haven","CT",""
3962,"143 SUMMIT ST","New Haven","CT",""
3963,"145 SUMMIT ST","New Haven","CT",""
3964,"147 SUMMIT ST","New Haven","CT",""
3965,"155 SUMMIT ST","New Haven","CT",""
3966,"151 SUMMIT ST","New Haven","CT",""
3967,"RUSSELL ST","New Haven","CT",""
3968,"22 LEXINGTON AV","New Haven","CT",""
3969,"24 LEXINGTON AV","New Haven","CT",""
3970,"28 LEXINGTON AV","New Haven","CT",""
3971,"32 LEXINGTON AV","New Haven","CT",""
3972,"38 LEXINGTON AV","New Haven","CT",""
3973,"48 LEXINGTON AV","New Haven","CT",""
3974,"56 LEXINGTON AV","New Haven","CT",""
3975,"72 LEXINGTON AV","New Haven","CT",""
3976,"80 LEXINGTON AV","New Haven","CT",""
3977,"86 LEXINGTON AV","New Haven","CT",""
3978,"90 LEXINGTON AV","New Haven","CT",""
3979,"92 LEXINGTON AV","New Haven","CT",""
3980,"96 LEXINGTON AV","New Haven","CT",""
3981,"LEXINGTON AV","New Haven","CT",""
3982,"110 LEXINGTON AV #A","New Haven","CT",""
3983,"110 LEXINGTON AV #B","New Haven","CT",""
3984,"110 LEXINGTON AV #C","New Haven","CT",""
3985,"124 LEXINGTON AV","New Haven","CT",""
3986,"130 LEXINGTON AV #A","New Haven","CT",""
3987,"130 LEXINGTON AV #B","New Haven","CT",""
3988,"130 LEXINGTON AV #C","New Haven","CT",""
3989,"140 LEXINGTON AV","New Haven","CT",""
3990,"5 REVERE ST","New Haven","CT",""
3991,"111 LENOX ST","New Haven","CT",""
3992,"97 LENOX ST","New Haven","CT",""
3993,"114 LEXINGTON AV #D","New Haven","CT",""
3994,"114 LEXINGTON AV #E","New Haven","CT",""
3995,"114 LEXINGTON AV #F","New Haven","CT",""
3996,"114 LEXINGTON AV #G","New Haven","CT",""
3997,"114 LEXINGTON AV #H","New Haven","CT",""
3998,"95 LENOX ST #I","New Haven","CT",""
3999,"95 LENOX ST #J","New Haven","CT",""
4000,"95 LENOX ST #K","New Haven","CT",""
