"pid","location","city","state","zip"
7001,"1555 STATE ST","New Haven","CT",""
7002,"1563 STATE ST","New Haven","CT",""
7003,"1573 STATE ST","New Haven","CT",""
7004,"STATE ST","New Haven","CT",""
7005,"1579 STATE ST","New Haven","CT",""
7006,"1585 STATE ST","New Haven","CT",""
7007,"CLINTON AV","New Haven","CT",""
7008,"1410 STATE ST #1","New Haven","CT",""
7009,"1410 STATE ST #2","New Haven","CT",""
7010,"1410 STATE ST #3","New Haven","CT",""
7011,"1410 STATE ST #4","New Haven","CT",""
7012,"1410 STATE ST #5","New Haven","CT",""
7013,NA,"New Haven","CT",""
7014,"1410 STATE ST #7","New Haven","CT",""
7015,"1410 STATE ST #8","New Haven","CT",""
7016,"1412 STATE ST","New Haven","CT",""
7017,"1414 STATE ST","New Haven","CT",""
7018,"1416 STATE ST","New Haven","CT",""
7019,"1418 STATE ST","New Haven","CT",""
7020,"385 CLINTON AV","New Haven","CT",""
7021,"1425 STATE ST","New Haven","CT",""
7022,"1439 STATE ST","New Haven","CT",""
7023,"1447 STATE ST","New Haven","CT",""
7024,"1455 STATE ST","New Haven","CT",""
7025,"1465 STATE ST","New Haven","CT",""
7026,"1469 STATE ST","New Haven","CT",""
7027,"1473 STATE ST","New Haven","CT",""
7028,"1493 STATE ST","New Haven","CT",""
7029,"1495 STATE ST","New Haven","CT",""
7030,"1503 STATE ST","New Haven","CT",""
7031,"STATE ST","New Haven","CT",""
7032,"1515 STATE ST","New Haven","CT",""
7033,"LYMAN ST","New Haven","CT",""
7034,"10 LYMAN ST","New Haven","CT",""
7035,"CLINTON AV","New Haven","CT",""
7036,"1529 STATE ST","New Haven","CT",""
7037,"9 LYMAN ST","New Haven","CT",""
7038,"5 LYMAN ST","New Haven","CT",""
7039,"1 LYMAN ST","New Haven","CT",""
7040,"1533 STATE ST","New Haven","CT",""
7041,"CLINTON AV","New Haven","CT",""
7042,NA,"New Haven","CT",""
7043,"4 MIDDLETOWN AV","New Haven","CT",""
7044,"MIDDLETOWN AV","New Haven","CT",""
7045,"MIDDLETOWN AV","New Haven","CT",""
7046,"MIDDLETOWN AV","New Haven","CT",""
7047,"8 MIDDLETOWN AV","New Haven","CT",""
7048,"34 MIDDLETOWN AV","New Haven","CT",""
7049,"42 MIDDLETOWN AV","New Haven","CT",""
7050,"FAWN ST","New Haven","CT",""
7051,"46 MIDDLETOWN AV","New Haven","CT",""
7052,"58 MIDDLETOWN AV","New Haven","CT",""
7053,"CLINTON AV","New Haven","CT",""
7054,"72 MIDDLETOWN AV","New Haven","CT",""
7055,"1331 STATE ST","New Haven","CT",""
7056,"1345 STATE ST","New Haven","CT",""
7057,"1351 STATE ST","New Haven","CT",""
7058,"1355 STATE ST","New Haven","CT",""
7059,"1359 STATE ST","New Haven","CT",""
7060,"1361 STATE ST","New Haven","CT",""
7061,"1365 STATE ST","New Haven","CT",""
7062,"1375 STATE ST","New Haven","CT",""
7063,"1395 STATE ST","New Haven","CT",""
7064,"1397 STATE ST","New Haven","CT",""
7065,"STATE ST","New Haven","CT",""
7066,"1415 STATE ST","New Haven","CT",""
7067,"200 DOVER ST","New Haven","CT",""
7068,"196 DOVER ST","New Haven","CT",""
7069,"194 DOVER ST","New Haven","CT",""
7070,"190 DOVER ST","New Haven","CT",""
7071,"184 DOVER ST","New Haven","CT",""
7072,"180 DOVER ST","New Haven","CT",""
7073,"176 DOVER ST","New Haven","CT",""
7074,"172 DOVER ST","New Haven","CT",""
7075,"168 DOVER ST","New Haven","CT",""
7076,"164 DOVER ST","New Haven","CT",""
7077,"160 DOVER ST","New Haven","CT",""
7078,"222 ATWATER ST","New Haven","CT",""
7079,"218 ATWATER ST","New Haven","CT",""
7080,"155 ENGLISH ST","New Haven","CT",""
7081,"159 ENGLISH ST","New Haven","CT",""
7082,"163 ENGLISH ST","New Haven","CT",""
7083,"167 ENGLISH ST","New Haven","CT",""
7084,"171 ENGLISH ST","New Haven","CT",""
7085,"175 ENGLISH ST","New Haven","CT",""
7086,"179 ENGLISH ST","New Haven","CT",""
7087,"183 ENGLISH ST","New Haven","CT",""
7088,"187 ENGLISH ST","New Haven","CT",""
7089,"191 ENGLISH ST","New Haven","CT",""
7090,"195 ENGLISH ST","New Haven","CT",""
7091,"143 ROWE ST","New Haven","CT",""
7092,"147 ROWE ST","New Haven","CT",""
7093,"211 ATWATER ST","New Haven","CT",""
7094,"148 DOVER ST","New Haven","CT",""
7095,"146 DOVER ST","New Haven","CT",""
7096,"142 DOVER ST","New Haven","CT",""
7097,"138 DOVER ST","New Haven","CT",""
7098,"27 CLINTON PL","New Haven","CT",""
7099,"203 ATWATER ST","New Haven","CT",""
7100,"205 ATWATER ST","New Haven","CT",""
7101,"207 ATWATER ST","New Haven","CT",""
7102,"270 CLINTON AV","New Haven","CT",""
7103,"276 CLINTON AV","New Haven","CT",""
7104,"278 CLINTON AV","New Haven","CT",""
7105,"293 CLINTON AV","New Haven","CT",""
7106,"28 BAILEY ST","New Haven","CT",""
7107,"CLINTON AV","New Haven","CT",""
7108,"199 DOVER ST","New Haven","CT",""
7109,"193 DOVER ST","New Haven","CT",""
7110,"185 DOVER ST","New Haven","CT",""
7111,"181 DOVER ST","New Haven","CT",""
7112,"175 DOVER ST","New Haven","CT",""
7113,"242 ATWATER ST","New Haven","CT",""
7114,"244 ATWATER ST","New Haven","CT",""
7115,"246 ATWATER ST","New Haven","CT",""
7116,"34 WILCOX PL","New Haven","CT",""
7117,"248 ATWATER ST","New Haven","CT",""
7118,"159 DOVER ST","New Haven","CT",""
7119,"153 DOVER ST","New Haven","CT",""
7120,"149 DOVER ST","New Haven","CT",""
7121,"141 DOVER ST","New Haven","CT",""
7122,"139 DOVER ST","New Haven","CT",""
7123,"135 DOVER ST","New Haven","CT",""
7124,"247 ATWATER ST","New Haven","CT",""
7125,"7 WILCOX PL","New Haven","CT",""
7126,"5 WILCOX PL","New Haven","CT",""
7127,"1 WILCOX PL","New Haven","CT",""
7128,"306 CLINTON AV","New Haven","CT",""
7129,"296 CLINTON AV","New Haven","CT",""
7130,"290 CLINTON AV","New Haven","CT",""
7131,"286 CLINTON AV","New Haven","CT",""
7132,"284 CLINTON AV","New Haven","CT",""
7133,"65 BAILEY ST","New Haven","CT",""
7134,"63 BAILEY ST","New Haven","CT",""
7135,"BAILEY ST","New Haven","CT",""
7136,"41 BAILEY ST","New Haven","CT",""
7137,"31 BAILEY ST","New Haven","CT",""
7138,"21 BAILEY ST","New Haven","CT",""
7139,"CLINTON AV","New Haven","CT",""
7140,"CLINTON AV","New Haven","CT",""
7141,"201 ATWATER ST","New Haven","CT",""
7142,"137 ENGLISH ST","New Haven","CT",""
7143,"141 ENGLISH ST","New Haven","CT",""
7144,"145 ENGLISH ST","New Haven","CT",""
7145,"197 ATWATER ST","New Haven","CT",""
7146,"199 ATWATER ST","New Haven","CT",""
7147,"256 CLINTON AV","New Haven","CT",""
7148,"260 CLINTON AV","New Haven","CT",""
7149,"264 CLINTON AV","New Haven","CT",""
7150,"71 LOMBARD ST","New Haven","CT",""
7151,"105 DOWNING ST","New Haven","CT",""
7152,NA,"New Haven","CT",""
7153,"378 FRONT ST","New Haven","CT",""
7154,"374 FRONT ST","New Haven","CT",""
7155,"370 FRONT ST","New Haven","CT",""
7156,"366 FRONT ST","New Haven","CT",""
7157,"360 FRONT ST","New Haven","CT",""
7158,"13 LOMBARD ST","New Haven","CT",""
7159,"17 LOMBARD ST","New Haven","CT",""
7160,"21 LOMBARD ST","New Haven","CT",""
7161,"27 LOMBARD ST","New Haven","CT",""
7162,"31 LOMBARD ST","New Haven","CT",""
7163,"37 LOMBARD ST","New Haven","CT",""
7164,NA,"New Haven","CT",""
7165,"45 LOMBARD ST","New Haven","CT",""
7166,"57 LOMBARD ST","New Haven","CT",""
7167,"63 LOMBARD ST","New Haven","CT",""
7168,"FRONT ST","New Haven","CT",""
7169,"436 FRONT ST","New Haven","CT",""
7170,"440 FRONT ST","New Haven","CT",""
7171,"192 CHATHAM ST","New Haven","CT",""
7172,"188 CHATHAM ST","New Haven","CT",""
7173,"184 CHATHAM ST","New Haven","CT",""
7174,"180 CHATHAM ST","New Haven","CT",""
7175,"176 CHATHAM ST","New Haven","CT",""
7176,"172 CHATHAM ST","New Haven","CT",""
7177,"168 CHATHAM ST","New Haven","CT",""
7178,"138 ATWATER ST","New Haven","CT",""
7179,"134 ATWATER ST","New Haven","CT",""
7180,"130 ATWATER ST","New Haven","CT",""
7181,"126 ATWATER ST","New Haven","CT",""
7182,"124 ATWATER ST","New Haven","CT",""
7183,"122 ATWATER ST","New Haven","CT",""
7184,"120 ATWATER ST","New Haven","CT",""
7185,"118 ATWATER ST","New Haven","CT",""
7186,"119 GRAFTON ST","New Haven","CT",""
7187,"123 GRAFTON ST","New Haven","CT",""
7188,"125 GRAFTON ST","New Haven","CT",""
7189,"129 GRAFTON ST","New Haven","CT",""
7190,"133 GRAFTON ST","New Haven","CT",""
7191,"29 ROWE ST","New Haven","CT",""
7192,"33 ROWE ST","New Haven","CT",""
7193,"37 ROWE ST","New Haven","CT",""
7194,"41 ROWE ST","New Haven","CT",""
7195,"45 ROWE ST","New Haven","CT",""
7196,"156 CHATHAM ST","New Haven","CT",""
7197,"152 CHATHAM ST","New Haven","CT",""
7198,"148 CHATHAM ST","New Haven","CT",""
7199,"144 CHATHAM ST","New Haven","CT",""
7200,"140 CHATHAM ST","New Haven","CT",""
7201,"136 CHATHAM ST","New Haven","CT",""
7202,"134 CHATHAM ST","New Haven","CT",""
7203,"182 CLINTON AV","New Haven","CT",""
7204,"176 CLINTON AV","New Haven","CT",""
7205,"168 CLINTON AV","New Haven","CT",""
7206,"164 CLINTON AV","New Haven","CT",""
7207,"154 CLINTON AV","New Haven","CT",""
7208,"79 GRAFTON ST","New Haven","CT",""
7209,"83 GRAFTON ST","New Haven","CT",""
7210,"87 GRAFTON ST","New Haven","CT",""
7211,"123 ATWATER ST","New Haven","CT",""
7212,"127 ATWATER ST","New Haven","CT",""
7213,"131 ATWATER ST","New Haven","CT",""
7214,"137 ATWATER ST","New Haven","CT",""
7215,"CLINTON AV","New Haven","CT",""
7216,"57 MALTBY ST","New Haven","CT",""
7217,"64 CHATHAM ST","New Haven","CT",""
7218,"60 CHATHAM ST","New Haven","CT",""
7219,"66 DOWNING ST","New Haven","CT",""
7220,"62 DOWNING ST","New Haven","CT",""
7221,"58 DOWNING ST","New Haven","CT",""
7222,"54 DOWNING ST","New Haven","CT",""
7223,"50 DOWNING ST","New Haven","CT",""
7224,"46 DOWNING ST","New Haven","CT",""
7225,"44 DOWNING ST","New Haven","CT",""
7226,"40 DOWNING ST","New Haven","CT",""
7227,"7 GRAFTON ST","New Haven","CT",""
7228,"17 GRAFTON ST","New Haven","CT",""
7229,"29 MALTBY ST","New Haven","CT",""
7230,"33 MALTBY ST","New Haven","CT",""
7231,"37 MALTBY ST","New Haven","CT",""
7232,"41 MALTBY ST","New Haven","CT",""
7233,"45 MALTBY ST","New Haven","CT",""
7234,"49 MALTBY ST","New Haven","CT",""
7235,"53 MALTBY ST","New Haven","CT",""
7236,"284 LOMBARD ST","New Haven","CT",""
7237,"278 LOMBARD ST","New Haven","CT",""
7238,"272 LOMBARD ST","New Haven","CT",""
7239,"268 LOMBARD ST","New Haven","CT",""
7240,"264 LOMBARD ST","New Haven","CT",""
7241,"260 LOMBARD ST","New Haven","CT",""
7242,"256 LOMBARD ST","New Haven","CT",""
7243,"252 LOMBARD ST","New Haven","CT",""
7244,"248 LOMBARD ST","New Haven","CT",""
7245,"244 LOMBARD ST","New Haven","CT",""
7246,"240 LOMBARD ST","New Haven","CT",""
7247,"160 ATWATER ST","New Haven","CT",""
7248,"156 ATWATER ST","New Haven","CT",""
7249,"155 CHATHAM ST","New Haven","CT",""
7250,"159 CHATHAM ST","New Haven","CT",""
7251,"163 CHATHAM ST","New Haven","CT",""
7252,"167 CHATHAM ST","New Haven","CT",""
7253,"169 CHATHAM ST","New Haven","CT",""
7254,"171 CHATHAM ST","New Haven","CT",""
7255,"175 CHATHAM ST","New Haven","CT",""
7256,"179 CHATHAM ST","New Haven","CT",""
7257,"183 CHATHAM ST","New Haven","CT",""
7258,"187 CHATHAM ST","New Haven","CT",""
7259,"191 CHATHAM ST","New Haven","CT",""
7260,"69 ROWE ST","New Haven","CT",""
7261,"73 ROWE ST","New Haven","CT",""
7262,"222 LOMBARD ST","New Haven","CT",""
7263,"218 LOMBARD ST","New Haven","CT",""
7264,"214 LOMBARD ST","New Haven","CT",""
7265,"210 LOMBARD ST","New Haven","CT",""
7266,"206 LOMBARD ST","New Haven","CT",""
7267,"202 LOMBARD ST","New Haven","CT",""
7268,"212 CLINTON AV","New Haven","CT",""
7269,"208 CLINTON AV","New Haven","CT",""
7270,"204 CLINTON AV","New Haven","CT",""
7271,"200 CLINTON AV","New Haven","CT",""
7272,"196 CLINTON AV","New Haven","CT",""
7273,"192 CLINTON AV","New Haven","CT",""
7274,"188 CLINTON AV","New Haven","CT",""
7275,"184 CLINTON AV","New Haven","CT",""
7276,"125 CHATHAM ST","New Haven","CT",""
7277,"129 CHATHAM ST","New Haven","CT",""
7278,"141 CHATHAM ST","New Haven","CT",""
7279,"147 ATWATER ST","New Haven","CT",""
7280,"151 ATWATER ST","New Haven","CT",""
7281,"155 ATWATER ST","New Haven","CT",""
7282,"159 ATWATER ST","New Haven","CT",""
7283,"163 ATWATER ST","New Haven","CT",""
7284,"168 LOMBARD ST","New Haven","CT",""
7285,"164 LOMBARD ST","New Haven","CT",""
7286,"158 LOMBARD ST","New Haven","CT",""
7287,"150 LOMBARD ST","New Haven","CT",""
7288,"146 LOMBARD ST","New Haven","CT",""
7289,"142 LOMBARD ST","New Haven","CT",""
7290,"138 LOMBARD ST","New Haven","CT",""
7291,"134 LOMBARD ST","New Haven","CT",""
7292,"130 LOMBARD ST","New Haven","CT",""
7293,"81 CHATHAM ST","New Haven","CT",""
7294,"87 CHATHAM ST","New Haven","CT",""
7295,"91 CHATHAM ST","New Haven","CT",""
7296,"95 CHATHAM ST","New Haven","CT",""
7297,"99 CHATHAM ST","New Haven","CT",""
7298,"101 CHATHAM ST","New Haven","CT",""
7299,"181 CLINTON AV","New Haven","CT",""
7300,"185 CLINTON AV","New Haven","CT",""
7301,"191 CLINTON AV","New Haven","CT",""
7302,"195 CLINTON AV","New Haven","CT",""
7303,"199 CLINTON AV","New Haven","CT",""
7304,"203 CLINTON AV","New Haven","CT",""
7305,"87 MALTBY ST","New Haven","CT",""
7306,"102 LOMBARD ST","New Haven","CT",""
7307,"98 LOMBARD ST","New Haven","CT",""
7308,"90 LOMBARD ST","New Haven","CT",""
7309,"86 LOMBARD ST","New Haven","CT",""
7310,"82 LOMBARD ST","New Haven","CT",""
7311,"84 DOWNING ST","New Haven","CT",""
7312,"80 DOWNING ST","New Haven","CT",""
7313,"51 CHATHAM ST","New Haven","CT",""
7314,"59 CHATHAM ST","New Haven","CT",""
7315,"63 CHATHAM ST","New Haven","CT",""
7316,"65 CHATHAM ST","New Haven","CT",""
7317,"73 CHATHAM ST","New Haven","CT",""
7318,"75 MALTBY ST","New Haven","CT",""
7319,"77 MALTBY ST","New Haven","CT",""
7320,"83 MALTBY ST","New Haven","CT",""
7321,"85 MALTBY ST","New Haven","CT",""
7322,"200 PECK ST","New Haven","CT",""
7323,"196 PECK ST","New Haven","CT",""
7324,"190 PECK ST","New Haven","CT",""
7325,"188 PECK ST","New Haven","CT",""
7326,"184 PECK ST","New Haven","CT",""
7327,"180 PECK ST","New Haven","CT",""
7328,"170 PECK ST","New Haven","CT",""
7329,"168 PECK ST","New Haven","CT",""
7330,"166 PECK ST","New Haven","CT",""
7331,"164 PECK ST","New Haven","CT",""
7332,"192 ATWATER ST","New Haven","CT",""
7333,"188 ATWATER ST","New Haven","CT",""
7334,"239 LOMBARD ST","New Haven","CT",""
7335,"243 LOMBARD ST","New Haven","CT",""
7336,"249 LOMBARD ST","New Haven","CT",""
7337,"253 LOMBARD ST","New Haven","CT",""
7338,"257 LOMBARD ST","New Haven","CT",""
7339,"265 LOMBARD ST","New Haven","CT",""
7340,"269 LOMBARD ST","New Haven","CT",""
7341,"273 LOMBARD ST","New Haven","CT",""
7342,"279 LOMBARD ST","New Haven","CT",""
7343,"285 LOMBARD ST","New Haven","CT",""
7344,"195 ATWATER ST","New Haven","CT",""
7345,"152 PECK ST","New Haven","CT",""
7346,"148 PECK ST","New Haven","CT",""
7347,"144 PECK ST","New Haven","CT",""
7348,"140 PECK ST","New Haven","CT",""
7349,"136 PECK ST","New Haven","CT",""
7350,"240 CLINTON AV","New Haven","CT",""
7351,"238 CLINTON AV","New Haven","CT",""
7352,"226 CLINTON AV","New Haven","CT",""
7353,"175 LOMBARD ST","New Haven","CT",""
7354,"181 LOMBARD ST","New Haven","CT",""
7355,"189 LOMBARD ST","New Haven","CT",""
7356,"193 LOMBARD ST","New Haven","CT",""
7357,"201 LOMBARD ST","New Haven","CT",""
7358,"205 LOMBARD ST","New Haven","CT",""
7359,"209 LOMBARD ST","New Haven","CT",""
7360,"217 LOMBARD ST","New Haven","CT",""
7361,"223 LOMBARD ST","New Haven","CT",""
7362,"227 LOMBARD ST","New Haven","CT",""
7363,"189 ATWATER ST","New Haven","CT",""
7364,"191 ATWATER ST","New Haven","CT",""
7365,"193 ATWATER ST","New Haven","CT",""
7366,"239 CLINTON AV","New Haven","CT",""
7367,"110 PECK ST","New Haven","CT",""
7368,"106 PECK ST","New Haven","CT",""
7369,"102 PECK ST","New Haven","CT",""
7370,"110 MALTBY ST","New Haven","CT",""
7371,"129 LOMBARD ST","New Haven","CT",""
7372,"139 LOMBARD ST","New Haven","CT",""
7373,"147 LOMBARD ST","New Haven","CT",""
7374,"153 LOMBARD ST","New Haven","CT",""
7375,"159 LOMBARD ST","New Haven","CT",""
7376,"163 LOMBARD ST","New Haven","CT",""
7377,"167 LOMBARD ST","New Haven","CT",""
7378,"223 CLINTON AV","New Haven","CT",""
7379,"227 CLINTON AV","New Haven","CT",""
7380,"231 CLINTON AV","New Haven","CT",""
7381,"235 CLINTON AV","New Haven","CT",""
7382,"82 PECK ST","New Haven","CT",""
7383,"80 PECK ST #80.5","New Haven","CT",""
7384,"80 PECK ST","New Haven","CT",""
7385,"76 PECK ST","New Haven","CT",""
7386,"74 PECK ST","New Haven","CT",""
7387,"70 PECK ST","New Haven","CT",""
7388,"60 PECK ST","New Haven","CT",""
7389,"83 LOMBARD ST","New Haven","CT",""
7390,"89 LOMBARD ST","New Haven","CT",""
7391,"95 LOMBARD ST","New Haven","CT",""
7392,"103 LOMBARD ST","New Haven","CT",""
7393,"109 LOMBARD ST","New Haven","CT",""
7394,"117 LOMBARD ST","New Haven","CT",""
7395,"103 MALTBY ST","New Haven","CT",""
7396,"333 FRONT ST","New Haven","CT",""
7397,"331 FRONT ST","New Haven","CT",""
7398,"329 FRONT ST","New Haven","CT",""
7399,"315 FRONT ST","New Haven","CT",""
7400,"313 FRONT ST","New Haven","CT",""
7401,"307 FRONT ST","New Haven","CT",""
7402,"289 FRONT ST","New Haven","CT",""
7403,"149 CLINTON AV","New Haven","CT",""
7404,"68 GRAFTON ST","New Haven","CT",""
7405,"44 GRAFTON ST","New Haven","CT",""
7406,"40 GRAFTON ST","New Haven","CT",""
7407,"36 GRAFTON ST","New Haven","CT",""
7408,"32 GRAFTON ST","New Haven","CT",""
7409,"16 MALTBY ST","New Haven","CT",""
7410,"49 PINE ST","New Haven","CT",""
7411,"55 PINE ST","New Haven","CT",""
7412,"57 PINE ST","New Haven","CT",""
7413,"59 PINE ST","New Haven","CT",""
7414,"61 PINE ST","New Haven","CT",""
7415,"127 CLINTON AV","New Haven","CT",""
7416,"135 CLINTON AV","New Haven","CT",""
7417,"139 CLINTON AV","New Haven","CT",""
7418,"141 CLINTON AV","New Haven","CT",""
7419,"27 MALTBY ST","New Haven","CT",""
7420,"26 DOWNING ST","New Haven","CT",""
7421,"22 DOWNING ST","New Haven","CT",""
7422,"18 DOWNING ST","New Haven","CT",""
7423,"12 DOWNING ST","New Haven","CT",""
7424,"17 PINE ST","New Haven","CT",""
7425,"25 PINE ST","New Haven","CT",""
7426,"27 PINE ST","New Haven","CT",""
7427,"33 PINE ST","New Haven","CT",""
7428,"39 PINE ST","New Haven","CT",""
7429,"41 PINE ST","New Haven","CT",""
7430,"13 MALTBY ST","New Haven","CT",""
7431,"17 MALTBY ST","New Haven","CT",""
7432,"23 MALTBY ST","New Haven","CT",""
7433,"67 DOWNING ST","New Haven","CT",""
7434,"36 CHATHAM ST","New Haven","CT",""
7435,"32 CHATHAM ST","New Haven","CT",""
7436,"28 CHATHAM ST","New Haven","CT",""
7437,"24 CHATHAM ST","New Haven","CT",""
7438,"18 CHATHAM ST","New Haven","CT",""
7439,"332 FRONT ST","New Haven","CT",""
7440,"318 FRONT ST","New Haven","CT",""
7441,"314 FRONT ST","New Haven","CT",""
7442,"310 FRONT ST","New Haven","CT",""
7443,"306 FRONT ST","New Haven","CT",""
7444,"302 FRONT ST","New Haven","CT",""
7445,"298 FRONT ST","New Haven","CT",""
7446,"294 FRONT ST","New Haven","CT",""
7447,"292 FRONT ST","New Haven","CT",""
7448,"288 FRONT ST","New Haven","CT",""
7449,"280 FRONT ST","New Haven","CT",""
7450,"7 PINE ST","New Haven","CT",""
7451,"9 PINE ST","New Haven","CT",""
7452,"7 DOWNING ST","New Haven","CT",""
7453,"13 DOWNING ST","New Haven","CT",""
7454,"17 DOWNING ST","New Haven","CT",""
7455,"21 DOWNING ST","New Haven","CT",""
7456,"25 DOWNING ST","New Haven","CT",""
7457,"31 DOWNING ST","New Haven","CT",""
7458,"33 DOWNING ST","New Haven","CT",""
7459,"35 DOWNING ST","New Haven","CT",""
7460,"41 DOWNING ST","New Haven","CT",""
7461,"47 DOWNING ST","New Haven","CT",""
7462,"51 DOWNING ST","New Haven","CT",""
7463,"55 DOWNING ST","New Haven","CT",""
7464,"61 DOWNING ST","New Haven","CT",""
7465,"63 DOWNING ST","New Haven","CT",""
7466,"95 DOWNING ST","New Haven","CT",""
7467,"58 LOMBARD ST","New Haven","CT",""
7468,"54 LOMBARD ST","New Haven","CT",""
7469,"42 LOMBARD ST","New Haven","CT",""
7470,"LOMBARD ST","New Haven","CT",""
7471,NA,"New Haven","CT",""
7472,"338 FRONT ST","New Haven","CT",""
7473,"5 CHATHAM ST","New Haven","CT",""
7474,"7 CHATHAM ST","New Haven","CT",""
7475,"15 CHATHAM ST","New Haven","CT",""
7476,"23 CHATHAM ST","New Haven","CT",""
7477,"29 CHATHAM ST","New Haven","CT",""
7478,"33 CHATHAM ST","New Haven","CT",""
7479,"39 CHATHAM ST","New Haven","CT",""
7480,"69 DOWNING ST","New Haven","CT",""
7481,"75 DOWNING ST","New Haven","CT",""
7482,"79 DOWNING ST","New Haven","CT",""
7483,"83 DOWNING ST","New Haven","CT",""
7484,"FRONT ST","New Haven","CT",""
7485,NA,"New Haven","CT",""
7486,"88 PERKINS ST","New Haven","CT",""
7487,"86 PERKINS ST","New Haven","CT",""
7488,"76 PERKINS ST","New Haven","CT",""
7489,"74 PERKINS ST","New Haven","CT",""
7490,"70 PERKINS ST","New Haven","CT",""
7491,"68 PERKINS ST","New Haven","CT",""
7492,"66 PERKINS ST","New Haven","CT",""
7493,"64 PERKINS ST","New Haven","CT",""
7494,"62 PERKINS ST","New Haven","CT",""
7495,"60 PERKINS ST","New Haven","CT",""
7496,"56 PERKINS ST","New Haven","CT",""
7497,"52 PERKINS ST","New Haven","CT",""
7498,"50 PERKINS ST","New Haven","CT",""
7499,"PERKINS ST","New Haven","CT",""
7500,"48 PERKINS ST","New Haven","CT",""
7501,"40 PERKINS ST","New Haven","CT",""
7502,"36 PERKINS ST","New Haven","CT",""
7503,"34 PERKINS ST","New Haven","CT",""
7504,"32 PERKINS ST","New Haven","CT",""
7505,"28 PERKINS ST","New Haven","CT",""
7506,"24 PERKINS ST","New Haven","CT",""
7507,"69 GRAND AV","New Haven","CT",""
7508,"PERKINS ST","New Haven","CT",""
7509,"19 CLINTON AV","New Haven","CT",""
7510,"29 CLINTON AV","New Haven","CT",""
7511,"35 CLINTON AV","New Haven","CT",""
7512,"41 CLINTON AV","New Haven","CT",""
7513,"49 CLINTON AV","New Haven","CT",""
7514,"57 CLINTON AV","New Haven","CT",""
7515,"61 CLINTON AV","New Haven","CT",""
7516,"67 CLINTON AV","New Haven","CT",""
7517,"71 CLINTON AV","New Haven","CT",""
7518,"75 CLINTON AV","New Haven","CT",""
7519,"79 CLINTON AV","New Haven","CT",""
7520,"81 CLINTON AV","New Haven","CT",""
7521,"85 CLINTON AV","New Haven","CT",""
7522,"89 CLINTON AV","New Haven","CT",""
7523,"93 CLINTON AV","New Haven","CT",""
7524,"97 CLINTON AV","New Haven","CT",""
7525,"103 CLINTON AV","New Haven","CT",""
7526,"111 CLINTON AV","New Haven","CT",""
7527,"119 CLINTON AV","New Haven","CT",""
7528,"32 PINE ST","New Haven","CT",""
7529,"16 LEWIS ST","New Haven","CT",""
7530,"14 LEWIS ST","New Haven","CT",""
7531,"12 LEWIS ST","New Haven","CT",""
7532,"8 LEWIS ST","New Haven","CT",""
7533,"6 LEWIS ST","New Haven","CT",""
7534,"4 LEWIS ST","New Haven","CT",""
7535,"2 LEWIS ST","New Haven","CT",""
7536,"240 FRONT ST","New Haven","CT",""
7537,"234 FRONT ST","New Haven","CT",""
7538,"232 FRONT ST","New Haven","CT",""
7539,"228 FRONT ST","New Haven","CT",""
7540,"224 FRONT ST","New Haven","CT",""
7541,"218 FRONT ST","New Haven","CT",""
7542,"212 FRONT ST","New Haven","CT",""
7543,"210 FRONT ST","New Haven","CT",""
7544,"208 FRONT ST","New Haven","CT",""
7545,"204 FRONT ST","New Haven","CT",""
7546,"200 FRONT ST","New Haven","CT",""
7547,"198 FRONT ST","New Haven","CT",""
7548,"19 PERKINS ST","New Haven","CT",""
7549,"21 PERKINS ST","New Haven","CT",""
7550,"31 PERKINS ST","New Haven","CT",""
7551,"27 PERKINS ST","New Haven","CT",""
7552,"35 PERKINS ST","New Haven","CT",""
7553,"43 PERKINS ST","New Haven","CT",""
7554,"47 PERKINS ST","New Haven","CT",""
7555,"49 PERKINS ST","New Haven","CT",""
7556,"51 PERKINS ST","New Haven","CT",""
7557,"53 PERKINS ST","New Haven","CT",""
7558,"55 PERKINS ST","New Haven","CT",""
7559,NA,"New Haven","CT",""
7560,"63 PERKINS ST","New Haven","CT",""
7561,"67 PERKINS ST","New Haven","CT",""
7562,"71 PERKINS ST","New Haven","CT",""
7563,"73 PERKINS ST","New Haven","CT",""
7564,"75 PERKINS ST","New Haven","CT",""
7565,"48 PINE ST","New Haven","CT",""
7566,"42 PINE ST","New Haven","CT",""
7567,"38 PINE ST","New Haven","CT",""
7568,"36 PINE ST","New Haven","CT",""
7569,"279 FRONT ST","New Haven","CT",""
7570,"273 FRONT ST","New Haven","CT",""
7571,"271 FRONT ST","New Haven","CT",""
7572,"269 FRONT ST","New Haven","CT",""
7573,"265 FRONT ST","New Haven","CT",""
7574,"263 FRONT ST","New Haven","CT",""
7575,"FRONT ST","New Haven","CT",""
7576,"259 FRONT ST","New Haven","CT",""
7577,"255 FRONT ST","New Haven","CT",""
7578,"253 FRONT ST","New Haven","CT",""
7579,NA,"New Haven","CT",""
7580,"223 FRONT ST #C-1","New Haven","CT",""
7581,"223 FRONT ST #C-2","New Haven","CT",""
7582,"223 FRONT ST #C-3","New Haven","CT",""
7583,"223 FRONT ST #C-4","New Haven","CT",""
7584,"225 FRONT ST #D-1","New Haven","CT",""
7585,"225 FRONT ST #D-2","New Haven","CT",""
7586,"225 FRONT ST #D-3","New Haven","CT",""
7587,"229 FRONT ST #B-1","New Haven","CT",""
7588,"229 FRONT ST #B-2","New Haven","CT",""
7589,"229 FRONT ST #B-3","New Haven","CT",""
7590,"233 FRONT ST #E-1","New Haven","CT",""
7591,"233 FRONT ST #E-2","New Haven","CT",""
7592,"233 FRONT ST #E3-4","New Haven","CT",""
7593,"235 FRONT ST #A-1","New Haven","CT",""
7594,"235 FRONT ST #A-2","New Haven","CT",""
7595,"239 FRONT ST #G-1","New Haven","CT",""
7596,"239 FRONT ST #G-2","New Haven","CT",""
7597,"239 FRONT ST #G-3","New Haven","CT",""
7598,"239 FRONT ST #G-4","New Haven","CT",""
7599,"243 FRONT ST #F-1","New Haven","CT",""
7600,"243 FRONT ST #F-2","New Haven","CT",""
7601,"243 FRONT ST #F-3","New Haven","CT",""
7602,"213 FRONT ST","New Haven","CT",""
7603,NA,"New Haven","CT",""
7604,"185 FRONT ST","New Haven","CT",""
7605,"181 FRONT ST","New Haven","CT",""
7606,"1 GRAND AV","New Haven","CT",""
7607,"276 FRONT ST","New Haven","CT",""
7608,"272 FRONT ST","New Haven","CT",""
7609,"270 FRONT ST","New Haven","CT",""
7610,"FRONT ST","New Haven","CT",""
7611,"264 FRONT ST","New Haven","CT",""
7612,"260 FRONT ST","New Haven","CT",""
7613,"258 FRONT ST","New Haven","CT",""
7614,"254 FRONT ST","New Haven","CT",""
7615,"246 FRONT ST","New Haven","CT",""
7616,"13 LEWIS ST","New Haven","CT",""
7617,"15 LEWIS ST","New Haven","CT",""
7618,"17 LEWIS ST","New Haven","CT",""
7619,"21 LEWIS ST","New Haven","CT",""
7620,"28 PINE ST","New Haven","CT",""
7621,"24 PINE ST","New Haven","CT",""
7622,"16 PINE ST","New Haven","CT",""
7623,"8 PINE ST","New Haven","CT",""
7624,"192 FRONT ST","New Haven","CT",""
7625,NA,"New Haven","CT",""
7626,"186 FRONT ST","New Haven","CT",""
7627,"182 FRONT ST","New Haven","CT",""
7628,"FRONT ST","New Haven","CT",""
7629,"19 GRAND AV","New Haven","CT",""
7630,"29 GRAND AV","New Haven","CT",""
7631,"33 GRAND AV","New Haven","CT",""
7632,"37 GRAND AV","New Haven","CT",""
7633,"47 GRAND AV","New Haven","CT",""
7634,NA,"New Haven","CT",""
7635,NA,"New Haven","CT",""
7636,"98 PINE ST","New Haven","CT",""
7637,"92 ATWATER ST","New Haven","CT",""
7638,"88 ATWATER ST","New Haven","CT",""
7639,"84 ATWATER ST","New Haven","CT",""
7640,"80 ATWATER ST","New Haven","CT",""
7641,"76 ATWATER ST","New Haven","CT",""
7642,"72 ATWATER ST","New Haven","CT",""
7643,"68 ATWATER ST","New Haven","CT",""
7644,"66 ATWATER ST","New Haven","CT",""
7645,"64 ATWATER ST","New Haven","CT",""
7646,"62 ATWATER ST","New Haven","CT",""
7647,"60 ATWATER ST","New Haven","CT",""
7648,"58 ATWATER ST","New Haven","CT",""
7649,"56 ATWATER ST","New Haven","CT",""
7650,"46 ATWATER ST","New Haven","CT",""
7651,"50 ATWATER ST","New Haven","CT",""
7652,"40 ATWATER ST","New Haven","CT",""
7653,"32 ATWATER ST","New Haven","CT",""
7654,"26 ATWATER ST","New Haven","CT",""
7655,"12 ATWATER ST","New Haven","CT",""
7656,"135 GRAND AV","New Haven","CT",""
7657,"141 GRAND AV","New Haven","CT",""
7658,"145 GRAND AV","New Haven","CT",""
7659,"GRAND AV","New Haven","CT",""
7660,"169 GRAND AV","New Haven","CT",""
7661,"175 GRAND AV","New Haven","CT",""
7662,"19 BRIGHT ST","New Haven","CT",""
7663,"BRIGHT ST","New Haven","CT",""
7664,"102 PINE ST","New Haven","CT",""
7665,"100 PINE ST","New Haven","CT",""
7666,"118 CLINTON AV","New Haven","CT",""
7667,"102 CLINTON AV","New Haven","CT",""
7668,NA,"New Haven","CT",""
7669,"98 CLINTON AV #REAR","New Haven","CT",""
7670,"98 CLINTON AV","New Haven","CT",""
7671,"94 CLINTON AV","New Haven","CT",""
7672,"80 CLINTON AV","New Haven","CT",""
7673,"74 CLINTON AV","New Haven","CT",""
7674,"72 CLINTON AV","New Haven","CT",""
7675,"56 CLINTON AV","New Haven","CT",""
7676,"54 CLINTON AV","New Haven","CT",""
7677,"46 CLINTON AV","New Haven","CT",""
7678,"38 CLINTON AV","New Haven","CT",""
7679,"32 CLINTON AV","New Haven","CT",""
7680,"24 CLINTON AV","New Haven","CT",""
7681,"18 CLINTON AV","New Haven","CT",""
7682,"14 CLINTON AV","New Haven","CT",""
7683,"85 GRAND AV","New Haven","CT",""
7684,"77 GRAND AV","New Haven","CT",""
7685,"87 GRAND AV","New Haven","CT",""
7686,"CLINTON AV","New Haven","CT",""
7687,"93 GRAND AV","New Haven","CT",""
7688,"97 GRAND AV","New Haven","CT",""
7689,"101 GRAND AV","New Haven","CT",""
7690,"111 GRAND AV","New Haven","CT",""
7691,"113 GRAND AV","New Haven","CT",""
7692,"9 ATWATER ST","New Haven","CT",""
7693,"17 ATWATER ST","New Haven","CT",""
7694,"21 ATWATER ST","New Haven","CT",""
7695,"25 ATWATER ST","New Haven","CT",""
7696,"31 ATWATER ST","New Haven","CT",""
7697,"29 ATWATER ST","New Haven","CT",""
7698,"35 ATWATER ST","New Haven","CT",""
7699,"39 ATWATER ST","New Haven","CT",""
7700,"45 ATWATER ST","New Haven","CT",""
7701,"47 ATWATER ST","New Haven","CT",""
7702,"49 ATWATER ST","New Haven","CT",""
7703,"49 1/2 ATWATER ST","New Haven","CT",""
7704,"57 ATWATER ST","New Haven","CT",""
7705,"59 ATWATER ST","New Haven","CT",""
7706,"61 ATWATER ST","New Haven","CT",""
7707,"63 ATWATER ST","New Haven","CT",""
7708,"65 ATWATER ST","New Haven","CT",""
7709,"67 ATWATER ST","New Haven","CT",""
7710,"69 ATWATER ST","New Haven","CT",""
7711,NA,"New Haven","CT",""
7712,"116 ATWATER ST","New Haven","CT",""
7713,"114 ATWATER ST","New Haven","CT",""
7714,"112 ATWATER ST","New Haven","CT",""
7715,"110 ATWATER ST","New Haven","CT",""
7716,"ATWATER ST","New Haven","CT",""
7717,"108 ATWATER ST","New Haven","CT",""
7718,"104 ATWATER ST","New Haven","CT",""
7719,"100 ATWATER ST","New Haven","CT",""
7720,"96 ATWATER ST","New Haven","CT",""
7721,"103 PINE ST","New Haven","CT",""
7722,"109 PINE ST","New Haven","CT",""
7723,"111 PINE ST","New Haven","CT",""
7724,"113 PINE ST","New Haven","CT",""
7725,"121 PINE ST","New Haven","CT",""
7726,"125 PINE ST","New Haven","CT",""
7727,"3 ROWE ST","New Haven","CT",""
7728,"5 ROWE ST","New Haven","CT",""
7729,"17 ROWE ST","New Haven","CT",""
7730,"140 GRAFTON ST","New Haven","CT",""
7731,"136 GRAFTON ST","New Haven","CT",""
7732,"132 GRAFTON ST","New Haven","CT",""
7733,"128 GRAFTON ST","New Haven","CT",""
7734,"124 GRAFTON ST","New Haven","CT",""
7735,"120 GRAFTON ST","New Haven","CT",""
7736,"118 GRAFTON ST","New Haven","CT",""
7737,"86 GRAFTON ST","New Haven","CT",""
7738,"6 PINE PL","New Haven","CT",""
7739,"79 PINE ST","New Haven","CT",""
7740,"81 PINE ST","New Haven","CT",""
7741,"83 PINE ST","New Haven","CT",""
7742,"85 PINE ST","New Haven","CT",""
7743,"103 ATWATER ST","New Haven","CT",""
7744,"105 ATWATER ST","New Haven","CT",""
7745,"109 ATWATER ST","New Haven","CT",""
7746,"111 ATWATER ST","New Haven","CT",""
7747,NA,"New Haven","CT",""
7748,"113 ATWATER ST","New Haven","CT",""
7749,"115 ATWATER ST","New Haven","CT",""
7750,"117 ATWATER ST","New Haven","CT",""
7751,"92 GRAFTON ST","New Haven","CT",""
7752,"90 GRAFTON ST","New Haven","CT",""
7753,"88 GRAFTON ST","New Haven","CT",""
7754,"150 CLINTON AV","New Haven","CT",""
7755,"146 CLINTON AV","New Haven","CT",""
7756,"138 CLINTON AV","New Haven","CT",""
7757,"71 PINE ST","New Haven","CT",""
7758,"75 PINE ST","New Haven","CT",""
7759,"77 PINE ST","New Haven","CT",""
7760,NA,"New Haven","CT",""
7761,"73 FRONT ST","New Haven","CT",""
7762,"57 EAST PEARL ST","New Haven","CT",""
7763,"59 EAST PEARL ST","New Haven","CT",""
7764,"EAST PEARL ST","New Haven","CT",""
7765,"65 EAST PEARL ST","New Haven","CT",""
7766,"69 EAST PEARL ST","New Haven","CT",""
7767,"73 EAST PEARL ST","New Haven","CT",""
7768,"24 FRONT ST #24","New Haven","CT",""
7769,"26 FRONT ST #26","New Haven","CT",""
7770,"28 FRONT ST #28","New Haven","CT",""
7771,"30 FRONT ST #30","New Haven","CT",""
7772,"32 FRONT ST #32","New Haven","CT",""
7773,"34 FRONT ST #34","New Haven","CT",""
7774,"36 FRONT ST #36","New Haven","CT",""
7775,"38 FRONT ST #38","New Haven","CT",""
7776,"40 FRONT ST #40","New Haven","CT",""
7777,"42 FRONT ST #42","New Haven","CT",""
7778,"44 FRONT ST #44","New Haven","CT",""
7779,"46 FRONT ST #46","New Haven","CT",""
7780,"48 FRONT ST #48","New Haven","CT",""
7781,"50 FRONT ST #50","New Haven","CT",""
7782,"52 FRONT ST #52","New Haven","CT",""
7783,"54 FRONT ST #54","New Haven","CT",""
7784,"77 EAST PEARL ST","New Haven","CT",""
7785,"81 EAST PEARL ST","New Haven","CT",""
7786,"85 EAST PEARL ST","New Haven","CT",""
7787,"87 EAST PEARL ST","New Haven","CT",""
7788,"89 EAST PEARL ST","New Haven","CT",""
7789,"58 FRONT ST #58","New Haven","CT",""
7790,"60 FRONT ST #60","New Haven","CT",""
7791,"62 FRONT ST #62","New Haven","CT",""
7792,"64 FRONT ST #64","New Haven","CT",""
7793,"66 FRONT ST #66","New Haven","CT",""
7794,"68 FRONT ST #68","New Haven","CT",""
7795,"70 FRONT ST #70","New Haven","CT",""
7796,"72 FRONT ST #72","New Haven","CT",""
7797,"74 FRONT ST #74","New Haven","CT",""
7798,"76 FRONT ST #76","New Haven","CT",""
7799,"78 FRONT ST #78","New Haven","CT",""
7800,"80 FRONT ST #80","New Haven","CT",""
7801,"82 FRONT ST #82","New Haven","CT",""
7802,"84 FRONT ST #84","New Haven","CT",""
7803,"86 FRONT ST #86","New Haven","CT",""
7804,"88 FRONT ST #88","New Haven","CT",""
7805,"95 EAST PEARL ST","New Haven","CT",""
7806,"97 EAST PEARL ST","New Haven","CT",""
7807,"58 EXCHANGE ST","New Haven","CT",""
7808,"50 EXCHANGE ST","New Haven","CT",""
7809,"46 EXCHANGE ST","New Haven","CT",""
7810,"40 EXCHANGE ST","New Haven","CT",""
7811,"36 EXCHANGE ST","New Haven","CT",""
7812,"92 FRONT ST #92","New Haven","CT",""
7813,"94 FRONT ST #94","New Haven","CT",""
7814,"96 FRONT ST #96","New Haven","CT",""
7815,"98 FRONT ST #98","New Haven","CT",""
7816,"100 FRONT ST #100","New Haven","CT",""
7817,"102 FRONT ST #102","New Haven","CT",""
7818,"104 FRONT ST #104","New Haven","CT",""
7819,"106 FRONT ST #106","New Haven","CT",""
7820,"108 FRONT ST #108","New Haven","CT",""
7821,"110 FRONT ST #110","New Haven","CT",""
7822,"112 FRONT ST #112","New Haven","CT",""
7823,"114 FRONT ST #114","New Haven","CT",""
7824,"116 FRONT ST #116","New Haven","CT",""
7825,"118 FRONT ST #118","New Haven","CT",""
7826,"120 FRONT ST #120","New Haven","CT",""
7827,"122 FRONT ST #122","New Haven","CT",""
7828,"124 FRONT ST #124","New Haven","CT",""
7829,"126 FRONT ST #126","New Haven","CT",""
7830,"128 FRONT ST #128","New Haven","CT",""
7831,"130 FRONT ST #130","New Haven","CT",""
7832,"132 FRONT ST #132","New Haven","CT",""
7833,"134 FRONT ST #134","New Haven","CT",""
7834,"136 FRONT ST #136","New Haven","CT",""
7835,"138 FRONT ST #138","New Haven","CT",""
7836,"140 FRONT ST #140","New Haven","CT",""
7837,"EAST PEARL ST","New Haven","CT",""
7838,"105 EAST PEARL ST","New Haven","CT",""
7839,"109 EAST PEARL ST","New Haven","CT",""
7840,"113 EAST PEARL ST","New Haven","CT",""
7841,"84 GRAND AV","New Haven","CT",""
7842,"70 GRAND AV","New Haven","CT",""
7843,"14 GRAND AV","New Haven","CT",""
7844,"160 FRONT ST","New Haven","CT",""
7845,"142 FRONT ST #142","New Haven","CT",""
7846,"144 FRONT ST #144","New Haven","CT",""
7847,"146 FRONT ST #146","New Haven","CT",""
7848,"148 FRONT ST #148","New Haven","CT",""
7849,"150 FRONT ST #150","New Haven","CT",""
7850,"152 FRONT ST #152","New Haven","CT",""
7851,"154 FRONT ST #154","New Haven","CT",""
7852,"156 FRONT ST #156","New Haven","CT",""
7853,"158 FRONT ST #158","New Haven","CT",""
7854,"160 FRONT ST #160","New Haven","CT",""
7855,"162 FRONT ST #162","New Haven","CT",""
7856,"164 FRONT ST #164","New Haven","CT",""
7857,"15 EXCHANGE ST #15","New Haven","CT",""
7858,"17 EXCHANGE ST #17","New Haven","CT",""
7859,"19 EXCHANGE ST #19","New Haven","CT",""
7860,"21 EXCHANGE ST #21","New Haven","CT",""
7861,"23 EXCHANGE ST #23","New Haven","CT",""
7862,"25 EXCHANGE ST #25","New Haven","CT",""
7863,"27 EXCHANGE ST #27","New Haven","CT",""
7864,"31 EXCHANGE ST #31","New Haven","CT",""
7865,"33 EXCHANGE ST #33","New Haven","CT",""
7866,"35 EXCHANGE ST #35","New Haven","CT",""
7867,"37 EXCHANGE ST #37","New Haven","CT",""
7868,"39 EXCHANGE ST #39","New Haven","CT",""
7869,"43 EXCHANGE ST #43","New Haven","CT",""
7870,"45 EXCHANGE ST #45","New Haven","CT",""
7871,"47 EXCHANGE ST #47","New Haven","CT",""
7872,"49 EXCHANGE ST #49","New Haven","CT",""
7873,"51 EXCHANGE ST #51","New Haven","CT",""
7874,"53 EXCHANGE ST #53","New Haven","CT",""
7875,"57 EXCHANGE ST #57","New Haven","CT",""
7876,"61 CHAPEL ST","New Haven","CT",""
7877,"177 FERRY ST","New Haven","CT",""
7878,"54 EAST PEARL ST","New Haven","CT",""
7879,"48 EAST PEARL ST","New Haven","CT",""
7880,"44 EAST PEARL ST","New Haven","CT",""
7881,"42 EAST PEARL ST","New Haven","CT",""
7882,"32 EAST PEARL ST","New Haven","CT",""
7883,"28 EAST PEARL ST","New Haven","CT",""
7884,"24 EAST PEARL ST","New Haven","CT",""
7885,"29 CHAPEL ST","New Haven","CT",""
7886,"31 CHAPEL ST","New Haven","CT",""
7887,"33 CHAPEL ST","New Haven","CT",""
7888,"49 CHAPEL ST","New Haven","CT",""
7889,"35 HOUSTON ST","New Haven","CT",""
7890,"37 HOUSTON ST","New Haven","CT",""
7891,"39 HOUSTON ST","New Haven","CT",""
7892,"41 HOUSTON ST","New Haven","CT",""
7893,"43 HOUSTON ST","New Haven","CT",""
7894,"45 HOUSTON ST","New Haven","CT",""
7895,"47 HOUSTON ST","New Haven","CT",""
7896,"49 HOUSTON ST","New Haven","CT",""
7897,"53 HOUSTON ST","New Haven","CT",""
7898,"57 HOUSTON ST","New Haven","CT",""
7899,"66 CHAMBERS ST","New Haven","CT",""
7900,"60 CHAMBERS ST","New Haven","CT",""
7901,"54 CHAMBERS ST","New Haven","CT",""
7902,"58 HOUSTON ST","New Haven","CT",""
7903,"54 HOUSTON ST","New Haven","CT",""
7904,"50 HOUSTON ST","New Haven","CT",""
7905,"48 HOUSTON ST","New Haven","CT",""
7906,"46 HOUSTON ST","New Haven","CT",""
7907,"42 HOUSTON ST","New Haven","CT",""
7908,"38 HOUSTON ST","New Haven","CT",""
7909,"34 HOUSTON ST","New Haven","CT",""
7910,"30 HOUSTON ST","New Haven","CT",""
7911,NA,"New Haven","CT",""
7912,"187 FERRY ST","New Haven","CT",""
7913,"189 FERRY ST","New Haven","CT",""
7914,"191 FERRY ST","New Haven","CT",""
7915,"195 FERRY ST","New Haven","CT",""
7916,"201 FERRY ST","New Haven","CT",""
7917,"205 FERRY ST","New Haven","CT",""
7918,"213 FERRY ST","New Haven","CT",""
7919,"217 FERRY ST","New Haven","CT",""
7920,"223 FERRY ST","New Haven","CT",""
7921,"56 PIERPONT ST","New Haven","CT",""
7922,"76 HOUSTON ST","New Haven","CT",""
7923,"74 HOUSTON ST","New Haven","CT",""
7924,"72 HOUSTON ST","New Haven","CT",""
7925,"70 HOUSTON ST","New Haven","CT",""
7926,"64 HOUSTON ST","New Haven","CT",""
7927,"79 CHAMBERS ST","New Haven","CT",""
7928,"81 CHAMBERS ST","New Haven","CT",""
7929,"85 CHAMBERS ST","New Haven","CT",""
7930,"89 CHAMBERS ST","New Haven","CT",""
7931,"241 FERRY ST","New Haven","CT",""
7932,"245 FERRY ST","New Haven","CT",""
7933,"247 FERRY ST","New Haven","CT",""
7934,"255 FERRY ST","New Haven","CT",""
7935,"84 PIERPONT ST","New Haven","CT",""
7936,"80 PIERPONT ST","New Haven","CT",""
7937,"78 PIERPONT ST","New Haven","CT",""
7938,"76 PIERPONT ST","New Haven","CT",""
7939,"72 PIERPONT ST","New Haven","CT",""
7940,"68 PIERPONT ST","New Haven","CT",""
7941,"66 PIERPONT ST","New Haven","CT",""
7942,"64 PIERPONT ST","New Haven","CT",""
7943,"60 PIERPONT ST","New Haven","CT",""
7944,"88 EAST PEARL ST","New Haven","CT",""
7945,"82 EAST PEARL ST","New Haven","CT",""
7946,"80 EAST PEARL ST","New Haven","CT",""
7947,"76 EAST PEARL ST","New Haven","CT",""
7948,"72 EAST PEARL ST","New Haven","CT",""
7949,"70 EAST PEARL ST","New Haven","CT",""
7950,"68 EAST PEARL ST","New Haven","CT",""
7951,"62 EAST PEARL ST","New Haven","CT",""
7952,"60 EAST PEARL ST","New Haven","CT",""
7953,"58 EAST PEARL ST","New Haven","CT",""
7954,"55 CHAMBERS ST","New Haven","CT",""
7955,"65 CHAMBERS ST","New Haven","CT",""
7956,"67 HOUSTON ST","New Haven","CT",""
7957,"69 HOUSTON ST","New Haven","CT",""
7958,"71 HOUSTON ST","New Haven","CT",""
7959,"75 HOUSTON ST","New Haven","CT",""
7960,"79 HOUSTON ST","New Haven","CT",""
7961,"81 HOUSTON ST","New Haven","CT",""
7962,"46 PIERPONT ST","New Haven","CT",""
7963,"42 PIERPONT ST","New Haven","CT",""
7964,"40 PIERPONT ST","New Haven","CT",""
7965,"34 PIERPONT ST","New Haven","CT",""
7966,"30 PIERPONT ST","New Haven","CT",""
7967,"100 EAST PEARL ST","New Haven","CT",""
7968,"92 EAST PEARL ST","New Haven","CT",""
7969,"PIERPONT ST","New Haven","CT",""
7970,"27 PIERPONT ST","New Haven","CT",""
7971,"29 PIERPONT ST","New Haven","CT",""
7972,"35 PIERPONT ST","New Haven","CT",""
7973,"37 PIERPONT ST","New Haven","CT",""
7974,"41 PIERPONT ST","New Haven","CT",""
7975,"45 PIERPONT ST","New Haven","CT",""
7976,"53 PIERPONT ST","New Haven","CT",""
7977,"55 PIERPONT ST","New Haven","CT",""
7978,"59 PIERPONT ST","New Haven","CT",""
7979,"63 PIERPONT ST","New Haven","CT",""
7980,"67 PIERPONT ST","New Haven","CT",""
7981,"71 PIERPONT ST","New Haven","CT",""
7982,"77 PIERPONT ST","New Haven","CT",""
7983,"79 PIERPONT ST","New Haven","CT",""
7984,"81 PIERPONT ST","New Haven","CT",""
7985,"85 PIERPONT ST","New Haven","CT",""
7986,"261 FERRY ST","New Haven","CT",""
7987,"269 FERRY ST","New Haven","CT",""
7988,"156 EXCHANGE ST","New Haven","CT",""
7989,"152 EXCHANGE ST","New Haven","CT",""
7990,"148 EXCHANGE ST","New Haven","CT",""
7991,"144 EXCHANGE ST","New Haven","CT",""
7992,"140 EXCHANGE ST","New Haven","CT",""
7993,"134 EXCHANGE ST","New Haven","CT",""
7994,"130 EXCHANGE ST","New Haven","CT",""
7995,"124 EXCHANGE ST","New Haven","CT",""
7996,"120 EXCHANGE ST","New Haven","CT",""
7997,"114 EXCHANGE ST","New Haven","CT",""
7998,"106 EXCHANGE ST","New Haven","CT",""
7999,"104 EXCHANGE ST","New Haven","CT",""
8000,"100 EXCHANGE ST","New Haven","CT",""
