"pid","location","city","state","zip"
23001,"642 WHALLEY AV","New Haven","CT",""
23002,"638 WHALLEY AV","New Haven","CT",""
23003,"632 WHALLEY AV","New Haven","CT",""
23004,"628 WHALLEY AV","New Haven","CT",""
23005,"622 WHALLEY AV","New Haven","CT",""
23006,"616 WHALLEY AV","New Haven","CT",""
23007,"148 HUBINGER ST","New Haven","CT",""
23008,"142 HUBINGER ST","New Haven","CT",""
23009,"138 HUBINGER ST","New Haven","CT",""
23010,"134 HUBINGER ST","New Haven","CT",""
23011,"130 HUBINGER ST","New Haven","CT",""
23012,"124 HUBINGER ST","New Haven","CT",""
23013,"120 HUBINGER ST","New Haven","CT",""
23014,"114 HUBINGER ST","New Haven","CT",""
23015,"112 HUBINGER ST","New Haven","CT",""
23016,"59 ELDERT ST","New Haven","CT",""
23017,"201 WEST PARK AV","New Haven","CT",""
23018,"207 WEST PARK AV","New Haven","CT",""
23019,"211 WEST PARK AV","New Haven","CT",""
23020,"215 WEST PARK AV","New Haven","CT",""
23021,"221 WEST PARK AV","New Haven","CT",""
23022,"225 WEST PARK AV","New Haven","CT",""
23023,"235 WEST PARK AV","New Haven","CT",""
23024,"239 WEST PARK AV","New Haven","CT",""
23025,"245 WEST PARK AV","New Haven","CT",""
23026,"249 WEST PARK AV","New Haven","CT",""
23027,"257 WEST PARK AV","New Haven","CT",""
23028,"600 WHALLEY AV","New Haven","CT",""
23029,"50 YOUNG ST","New Haven","CT",""
23030,"46 YOUNG ST","New Haven","CT",""
23031,"42 YOUNG ST","New Haven","CT",""
23032,"36 YOUNG ST","New Haven","CT",""
23033,"30 YOUNG ST","New Haven","CT",""
23034,"26 YOUNG ST","New Haven","CT",""
23035,"20 YOUNG ST","New Haven","CT",""
23036,"14 YOUNG ST","New Haven","CT",""
23037,"8 YOUNG ST","New Haven","CT",""
23038,"26 WHITTLESEY AV","New Haven","CT",""
23039,"22 WHITTLESEY AV","New Haven","CT",""
23040,"589 WHALLEY AV","New Haven","CT",""
23041,"593 WHALLEY AV","New Haven","CT",""
23042,"597 WHALLEY AV","New Haven","CT",""
23043,"601 WHALLEY AV","New Haven","CT",""
23044,"605 WHALLEY AV","New Haven","CT",""
23045,"609 WHALLEY AV","New Haven","CT",""
23046,"615 WHALLEY AV","New Haven","CT",""
23047,"619 WHALLEY AV","New Haven","CT",""
23048,"623 WHALLEY AV","New Haven","CT",""
23049,"627 WHALLEY AV","New Haven","CT",""
23050,"631 WHALLEY AV","New Haven","CT",""
23051,"635 WHALLEY AV","New Haven","CT",""
23052,"11 OSBORN AV","New Haven","CT",""
23053,"15 OSBORN AV","New Haven","CT",""
23054,"37 WHITTLESEY AV","New Haven","CT",""
23055,"56 BLAKE ST","New Haven","CT",""
23056,"50 BLAKE ST","New Haven","CT",""
23057,"40 BLAKE ST","New Haven","CT",""
23058,"32 BLAKE ST","New Haven","CT",""
23059,"BLAKE ST","New Haven","CT",""
23060,"545 WHALLEY AV","New Haven","CT",""
23061,"531 WHALLEY AV","New Haven","CT",""
23062,"533 WHALLEY AV","New Haven","CT",""
23063,"543 WHALLEY AV","New Haven","CT",""
23064,"555 WHALLEY AV","New Haven","CT",""
23065,"559 WHALLEY AV","New Haven","CT",""
23066,"563 WHALLEY AV","New Haven","CT",""
23067,"567 WHALLEY AV","New Haven","CT",""
23068,"571 WHALLEY AV","New Haven","CT",""
23069,"575 WHALLEY AV","New Haven","CT",""
23070,"579 WHALLEY AV","New Haven","CT",""
23071,"15 WHITTLESEY AV","New Haven","CT",""
23072,"19 WHITTLESEY AV","New Haven","CT",""
23073,"25 WHITTLESEY AV","New Haven","CT",""
23074,"29 WHITTLESEY AV","New Haven","CT",""
23075,"33 WHITTLESEY AV","New Haven","CT",""
23076,"81 OSBORN AV","New Haven","CT",""
23077,"272 GOFFE TER","New Haven","CT",""
23078,"266 GOFFE TER","New Haven","CT",""
23079,"262 GOFFE TER","New Haven","CT",""
23080,"252 GOFFE TER","New Haven","CT",""
23081,"248 GOFFE TER","New Haven","CT",""
23082,"246 GOFFE TER","New Haven","CT",""
23083,"1610 ELLA T GRASSO BLVD","New Haven","CT",""
23084,"1604 ELLA T GRASSO BLVD","New Haven","CT",""
23085,"1600 ELLA T GRASSO BLVD","New Haven","CT",""
23086,"1596 ELLA T GRASSO BLVD","New Haven","CT",""
23087,"1592 ELLA T GRASSO BLVD","New Haven","CT",""
23088,"1588 ELLA T GRASSO BLVD","New Haven","CT",""
23089,"1582 ELLA T GRASSO BLVD","New Haven","CT",""
23090,"1578 ELLA T GRASSO BLVD","New Haven","CT",""
23091,"1572 ELLA T GRASSO BLVD","New Haven","CT",""
23092,"1568 ELLA T GRASSO BLVD","New Haven","CT",""
23093,"1564 ELLA T GRASSO BLVD","New Haven","CT",""
23094,"1558 ELLA T GRASSO BLVD","New Haven","CT",""
23095,"1552 ELLA T GRASSO BLVD","New Haven","CT",""
23096,"1548 ELLA T GRASSO BLVD","New Haven","CT",""
23097,"1544 ELLA T GRASSO BLVD","New Haven","CT",""
23098,"1536 ELLA T GRASSO BLVD","New Haven","CT",""
23099,"1532 ELLA T GRASSO BLVD","New Haven","CT",""
23100,"1528 ELLA T GRASSO BLVD","New Haven","CT",""
23101,"1524 ELLA T GRASSO BLVD","New Haven","CT",""
23102,"1520 ELLA T GRASSO BLVD","New Haven","CT",""
23103,"1514 ELLA T GRASSO BLVD","New Haven","CT",""
23104,"1508 ELLA T GRASSO BLVD","New Haven","CT",""
23105,"1504 ELLA T GRASSO BLVD","New Haven","CT",""
23106,"1500 ELLA T GRASSO BLVD","New Haven","CT",""
23107,"1496 ELLA T GRASSO BLVD","New Haven","CT",""
23108,"491 WHALLEY AV","New Haven","CT",""
23109,"503 WHALLEY AV","New Haven","CT",""
23110,"507 WHALLEY AV","New Haven","CT",""
23111,"511 WHALLEY AV","New Haven","CT",""
23112,"515 WHALLEY AV","New Haven","CT",""
23113,"13 BLAKE ST","New Haven","CT",""
23114,"17 BLAKE ST","New Haven","CT",""
23115,"21 BLAKE ST","New Haven","CT",""
23116,"27 BLAKE ST","New Haven","CT",""
23117,"31 BLAKE ST","New Haven","CT",""
23118,"37 BLAKE ST","New Haven","CT",""
23119,"41 BLAKE ST","New Haven","CT",""
23120,"45 BLAKE ST","New Haven","CT",""
23121,"51 BLAKE ST","New Haven","CT",""
23122,"55 BLAKE ST","New Haven","CT",""
23123,"59 BLAKE ST","New Haven","CT",""
23124,"63 BLAKE ST","New Haven","CT",""
23125,"67 BLAKE ST","New Haven","CT",""
23126,"71 BLAKE ST","New Haven","CT",""
23127,"75 BLAKE ST","New Haven","CT",""
23128,"79 BLAKE ST","New Haven","CT",""
23129,"83 BLAKE ST","New Haven","CT",""
23130,"87 BLAKE ST","New Haven","CT",""
23131,"91 BLAKE ST","New Haven","CT",""
23132,"97 BLAKE ST","New Haven","CT",""
23133,"101 BLAKE ST","New Haven","CT",""
23134,"105 BLAKE ST","New Haven","CT",""
23135,"111 BLAKE ST","New Haven","CT",""
23136,"115 BLAKE ST","New Haven","CT",""
23137,"119 BLAKE ST","New Haven","CT",""
23138,"129 BLAKE ST","New Haven","CT",""
23139,"71 OSBORN AV","New Haven","CT",""
23140,"75 OSBORN AV","New Haven","CT",""
23141,"134 BLAKE ST","New Haven","CT",""
23142,"130 BLAKE ST","New Haven","CT",""
23143,"124 BLAKE ST","New Haven","CT",""
23144,"118 BLAKE ST","New Haven","CT",""
23145,"116 BLAKE ST","New Haven","CT",""
23146,"114 BLAKE ST","New Haven","CT",""
23147,"108 BLAKE ST","New Haven","CT",""
23148,"102 BLAKE ST","New Haven","CT",""
23149,"96 BLAKE ST","New Haven","CT",""
23150,"42 WHITTLESEY AV","New Haven","CT",""
23151,"38 WHITTLESEY AV","New Haven","CT",""
23152,"34 WHITTLESEY AV","New Haven","CT",""
23153,"30 WHITTLESEY AV","New Haven","CT",""
23154,"11 YOUNG ST","New Haven","CT",""
23155,"17 YOUNG ST","New Haven","CT",""
23156,"21 YOUNG ST","New Haven","CT",""
23157,"25 YOUNG ST","New Haven","CT",""
23158,"31 YOUNG ST","New Haven","CT",""
23159,"35 YOUNG ST","New Haven","CT",""
23160,"39 YOUNG ST","New Haven","CT",""
23161,"43 YOUNG ST","New Haven","CT",""
23162,"49 YOUNG ST","New Haven","CT",""
23163,"41 OSBORN AV","New Haven","CT",""
23164,"49 OSBORN AV","New Haven","CT",""
23165,"51 OSBORN AV","New Haven","CT",""
23166,"WHALLEY AV","New Haven","CT",""
23167,"WHALLEY AV","New Haven","CT",""
23168,"73 JEWELL ST","New Haven","CT",""
23169,"232 BLAKE ST","New Haven","CT",""
23170,"228 BLAKE ST","New Haven","CT",""
23171,"222 BLAKE ST","New Haven","CT",""
23172,"212 BLAKE ST","New Haven","CT",""
23173,"216 BLAKE ST","New Haven","CT",""
23174,"202 BLAKE ST","New Haven","CT",""
23175,"BLAKE ST","New Haven","CT",""
23176,"701 WHALLEY AV","New Haven","CT",""
23177,"215 BLAKE ST","New Haven","CT",""
23178,"15 DIAMOND ST","New Haven","CT",""
23179,"46 RUBY ST","New Haven","CT",""
23180,"42 RUBY ST","New Haven","CT",""
23181,"36 RUBY ST","New Haven","CT",""
23182,"30 RUBY ST","New Haven","CT",""
23183,"26 RUBY ST","New Haven","CT",""
23184,"22 RUBY ST","New Haven","CT",""
23185,"14 RUBY ST","New Haven","CT",""
23186,"130 OSBORN AV","New Haven","CT",""
23187,"126 OSBORN AV","New Haven","CT",""
23188,"122 OSBORN AV","New Haven","CT",""
23189,"114 OSBORN AV","New Haven","CT",""
23190,"110 OSBORN AV","New Haven","CT",""
23191,"106 OSBORN AV","New Haven","CT",""
23192,"100 OSBORN AV","New Haven","CT",""
23193,"86 OSBORN AV","New Haven","CT",""
23194,"84 OSBORN AV","New Haven","CT",""
23195,"145 BLAKE ST","New Haven","CT",""
23196,"153 BLAKE ST","New Haven","CT",""
23197,"163 BLAKE ST","New Haven","CT",""
23198,"175 BLAKE ST","New Haven","CT",""
23199,NA,"New Haven","CT",""
23200,"187 BLAKE ST","New Haven","CT",""
23201,"195 BLAKE ST","New Haven","CT",""
23202,"199 BLAKE ST","New Haven","CT",""
23203,"205 BLAKE ST","New Haven","CT",""
23204,"209 BLAKE ST","New Haven","CT",""
23205,"93 OSBORN AV","New Haven","CT",""
23206,"99 OSBORN AV","New Haven","CT",""
23207,"103 OSBORN AV","New Haven","CT",""
23208,"111 OSBORN AV","New Haven","CT",""
23209,"117 OSBORN AV","New Haven","CT",""
23210,"123 OSBORN AV","New Haven","CT",""
23211,"129 OSBORN AV","New Haven","CT",""
23212,"135 OSBORN AV","New Haven","CT",""
23213,"141 OSBORN AV","New Haven","CT",""
23214,"145 OSBORN AV","New Haven","CT",""
23215,"151 OSBORN AV","New Haven","CT",""
23216,"159 OSBORN AV","New Haven","CT",""
23217,"165 OSBORN AV","New Haven","CT",""
23218,"175 OSBORN AV","New Haven","CT",""
23219,"166 ROYDON RD","New Haven","CT",""
23220,"150 ROYDON RD","New Haven","CT",""
23221,"140 ROYDON RD","New Haven","CT",""
23222,"130 ROYDON RD","New Haven","CT",""
23223,"120 ROYDON RD","New Haven","CT",""
23224,"106 ROYDON RD","New Haven","CT",""
23225,"96 ROYDON RD","New Haven","CT",""
23226,"86 ROYDON RD","New Haven","CT",""
23227,"76 ROYDON RD","New Haven","CT",""
23228,"66 ROYDON RD","New Haven","CT",""
23229,"50 ROYDON RD","New Haven","CT",""
23230,"40 ROYDON RD","New Haven","CT",""
23231,"26 ROYDON RD","New Haven","CT",""
23232,"16 ROYDON RD","New Haven","CT",""
23233,"2 ROYDON RD","New Haven","CT",""
23234,"5 ROYDON RD","New Haven","CT",""
23235,"15 ROYDON RD","New Haven","CT",""
23236,"25 ROYDON RD","New Haven","CT",""
23237,"39 ROYDON RD","New Haven","CT",""
23238,"51 ROYDON RD","New Haven","CT",""
23239,"65 ROYDON RD","New Haven","CT",""
23240,"75 ROYDON RD","New Haven","CT",""
23241,"85 ROYDON RD","New Haven","CT",""
23242,"95 ROYDON RD","New Haven","CT",""
23243,"105 ROYDON RD","New Haven","CT",""
23244,"121 ROYDON RD","New Haven","CT",""
23245,"135 ROYDON RD","New Haven","CT",""
23246,"145 ROYDON RD","New Haven","CT",""
23247,"155 ROYDON RD","New Haven","CT",""
23248,"165 ROYDON RD","New Haven","CT",""
23249,"1710 ELLA T GRASSO BLVD","New Haven","CT",""
23250,"1700 ELLA T GRASSO BLVD","New Haven","CT",""
23251,"1682 ELLA T GRASSO BLVD","New Haven","CT",""
23252,"1674 ELLA T GRASSO BLVD","New Haven","CT",""
23253,"1666 ELLA T GRASSO BLVD","New Haven","CT",""
23254,"1654 ELLA T GRASSO BLVD","New Haven","CT",""
23255,"1656 ELLA T GRASSO BLVD","New Haven","CT",""
23256,"1646 ELLA T GRASSO BLVD","New Haven","CT",""
23257,"1640 ELLA T GRASSO BLVD","New Haven","CT",""
23258,"1634 ELLA T GRASSO BLVD","New Haven","CT",""
23259,"1628 ELLA T GRASSO BLVD","New Haven","CT",""
23260,"1620 ELLA T GRASSO BLVD","New Haven","CT",""
23261,"25 DIAMOND ST","New Haven","CT",""
23262,"31 DIAMOND ST","New Haven","CT",""
23263,"37 DIAMOND ST","New Haven","CT",""
23264,"40 PELHAM LA","New Haven","CT",""
23265,"34 PELHAM LA","New Haven","CT",""
23266,"28 PELHAM LA","New Haven","CT",""
23267,"20 PELHAM LA","New Haven","CT",""
23268,"16 PELHAM LA","New Haven","CT",""
23269,"156 OSBORN AV","New Haven","CT",""
23270,"148 OSBORN AV","New Haven","CT",""
23271,"140 OSBORN AV","New Haven","CT",""
23272,"15 RUBY ST","New Haven","CT",""
23273,"21 RUBY ST","New Haven","CT",""
23274,"25 RUBY ST","New Haven","CT",""
23275,"33 RUBY ST","New Haven","CT",""
23276,"55 DIAMOND ST","New Haven","CT",""
23277,"61 DIAMOND ST","New Haven","CT",""
23278,"67 DIAMOND ST","New Haven","CT",""
23279,"40 WELLINGTON RD","New Haven","CT",""
23280,"32 WELLINGTON RD","New Haven","CT",""
23281,"26 WELLINGTON RD","New Haven","CT",""
23282,"20 WELLINGTON RD","New Haven","CT",""
23283,"190 OSBORN AV","New Haven","CT",""
23284,"180 OSBORN AV","New Haven","CT",""
23285,"170 OSBORN AV","New Haven","CT",""
23286,"17 PELHAM LA","New Haven","CT",""
23287,"25 PELHAM LA","New Haven","CT",""
23288,"35 PELHAM LA","New Haven","CT",""
23289,"39 WELLINGTON RD","New Haven","CT",""
23290,"93 DIAMOND ST","New Haven","CT",""
23291,"99 DIAMOND ST","New Haven","CT",""
23292,"105 DIAMOND ST","New Haven","CT",""
23293,"266 DYER ST","New Haven","CT",""
23294,"260 DYER ST","New Haven","CT",""
23295,"250 DYER ST","New Haven","CT",""
23296,"220 OSBORN AV","New Haven","CT",""
23297,"210 OSBORN AV","New Haven","CT",""
23298,"200 OSBORN AV","New Haven","CT",""
23299,"15 WELLINGTON RD","New Haven","CT",""
23300,"23 WELLINGTON RD","New Haven","CT",""
23301,"29 WELLINGTON RD","New Haven","CT",""
23302,"185 OSBORN AV","New Haven","CT",""
23303,"195 OSBORN AV","New Haven","CT",""
23304,"205 OSBORN AV","New Haven","CT",""
23305,"211 OSBORN AV","New Haven","CT",""
23306,"219 OSBORN AV","New Haven","CT",""
23307,"260 ROYDON RD","New Haven","CT",""
23308,"236 ROYDON RD","New Haven","CT",""
23309,"220 ROYDON RD","New Haven","CT",""
23310,"206 ROYDON RD","New Haven","CT",""
23311,"200 ROYDON RD","New Haven","CT",""
23312,"195 ROYDON RD","New Haven","CT",""
23313,"205 ROYDON RD","New Haven","CT",""
23314,"219 ROYDON RD","New Haven","CT",""
23315,"235 ROYDON RD","New Haven","CT",""
23316,"245 ROYDON RD","New Haven","CT",""
23317,"255 ROYDON RD","New Haven","CT",""
23318,"1742 ELLA T GRASSO BLVD","New Haven","CT",""
23319,"ELLA T GRASSO BLVD","New Haven","CT",""
23320,"1730 ELLA T GRASSO BLVD","New Haven","CT",""
23321,"1716 ELLA T GRASSO BLVD","New Haven","CT",""
23322,"1720 ELLA T GRASSO BLVD","New Haven","CT",""
23323,"769 WHALLEY AV","New Haven","CT",""
23324,"9 FITCH ST","New Haven","CT",""
23325,"17 FITCH ST","New Haven","CT",""
23326,"21 FITCH ST","New Haven","CT",""
23327,"27 FITCH ST","New Haven","CT",""
23328,"FITCH ST","New Haven","CT",""
23329,"FITCH ST","New Haven","CT",""
23330,"FITCH ST","New Haven","CT",""
23331,"JEWELL ST","New Haven","CT",""
23332,"JEWELL ST","New Haven","CT",""
23333,"JEWELL ST","New Haven","CT",""
23334,"JEWELL ST","New Haven","CT",""
23335,"FITCH ST","New Haven","CT",""
23336,"JEWELL ST","New Haven","CT",""
23337,"JEWELL ST","New Haven","CT",""
23338,"JEWELL ST","New Haven","CT",""
23339,"JEWELL ST","New Haven","CT",""
23340,"JEWELL ST","New Haven","CT",""
23341,"JEWELL ST","New Haven","CT",""
23342,"JEWELL ST","New Haven","CT",""
23343,"JEWELL ST","New Haven","CT",""
23344,"10 JEWELL ST","New Haven","CT",""
23345,"763 WHALLEY AV","New Haven","CT",""
23346,"95 FITCH ST","New Haven","CT",""
23347,"103 FITCH ST","New Haven","CT",""
23348,"105 FITCH ST","New Haven","CT",""
23349,"109 FITCH ST","New Haven","CT",""
23350,"119 FITCH ST","New Haven","CT",""
23351,"127 FITCH ST","New Haven","CT",""
23352,"280 BLAKE ST","New Haven","CT",""
23353,"276 BLAKE ST","New Haven","CT",""
23354,"270 BLAKE ST","New Haven","CT",""
23355,"250 BLAKE ST","New Haven","CT",""
23356,"ONYX ST","New Haven","CT",""
23357,"68 JEWELL ST","New Haven","CT",""
23358,"72 JEWELL ST","New Haven","CT",""
23359,"39 ONYX ST","New Haven","CT",""
23360,"283 BLAKE ST","New Haven","CT",""
23361,"151 FITCH ST","New Haven","CT",""
23362,"66 DIAMOND ST","New Haven","CT",""
23363,"60 DIAMOND ST","New Haven","CT",""
23364,"54 DIAMOND ST","New Haven","CT",""
23365,"50 DIAMOND ST","New Haven","CT",""
23366,"44 DIAMOND ST","New Haven","CT",""
23367,"38 DIAMOND ST","New Haven","CT",""
23368,"28 DIAMOND ST","New Haven","CT",""
23369,"20 DIAMOND ST","New Haven","CT",""
23370,"14 DIAMOND ST","New Haven","CT",""
23371,"223 BLAKE ST","New Haven","CT",""
23372,"225 BLAKE ST","New Haven","CT",""
23373,"233 BLAKE ST","New Haven","CT",""
23374,"235 BLAKE ST","New Haven","CT",""
23375,"BLAKE ST","New Haven","CT",""
23376,"237 BLAKE ST","New Haven","CT",""
23377,"245 BLAKE ST","New Haven","CT",""
23378,"249 BLAKE ST","New Haven","CT",""
23379,"253 BLAKE ST","New Haven","CT",""
23380,"257 BLAKE ST","New Haven","CT",""
23381,"265 BLAKE ST","New Haven","CT",""
23382,"273 BLAKE ST","New Haven","CT",""
23383,"277 BLAKE ST","New Haven","CT",""
23384,"163 FITCH ST","New Haven","CT",""
23385,"171 FITCH ST","New Haven","CT",""
23386,"310 DYER ST","New Haven","CT",""
23387,"300 DYER ST","New Haven","CT",""
23388,"106 DIAMOND ST","New Haven","CT",""
23389,"94 DIAMOND ST","New Haven","CT",""
23390,"88 DIAMOND ST","New Haven","CT",""
23391,"82 DIAMOND ST","New Haven","CT",""
23392,"76 DIAMOND ST","New Haven","CT",""
23393,"70 DIAMOND ST","New Haven","CT",""
23394,"197 FITCH ST","New Haven","CT",""
23395,"201 FITCH ST","New Haven","CT",""
23396,"211 FITCH ST","New Haven","CT",""
23397,"215 FITCH ST","New Haven","CT",""
23398,"219 FITCH ST","New Haven","CT",""
23399,"223 FITCH ST","New Haven","CT",""
23400,"227 FITCH ST","New Haven","CT",""
23401,"239 FITCH ST","New Haven","CT",""
23402,"249 FITCH ST","New Haven","CT",""
23403,"DIAMOND ST","New Haven","CT",""
23404,"120 DIAMOND ST","New Haven","CT",""
23405,"289 DYER ST","New Haven","CT",""
23406,"293 DYER ST","New Haven","CT",""
23407,"297 DYER ST","New Haven","CT",""
23408,"303 DYER ST","New Haven","CT",""
23409,"309 DYER ST","New Haven","CT",""
23410,"333 BLAKE ST","New Haven","CT",""
23411,"337 BLAKE ST","New Haven","CT",""
23412,"311 BLAKE ST","New Haven","CT",""
23413,"244 FITCH ST","New Haven","CT",""
23414,"254 FITCH ST","New Haven","CT",""
23415,"246 FITCH ST","New Haven","CT",""
23416,"250 FITCH ST","New Haven","CT",""
23417,"236 FITCH ST","New Haven","CT",""
23418,"230 FITCH ST","New Haven","CT",""
23419,"224 FITCH ST","New Haven","CT",""
23420,"220 FITCH ST","New Haven","CT",""
23421,"216 FITCH ST","New Haven","CT",""
23422,"210 FITCH ST","New Haven","CT",""
23423,"202 FITCH ST","New Haven","CT",""
23424,"192 FITCH ST","New Haven","CT",""
23425,"176 FITCH ST","New Haven","CT",""
23426,"174 FITCH ST","New Haven","CT",""
23427,"172 FITCH ST","New Haven","CT",""
23428,"170 FITCH ST","New Haven","CT",""
23429,"168 FITCH ST","New Haven","CT",""
23430,"166 FITCH ST","New Haven","CT",""
23431,"164 FITCH ST","New Haven","CT",""
23432,NA,"New Haven","CT",""
23433,"295 BLAKE ST","New Haven","CT",""
23434,NA,"New Haven","CT",""
23435,NA,"New Haven","CT",""
23436,"FITCH ST","New Haven","CT",""
23437,"110 ROGER WHITE DR","New Haven","CT",""
23438,"116 ROGER WHITE DR","New Haven","CT",""
23439,"124 ROGER WHITE DR","New Haven","CT",""
23440,"130 ROGER WHITE DR","New Haven","CT",""
23441,"138 ROGER WHITE DR","New Haven","CT",""
23442,"144 ROGER WHITE DR","New Haven","CT",""
23443,"154 ROGER WHITE DR","New Haven","CT",""
23444,"164 ROGER WHITE DR","New Haven","CT",""
23445,"115 DIAMOND ST","New Haven","CT",""
23446,"82 ROGER WHITE DR","New Haven","CT",""
23447,"72 ROGER WHITE DR","New Haven","CT",""
23448,"64 ROGER WHITE DR","New Haven","CT",""
23449,"56 ROGER WHITE DR","New Haven","CT",""
23450,"46 ROGER WHITE DR","New Haven","CT",""
23451,"38 ROGER WHITE DR","New Haven","CT",""
23452,"30 ROGER WHITE DR","New Haven","CT",""
23453,"22 ROGER WHITE DR","New Haven","CT",""
23454,"14 ROGER WHITE DR","New Haven","CT",""
23455,"4 ROGER WHITE DR","New Haven","CT",""
23456,"5 ROGER WHITE DR","New Haven","CT",""
23457,"40 BEAVER HILL LA","New Haven","CT",""
23458,"30 BEAVER HILL LA","New Haven","CT",""
23459,"22 BEAVER HILL LA","New Haven","CT",""
23460,"16 BEAVER HILL LA","New Haven","CT",""
23461,"40 STIMSON RD","New Haven","CT",""
23462,"10 STIMSON RD","New Haven","CT",""
23463,"235 DYER ST","New Haven","CT",""
23464,"245 DYER ST","New Haven","CT",""
23465,"15 STIMSON RD","New Haven","CT",""
23466,"25 STIMSON RD","New Haven","CT",""
23467,"35 STIMSON RD","New Haven","CT",""
23468,"45 STIMSON RD","New Haven","CT",""
23469,"55 STIMSON RD","New Haven","CT",""
23470,"65 STIMSON RD","New Haven","CT",""
23471,"75 STIMSON RD","New Haven","CT",""
23472,"85 STIMSON RD","New Haven","CT",""
23473,"95 STIMSON RD","New Haven","CT",""
23474,"105 STIMSON RD","New Haven","CT",""
23475,"125 STIMSON RD","New Haven","CT",""
23476,"145 STIMSON RD","New Haven","CT",""
23477,"161 STIMSON RD","New Haven","CT",""
23478,"175 STIMSON RD","New Haven","CT",""
23479,"185 STIMSON RD","New Haven","CT",""
23480,"195 STIMSON RD","New Haven","CT",""
23481,"205 STIMSON RD","New Haven","CT",""
23482,"215 STIMSON RD","New Haven","CT",""
23483,"151 ROGER WHITE DR","New Haven","CT",""
23484,"169 ROGER WHITE DR","New Haven","CT",""
23485,"1886 ELLA T GRASSO BLVD","New Haven","CT",""
23486,"1876 ELLA T GRASSO BLVD","New Haven","CT",""
23487,"1870 ELLA T GRASSO BLVD","New Haven","CT",""
23488,"1864 ELLA T GRASSO BLVD","New Haven","CT",""
23489,"1860 ELLA T GRASSO BLVD","New Haven","CT",""
23490,"1850 ELLA T GRASSO BLVD","New Haven","CT",""
23491,"1844 ELLA T GRASSO BLVD","New Haven","CT",""
23492,"1838 ELLA T GRASSO BLVD","New Haven","CT",""
23493,"1834 ELLA T GRASSO BLVD","New Haven","CT",""
23494,"1830 ELLA T GRASSO BLVD","New Haven","CT",""
23495,"1820 ELLA T GRASSO BLVD","New Haven","CT",""
23496,"1816 ELLA T GRASSO BLVD","New Haven","CT",""
23497,"1810 ELLA T GRASSO BLVD","New Haven","CT",""
23498,"1800 ELLA T GRASSO BLVD","New Haven","CT",""
23499,"1796 ELLA T GRASSO BLVD","New Haven","CT",""
23500,"1790 ELLA T GRASSO BLVD","New Haven","CT",""
23501,"1786 ELLA T GRASSO BLVD","New Haven","CT",""
23502,"1780 ELLA T GRASSO BLVD","New Haven","CT",""
23503,"1772 ELLA T GRASSO BLVD","New Haven","CT",""
23504,"1768 ELLA T GRASSO BLVD","New Haven","CT",""
23505,"1758 ELLA T GRASSO BLVD","New Haven","CT",""
23506,"195 DYER ST","New Haven","CT",""
23507,"39 BEAVER HILL LA","New Haven","CT",""
23508,"45 ROGER WHITE DR","New Haven","CT",""
23509,"28 ROCK VIEW TER","New Haven","CT",""
23510,"ROCK VIEW TER","New Haven","CT",""
23511,"16 ROCK VIEW TER","New Haven","CT",""
23512,"100 STIMSON RD","New Haven","CT",""
23513,"84 STIMSON RD","New Haven","CT",""
23514,"70 STIMSON RD","New Haven","CT",""
23515,"15 BEAVER HILL LA","New Haven","CT",""
23516,"25 BEAVER HILL LA","New Haven","CT",""
23517,"31 BEAVER HILL LA","New Haven","CT",""
23518,"35 ROCK VIEW TER","New Haven","CT",""
23519,"30 PINE ROCK RD","New Haven","CT",""
23520,"PINE ROCK RD","New Haven","CT",""
23521,"14 PINE ROCK RD","New Haven","CT",""
23522,"6 PINE ROCK RD","New Haven","CT",""
23523,"140 STIMSON RD","New Haven","CT",""
23524,"120 STIMSON RD","New Haven","CT",""
23525,"15 ROCK VIEW TER","New Haven","CT",""
23526,"25 ROCK VIEW TER","New Haven","CT",""
23527,"35 PINE ROCK RD","New Haven","CT",""
23528,"25 PINE ROCK RD","New Haven","CT",""
23529,"111 ROGER WHITE DR","New Haven","CT",""
23530,"119 ROGER WHITE DR","New Haven","CT",""
23531,"135 ROGER WHITE DR","New Haven","CT",""
23532,"214 STIMSON RD","New Haven","CT",""
23533,"204 STIMSON RD","New Haven","CT",""
23534,"1 PINE ROCK RD","New Haven","CT",""
23535,"15 PINE ROCK RD","New Haven","CT",""
23536,"93 FARNHAM AV","New Haven","CT",""
23537,"FITCH ST","New Haven","CT",""
23538,"WINTERGREEN AV","New Haven","CT",""
23539,"WINTERGREEN AV","New Haven","CT",""
23540,"FITCH ST","New Haven","CT",""
23541,"60 BROOKSIDE AV","New Haven","CT",""
23542,"49 BROOKSIDE AV","New Haven","CT",""
23543,"295 WILMOT RD","New Haven","CT",""
23544,"WOODIN ST","New Haven","CT",""
23545,"200 BROOKSIDE AV","New Haven","CT",""
23546,"69 THORPE DR","New Haven","CT",""
23547,"64 THORPE DR","New Haven","CT",""
23548,"62 THORPE DR","New Haven","CT",""
23549,"199 WILMOT RD","New Haven","CT",""
23550,"251 WILMOT RD","New Haven","CT",""
23551,"WILMOT RD","New Haven","CT",""
23552,"WINTERGREEN AV","New Haven","CT",""
23553,"170 WINTERGREEN AV","New Haven","CT",""
23554,"85 WINTERGREEN AV","New Haven","CT",""
23555,"WINTERGREEN AV","New Haven","CT",""
23556,"WINTERGREEN AV","New Haven","CT",""
23557,"WINTERGREEN AV","New Haven","CT",""
23558,"WINTERGREEN AV","New Haven","CT",""
23559,"10 WINTERGREEN AV","New Haven","CT",""
23560,"145 SPRINGSIDE AV","New Haven","CT",""
23561,"81 SPRINGSIDE AV","New Haven","CT",""
23562,"138 SPRINGSIDE AV","New Haven","CT",""
23563,"132 SPRINGSIDE AV","New Haven","CT",""
23564,"130 SPRINGSIDE AV","New Haven","CT",""
23565,"122 SPRINGSIDE AV","New Haven","CT",""
23566,"116 SPRINGSIDE AV","New Haven","CT",""
23567,"146 SPRINGSIDE AV #A-1","New Haven","CT",""
23568,"146 SPRINGSIDE AV #A-2","New Haven","CT",""
23569,"146 SPRINGSIDE AV #A-3","New Haven","CT",""
23570,"146 SPRINGSIDE AV #A-4","New Haven","CT",""
23571,"146 SPRINGSIDE AV #A-5","New Haven","CT",""
23572,"146 SPRINGSIDE AV #A-6","New Haven","CT",""
23573,"146 SPRINGSIDE AV #A-7","New Haven","CT",""
23574,"146 SPRINGSIDE AV #A-8","New Haven","CT",""
23575,"146 SPRINGSIDE AV #B-1","New Haven","CT",""
23576,"146 SPRINGSIDE AV #B-2","New Haven","CT",""
23577,"146 SPRINGSIDE AV #B-3","New Haven","CT",""
23578,"146 SPRINGSIDE AV #B-4","New Haven","CT",""
23579,"146 SPRINGSIDE AV #B-5","New Haven","CT",""
23580,"146 SPRINGSIDE AV #B-6","New Haven","CT",""
23581,"146 SPRINGSIDE AV #B-7","New Haven","CT",""
23582,"146 SPRINGSIDE AV #B-8","New Haven","CT",""
23583,"146 SPRINGSIDE AV #B-9","New Haven","CT",""
23584,"146 SPRINGSIDE AV #B-10","New Haven","CT",""
23585,"146 SPRINGSIDE AV #B-11","New Haven","CT",""
23586,"146 SPRINGSIDE AV #B-12","New Haven","CT",""
23587,"146 SPRINGSIDE AV #B-13","New Haven","CT",""
23588,"146 SPRINGSIDE AV #B-14","New Haven","CT",""
23589,"146 SPRINGSIDE AV #C-1","New Haven","CT",""
23590,"146 SPRINGSIDE AV #C-2","New Haven","CT",""
23591,"146 SPRINGSIDE AV #C-3","New Haven","CT",""
23592,"146 SPRINGSIDE AV #C-4","New Haven","CT",""
23593,"146 SPRINGSIDE AV #C-5","New Haven","CT",""
23594,"146 SPRINGSIDE AV #C-6","New Haven","CT",""
23595,"146 SPRINGSIDE AV #C-7","New Haven","CT",""
23596,"146 SPRINGSIDE AV #C-8","New Haven","CT",""
23597,"146 SPRINGSIDE AV #C-9","New Haven","CT",""
23598,"146 SPRINGSIDE AV #C-10","New Haven","CT",""
23599,"146 SPRINGSIDE AV #C-11","New Haven","CT",""
23600,"146 SPRINGSIDE AV #C-12","New Haven","CT",""
23601,"146 SPRINGSIDE AV #C-13","New Haven","CT",""
23602,"146 SPRINGSIDE AV #C-14","New Haven","CT",""
23603,"112 SPRINGSIDE AV","New Haven","CT",""
23604,"108 SPRINGSIDE AV","New Haven","CT",""
23605,"104 SPRINGSIDE AV","New Haven","CT",""
23606,"28 FARNHAM AV","New Haven","CT",""
23607,"24 FARNHAM AV","New Haven","CT",""
23608,"20 FARNHAM AV","New Haven","CT",""
23609,"16 FARNHAM AV","New Haven","CT",""
23610,"14 FARNHAM AV","New Haven","CT",""
23611,"355 BLAKE ST","New Haven","CT",""
23612,"5 SPRINGSIDE AV","New Haven","CT",""
23613,"15 SPRINGSIDE AV","New Haven","CT",""
23614,"25 SPRINGSIDE AV","New Haven","CT",""
23615,"45 SPRINGSIDE AV","New Haven","CT",""
23616,"61 SPRINGSIDE AV","New Haven","CT",""
23617,"63 SPRINGSIDE AV","New Haven","CT",""
23618,"71 SPRINGSIDE AV","New Haven","CT",""
23619,"57 AUSTIN ST","New Haven","CT",""
23620,"51 HARD ST","New Haven","CT",""
23621,"59 HARD ST","New Haven","CT",""
23622,"60 SPRINGSIDE AV","New Haven","CT",""
23623,"52 SPRINGSIDE AV","New Haven","CT",""
23624,"46 SPRINGSIDE AV","New Haven","CT",""
23625,"40 SPRINGSIDE AV","New Haven","CT",""
23626,"375 BLAKE ST","New Haven","CT",""
23627,"9 AUSTIN ST","New Haven","CT",""
23628,"15 AUSTIN ST","New Haven","CT",""
23629,"25 AUSTIN ST","New Haven","CT",""
23630,"39 AUSTIN ST","New Haven","CT",""
23631,"45 AUSTIN ST","New Haven","CT",""
23632,"51 AUSTIN ST","New Haven","CT",""
23633,"29 STONE ST","New Haven","CT",""
23634,"25 HARD ST","New Haven","CT",""
23635,"48 AUSTIN ST","New Haven","CT",""
23636,"40 AUSTIN ST","New Haven","CT",""
23637,"32 AUSTIN ST","New Haven","CT",""
23638,"30 AUSTIN ST","New Haven","CT",""
23639,"26 AUSTIN ST","New Haven","CT",""
23640,"20 AUSTIN ST","New Haven","CT",""
23641,"16 AUSTIN ST","New Haven","CT",""
23642,"395 BLAKE ST","New Haven","CT",""
23643,"401 BLAKE ST","New Haven","CT",""
23644,"405 BLAKE ST","New Haven","CT",""
23645,"411 BLAKE ST #411","New Haven","CT",""
23646,"415 BLAKE ST #415","New Haven","CT",""
23647,"417 BLAKE ST #417","New Haven","CT",""
23648,"419 BLAKE ST #419","New Haven","CT",""
23649,"421 BLAKE ST #421","New Haven","CT",""
23650,"423 BLAKE ST #423","New Haven","CT",""
23651,"425 BLAKE ST #425","New Haven","CT",""
23652,"427 BLAKE ST #427","New Haven","CT",""
23653,"429 BLAKE ST #429","New Haven","CT",""
23654,"431 BLAKE ST #431","New Haven","CT",""
23655,"433 BLAKE ST #433","New Haven","CT",""
23656,"435 BLAKE ST #435","New Haven","CT",""
23657,"437 BLAKE ST #437","New Haven","CT",""
23658,"7 STONE ST","New Haven","CT",""
23659,"9 STONE ST","New Haven","CT",""
23660,"13 STONE ST","New Haven","CT",""
23661,"15 STONE ST","New Haven","CT",""
23662,"17 STONE ST","New Haven","CT",""
23663,"90 SPRINGSIDE AV","New Haven","CT",""
23664,"86 SPRINGSIDE AV","New Haven","CT",""
23665,"52 HARD ST","New Haven","CT",""
23666,"44 HARD ST #1","New Haven","CT",""
23667,"44 HARD ST #2","New Haven","CT",""
23668,"44 HARD ST #3","New Haven","CT",""
23669,"44 HARD ST #4","New Haven","CT",""
23670,"44 HARD ST #5","New Haven","CT",""
23671,"36 HARD ST","New Haven","CT",""
23672,"95 HARD ST","New Haven","CT",""
23673,"10 HARD ST","New Haven","CT",""
23674,"BLAKE ST","New Haven","CT",""
23675,"495 BLAKE ST","New Haven","CT",""
23676,"400 BLAKE ST","New Haven","CT",""
23677,"410 BLAKE ST","New Haven","CT",""
23678,NA,"New Haven","CT",""
23679,"370 BLAKE ST","New Haven","CT",""
23680,"352 BLAKE ST","New Haven","CT",""
23681,"346 BLAKE ST","New Haven","CT",""
23682,"342 BLAKE ST","New Haven","CT",""
23683,"86 FITCH ST","New Haven","CT",""
23684,"86 FITCH ST","New Haven","CT",""
23685,"334 BLAKE ST","New Haven","CT",""
23686,"330 BLAKE ST","New Haven","CT",""
23687,"322 BLAKE ST","New Haven","CT",""
23688,"314 BLAKE ST","New Haven","CT",""
23689,"BLAKE ST","New Haven","CT",""
23690,"308 BLAKE ST","New Haven","CT",""
23691,"158 FITCH ST","New Haven","CT",""
23692,"154 FITCH ST","New Haven","CT",""
23693,"152 FITCH ST","New Haven","CT",""
23694,"150 FITCH ST","New Haven","CT",""
23695,"148 FITCH ST","New Haven","CT",""
23696,"FITCH ST","New Haven","CT",""
23697,"FITCH ST","New Haven","CT",""
23698,"66 FITCH ST","New Haven","CT",""
23699,"781 WHALLEY AV","New Haven","CT",""
23700,"801 WHALLEY AV","New Haven","CT",""
23701,"817 WHALLEY AV","New Haven","CT",""
23702,"827 WHALLEY AV","New Haven","CT",""
23703,"831 WHALLEY AV #1","New Haven","CT",""
23704,"831 WHALLEY AV #2","New Haven","CT",""
23705,"831 WHALLEY AV #3","New Haven","CT",""
23706,"831 WHALLEY AV #4","New Haven","CT",""
23707,"831 WHALLEY AV #5","New Haven","CT",""
23708,"831 WHALLEY AV #6","New Haven","CT",""
23709,"831 WHALLEY AV #7","New Haven","CT",""
23710,"831 WHALLEY AV #8","New Haven","CT",""
23711,"831 WHALLEY AV #9","New Haven","CT",""
23712,"831 WHALLEY AV #10","New Haven","CT",""
23713,"831 WHALLEY AV #11","New Haven","CT",""
23714,"831 WHALLEY AV #12","New Haven","CT",""
23715,"831 WHALLEY AV #13","New Haven","CT",""
23716,"831 WHALLEY AV #14","New Haven","CT",""
23717,"413 WEST ROCK AV","New Haven","CT",""
23718,"WEST ROCK AV","New Haven","CT",""
23719,"417 WEST ROCK AV","New Haven","CT",""
23720,"425 WEST ROCK AV","New Haven","CT",""
23721,"VALLEY ST","New Haven","CT",""
23722,"740 WHALLEY AV","New Haven","CT",""
23723,"720 EDGEWOOD AV","New Haven","CT",""
23724,"1946 CHAPEL ST","New Haven","CT",""
23725,"CHAPEL ST","New Haven","CT",""
23726,"1940 CHAPEL ST","New Haven","CT",""
23727,"1934 CHAPEL ST","New Haven","CT",""
23728,"1930 CHAPEL ST","New Haven","CT",""
23729,"1926 CHAPEL ST","New Haven","CT",""
23730,"1922 CHAPEL ST","New Haven","CT",""
23731,"1918 CHAPEL ST","New Haven","CT",""
23732,"1914 CHAPEL ST","New Haven","CT",""
23733,"1910 CHAPEL ST","New Haven","CT",""
23734,"1906 CHAPEL ST","New Haven","CT",""
23735,"213 CENTRAL AV","New Haven","CT",""
23736,"96 WESTWOOD RD","New Haven","CT",""
23737,"86 WESTWOOD RD","New Haven","CT",""
23738,"28 WEST ROCK AV","New Haven","CT",""
23739,"24 WEST ROCK AV","New Haven","CT",""
23740,"18 WEST ROCK AV","New Haven","CT",""
23741,"14 WEST ROCK AV","New Haven","CT",""
23742,"8 WEST ROCK AV","New Haven","CT",""
23743,"4 WEST ROCK AV","New Haven","CT",""
23744,"1931 CHAPEL ST","New Haven","CT",""
23745,"1945 CHAPEL ST","New Haven","CT",""
23746,"239 CENTRAL AV","New Haven","CT",""
23747,"245 CENTRAL AV","New Haven","CT",""
23748,"249 CENTRAL AV","New Haven","CT",""
23749,"253 CENTRAL AV","New Haven","CT",""
23750,"790 EDGEWOOD AV","New Haven","CT",""
23751,"780 EDGEWOOD AV","New Haven","CT",""
23752,"770 EDGEWOOD AV","New Haven","CT",""
23753,"766 EDGEWOOD AV","New Haven","CT",""
23754,"760 EDGEWOOD AV","New Haven","CT",""
23755,"80 WEST ROCK AV","New Haven","CT",""
23756,"74 WEST ROCK AV","New Haven","CT",""
23757,"70 WEST ROCK AV","New Haven","CT",""
23758,"68 WEST ROCK AV","New Haven","CT",""
23759,"62 WEST ROCK AV","New Haven","CT",""
23760,"54 WEST ROCK AV","New Haven","CT",""
23761,"44 WEST ROCK AV","New Haven","CT",""
23762,"71 WESTWOOD RD","New Haven","CT",""
23763,"75 WESTWOOD RD","New Haven","CT",""
23764,"275 CENTRAL AV","New Haven","CT",""
23765,"279 CENTRAL AV","New Haven","CT",""
23766,"285 CENTRAL AV","New Haven","CT",""
23767,"289 CENTRAL AV","New Haven","CT",""
23768,"295 CENTRAL AV","New Haven","CT",""
23769,"303 CENTRAL AV","New Haven","CT",""
23770,"309 CENTRAL AV","New Haven","CT",""
23771,"315 CENTRAL AV","New Haven","CT",""
23772,"27 WEST ROCK AV","New Haven","CT",""
23773,"46 WESTWOOD RD","New Haven","CT",""
23774,"42 WESTWOOD RD","New Haven","CT",""
23775,"38 WESTWOOD RD","New Haven","CT",""
23776,"32 WESTWOOD RD","New Haven","CT",""
23777,"30 WESTWOOD RD","New Haven","CT",""
23778,"26 WESTWOOD RD","New Haven","CT",""
23779,"20 WESTWOOD RD","New Haven","CT",""
23780,"16 WESTWOOD RD","New Haven","CT",""
23781,"12 WESTWOOD RD","New Haven","CT",""
23782,"198 YALE AV","New Haven","CT",""
23783,"188 YALE AV","New Haven","CT",""
23784,"180 YALE AV","New Haven","CT",""
23785,"1839 CHAPEL ST","New Haven","CT",""
23786,"1847 CHAPEL ST","New Haven","CT",""
23787,"1853 CHAPEL ST","New Haven","CT",""
23788,"1859 CHAPEL ST","New Haven","CT",""
23789,"1863 CHAPEL ST","New Haven","CT",""
23790,"1867 CHAPEL ST","New Haven","CT",""
23791,"1873 CHAPEL ST","New Haven","CT",""
23792,"1877 CHAPEL ST","New Haven","CT",""
23793,"1881 CHAPEL ST","New Haven","CT",""
23794,"1885 CHAPEL ST","New Haven","CT",""
23795,"1887 CHAPEL ST","New Haven","CT",""
23796,"1891 CHAPEL ST","New Haven","CT",""
23797,"1897 CHAPEL ST","New Haven","CT",""
23798,"3 WEST ROCK AV","New Haven","CT",""
23799,"9 WEST ROCK AV","New Haven","CT",""
23800,"15 WEST ROCK AV","New Haven","CT",""
23801,"19 WEST ROCK AV","New Haven","CT",""
23802,"23 WEST ROCK AV","New Haven","CT",""
23803,"750 EDGEWOOD AV","New Haven","CT",""
23804,"744 EDGEWOOD AV","New Haven","CT",""
23805,"740 EDGEWOOD AV","New Haven","CT",""
23806,"736 EDGEWOOD AV","New Haven","CT",""
23807,"732 EDGEWOOD AV","New Haven","CT",""
23808,"262 YALE AV","New Haven","CT",""
23809,"256 YALE AV","New Haven","CT",""
23810,"250 YALE AV","New Haven","CT",""
23811,"244 YALE AV","New Haven","CT",""
23812,"63 WEST ROCK AV","New Haven","CT",""
23813,"79 WEST ROCK AV","New Haven","CT",""
23814,"YALE AV","New Haven","CT",""
23815,"240 YALE AV","New Haven","CT",""
23816,"YALE AV","New Haven","CT",""
23817,"232 YALE AV","New Haven","CT",""
23818,"224 YALE AV","New Haven","CT",""
23819,"216 YALE AV","New Haven","CT",""
23820,"210 YALE AV","New Haven","CT",""
23821,"19 WESTWOOD RD","New Haven","CT",""
23822,"23 WESTWOOD RD","New Haven","CT",""
23823,"29 WESTWOOD RD","New Haven","CT",""
23824,"33 WESTWOOD RD","New Haven","CT",""
23825,"43 WESTWOOD RD","New Haven","CT",""
23826,"45 WESTWOOD RD","New Haven","CT",""
23827,"47 WESTWOOD RD","New Haven","CT",""
23828,"57 WESTWOOD RD","New Haven","CT",""
23829,"45 WEST ROCK AV","New Haven","CT",""
23830,"49 WEST ROCK AV","New Haven","CT",""
23831,"53 WEST ROCK AV","New Haven","CT",""
23832,"59 WEST ROCK AV","New Haven","CT",""
23833,"69 WEST ROCK AV","New Haven","CT",""
23834,"73 WEST ROCK AV","New Haven","CT",""
23835,"77 WEST ROCK AV","New Haven","CT",""
23836,"165 CENTRAL AV","New Haven","CT",""
23837,"YALE AV","New Haven","CT",""
23838,"150 YALE AV","New Haven","CT",""
23839,"67 CENTRAL AV","New Haven","CT",""
23840,"CENTRAL AV","New Haven","CT",""
23841,"CENTRAL AV","New Haven","CT",""
23842,"40 CENTRAL AV","New Haven","CT",""
23843,"ROGER RD","New Haven","CT",""
23844,"ROGER RD","New Haven","CT",""
23845,"CENTRAL AV","New Haven","CT",""
23846,"699 FOREST RD","New Haven","CT",""
23847,"130 CLEVELAND RD","New Haven","CT",""
23848,"120 CLEVELAND RD","New Haven","CT",""
23849,"110 CLEVELAND RD","New Haven","CT",""
23850,"100 CLEVELAND RD","New Haven","CT",""
23851,"94 CLEVELAND RD","New Haven","CT",""
23852,"88 CLEVELAND RD","New Haven","CT",""
23853,"80 CLEVELAND RD","New Haven","CT",""
23854,"74 CLEVELAND RD","New Haven","CT",""
23855,"68 CLEVELAND RD","New Haven","CT",""
23856,"62 CLEVELAND RD","New Haven","CT",""
23857,"54 CLEVELAND RD","New Haven","CT",""
23858,"48 CLEVELAND RD","New Haven","CT",""
23859,"42 CLEVELAND RD","New Haven","CT",""
23860,"36 CLEVELAND RD","New Haven","CT",""
23861,"30 CLEVELAND RD","New Haven","CT",""
23862,"24 CLEVELAND RD","New Haven","CT",""
23863,"18 CLEVELAND RD","New Haven","CT",""
23864,"12 CLEVELAND RD","New Haven","CT",""
23865,"4 CLEVELAND RD","New Haven","CT",""
23866,"11 ALDEN AV","New Haven","CT",""
23867,"152 OLIVER RD","New Haven","CT",""
23868,"136 OLIVER RD","New Haven","CT",""
23869,"120 OLIVER RD","New Haven","CT",""
23870,"106 OLIVER RD","New Haven","CT",""
23871,"94 OLIVER RD","New Haven","CT",""
23872,"82 OLIVER RD","New Haven","CT",""
23873,"72 OLIVER RD","New Haven","CT",""
23874,"60 OLIVER RD","New Haven","CT",""
23875,"46 OLIVER RD","New Haven","CT",""
23876,"34 OLIVER RD","New Haven","CT",""
23877,"12 OLIVER RD","New Haven","CT",""
23878,"194 CENTRAL AV","New Haven","CT",""
23879,"188 CENTRAL AV","New Haven","CT",""
23880,"9 CLEVELAND RD","New Haven","CT",""
23881,"19 CLEVELAND RD","New Haven","CT",""
23882,"25 CLEVELAND RD","New Haven","CT",""
23883,"33 CLEVELAND RD","New Haven","CT",""
23884,"37 CLEVELAND RD","New Haven","CT",""
23885,"39 CLEVELAND RD","New Haven","CT",""
23886,"45 CLEVELAND RD","New Haven","CT",""
23887,"53 CLEVELAND RD","New Haven","CT",""
23888,"65 CLEVELAND RD","New Haven","CT",""
23889,"75 CLEVELAND RD","New Haven","CT",""
23890,"81 CLEVELAND RD","New Haven","CT",""
23891,"91 CLEVELAND RD","New Haven","CT",""
23892,"7 ALDEN AV","New Haven","CT",""
23893,"19 ALDEN AV","New Haven","CT",""
23894,"2034 CHAPEL ST","New Haven","CT",""
23895,"2028 CHAPEL ST","New Haven","CT",""
23896,"2018 CHAPEL ST","New Haven","CT",""
23897,"CHAPEL ST","New Haven","CT",""
23898,"2010 CHAPEL ST","New Haven","CT",""
23899,"2000 CHAPEL ST","New Haven","CT",""
23900,"1998 CHAPEL ST","New Haven","CT",""
23901,"1988 CHAPEL ST","New Haven","CT",""
23902,"1980 CHAPEL ST","New Haven","CT",""
23903,"1976 CHAPEL ST","New Haven","CT",""
23904,"1970 CHAPEL ST","New Haven","CT",""
23905,"1964 CHAPEL ST","New Haven","CT",""
23906,"1960 CHAPEL ST","New Haven","CT",""
23907,"214 CENTRAL AV","New Haven","CT",""
23908,"115 OLIVER RD","New Haven","CT",""
23909,"131 OLIVER RD","New Haven","CT",""
23910,"151 OLIVER RD","New Haven","CT",""
23911,"161 OLIVER RD","New Haven","CT",""
23912,"15 ALDEN AV","New Haven","CT",""
23913,"785 FOREST RD","New Haven","CT",""
23914,"801 FOREST RD","New Haven","CT",""
23915,"52 ROGER RD","New Haven","CT",""
23916,"809 FOREST RD","New Haven","CT",""
23917,"72 ROGER RD","New Haven","CT",""
23918,"64 ROGER RD","New Haven","CT",""
23919,"56 ROGER RD","New Haven","CT",""
23920,"127 ROGER RD","New Haven","CT",""
23921,"851 FOREST RD","New Haven","CT",""
23922,"170 CLEVELAND RD","New Haven","CT",""
23923,"162 CLEVELAND RD","New Haven","CT",""
23924,"152 CLEVELAND RD","New Haven","CT",""
23925,"9 ROGER RD","New Haven","CT",""
23926,"35 ROGER RD","New Haven","CT",""
23927,"75 ROGER RD","New Haven","CT",""
23928,"95 ROGER RD","New Haven","CT",""
23929,"107 ROGER RD","New Haven","CT",""
23930,"117 ROGER RD","New Haven","CT",""
23931,"195 CLEVELAND RD","New Haven","CT",""
23932,"362 OLIVER RD","New Haven","CT",""
23933,"342 OLIVER RD","New Haven","CT",""
23934,"326 OLIVER RD","New Haven","CT",""
23935,"312 OLIVER RD","New Haven","CT",""
23936,"294 OLIVER RD","New Haven","CT",""
23937,"288 OLIVER RD","New Haven","CT",""
23938,"274 OLIVER RD","New Haven","CT",""
23939,"262 OLIVER RD","New Haven","CT",""
23940,"252 OLIVER RD","New Haven","CT",""
23941,"244 OLIVER RD","New Haven","CT",""
23942,"240 OLIVER RD","New Haven","CT",""
23943,"216 OLIVER RD","New Haven","CT",""
23944,"10 ALDEN AV","New Haven","CT",""
23945,"6 ALDEN AV","New Haven","CT",""
23946,"2 ALDEN AV","New Haven","CT",""
23947,"125 CLEVELAND RD","New Haven","CT",""
23948,"135 CLEVELAND RD","New Haven","CT",""
23949,"145 CLEVELAND RD","New Haven","CT",""
23950,"149 CLEVELAND RD","New Haven","CT",""
23951,"157 CLEVELAND RD","New Haven","CT",""
23952,"175 CLEVELAND RD","New Haven","CT",""
23953,"183 CLEVELAND RD","New Haven","CT",""
23954,"2150 CHAPEL ST","New Haven","CT",""
23955,"2122 CHAPEL ST","New Haven","CT",""
23956,"2116 CHAPEL ST","New Haven","CT",""
23957,"2110 CHAPEL ST","New Haven","CT",""
23958,"2104 CHAPEL ST","New Haven","CT",""
23959,"2098 CHAPEL ST","New Haven","CT",""
23960,"2094 CHAPEL ST","New Haven","CT",""
23961,"2088 CHAPEL ST","New Haven","CT",""
23962,"2084 CHAPEL ST","New Haven","CT",""
23963,"2078 CHAPEL ST","New Haven","CT",""
23964,"2074 CHAPEL ST","New Haven","CT",""
23965,"2070 CHAPEL ST","New Haven","CT",""
23966,"2064 CHAPEL ST","New Haven","CT",""
23967,"2058 CHAPEL ST","New Haven","CT",""
23968,"12 ALDEN AV","New Haven","CT",""
23969,"249 OLIVER RD","New Haven","CT",""
23970,"311 OLIVER RD","New Haven","CT",""
23971,"301 OLIVER RD","New Haven","CT",""
23972,"101 ALSTON AV","New Haven","CT",""
23973,"100 MCKINLEY AV","New Haven","CT",""
23974,"90 MCKINLEY AV","New Haven","CT",""
23975,"84 MCKINLEY AV","New Haven","CT",""
23976,"76 MCKINLEY AV","New Haven","CT",""
23977,"70 MCKINLEY AV","New Haven","CT",""
23978,"64 MCKINLEY AV","New Haven","CT",""
23979,"56 MCKINLEY AV","New Haven","CT",""
23980,"42 MCKINLEY AV","New Haven","CT",""
23981,"36 MCKINLEY AV","New Haven","CT",""
23982,"30 MCKINLEY AV","New Haven","CT",""
23983,"26 MCKINLEY AV","New Haven","CT",""
23984,"2095 CHAPEL ST","New Haven","CT",""
23985,"2107 CHAPEL ST","New Haven","CT",""
23986,"2115 CHAPEL ST","New Haven","CT",""
23987,"25 ALSTON AV","New Haven","CT",""
23988,"31 ALSTON AV","New Haven","CT",""
23989,"39 ALSTON AV","New Haven","CT",""
23990,"45 ALSTON AV","New Haven","CT",""
23991,"51 ALSTON AV","New Haven","CT",""
23992,"59 ALSTON AV","New Haven","CT",""
23993,"61 ALSTON AV","New Haven","CT",""
23994,"71 ALSTON AV","New Haven","CT",""
23995,"81 ALSTON AV","New Haven","CT",""
23996,"105 MCKINLEY AV","New Haven","CT",""
23997,"98 ALDEN AV","New Haven","CT",""
23998,"90 ALDEN AV","New Haven","CT",""
23999,"84 ALDEN AV","New Haven","CT",""
24000,"72 ALDEN AV","New Haven","CT",""
