"pid","location","city","state","zip"
18001,"16 FORD ST","New Haven","CT",""
18002,"556 DIXWELL AV","New Haven","CT",""
18003,"554 DIXWELL AV","New Haven","CT",""
18004,"552 DIXWELL AV","New Haven","CT",""
18005,"550 DIXWELL AV","New Haven","CT",""
18006,"548 DIXWELL AV","New Haven","CT",""
18007,"3 HARDING PL #1","New Haven","CT",""
18008,"3 HARDING PL #2","New Haven","CT",""
18009,"3 HARDING PL #3","New Haven","CT",""
18010,"3 HARDING PL #4","New Haven","CT",""
18011,"3 HARDING PL #5","New Haven","CT",""
18012,"3 HARDING PL #6","New Haven","CT",""
18013,"15 HARDING PL","New Haven","CT",""
18014,"19 HARDING PL","New Haven","CT",""
18015,"23 HARDING PL","New Haven","CT",""
18016,"27 HARDING PL","New Haven","CT",""
18017,"31 HARDING PL","New Haven","CT",""
18018,"35 HARDING PL","New Haven","CT",""
18019,"39 HARDING PL","New Haven","CT",""
18020,"501 DIXWELL AV","New Haven","CT",""
18021,"290 DIVISION ST","New Haven","CT",""
18022,NA,"New Haven","CT",""
18023,NA,"New Haven","CT",""
18024,"278 DIVISION ST","New Haven","CT",""
18025,"276 DIVISION ST","New Haven","CT",""
18026,"150 SHELTON AV","New Haven","CT",""
18027,"146 SHELTON AV","New Haven","CT",""
18028,"140 SHELTON AV","New Haven","CT",""
18029,"134 SHELTON AV","New Haven","CT",""
18030,"128 SHELTON AV","New Haven","CT",""
18031,"126 SHELTON AV","New Haven","CT",""
18032,"122 SHELTON AV","New Haven","CT",""
18033,"73 GIBBS ST","New Haven","CT",""
18034,"77 GIBBS ST","New Haven","CT",""
18035,"79 GIBBS ST","New Haven","CT",""
18036,"83 GIBBS ST","New Haven","CT",""
18037,"477 DIXWELL AV","New Haven","CT",""
18038,"483 DIXWELL AV","New Haven","CT",""
18039,"GIBBS ST","New Haven","CT",""
18040,"487 DIXWELL AV","New Haven","CT",""
18041,"495 DIXWELL AV","New Haven","CT",""
18042,"499 DIXWELL AV","New Haven","CT",""
18043,"143 SHELTON AV","New Haven","CT",""
18044,"244 DIVISION ST","New Haven","CT",""
18045,"242 DIVISION ST","New Haven","CT",""
18046,"240 DIVISION ST","New Haven","CT",""
18047,"234 DIVISION ST","New Haven","CT",""
18048,"230 DIVISION ST","New Haven","CT",""
18049,"224 DIVISION ST","New Haven","CT",""
18050,"220 DIVISION ST","New Haven","CT",""
18051,"21 GIBBS ST","New Haven","CT",""
18052,"27 GIBBS ST","New Haven","CT",""
18053,"29 GIBBS ST","New Haven","CT",""
18054,"33 GIBBS ST","New Haven","CT",""
18055,"41 GIBBS ST","New Haven","CT",""
18056,"43 GIBBS ST","New Haven","CT",""
18057,"45 GIBBS ST","New Haven","CT",""
18058,"121 SHELTON AV","New Haven","CT",""
18059,"125 SHELTON AV","New Haven","CT",""
18060,"131 SHELTON AV","New Haven","CT",""
18061,"135 SHELTON AV","New Haven","CT",""
18062,"137 SHELTON AV","New Haven","CT",""
18063,"139 SHELTON AV","New Haven","CT",""
18064,"513 SHERMAN PKWY","New Haven","CT",""
18065,"517 SHERMAN PKWY","New Haven","CT",""
18066,"523 SHERMAN PKWY","New Haven","CT",""
18067,"527 SHERMAN PKWY","New Haven","CT",""
18068,"525 SHERMAN PKWY","New Haven","CT",""
18069,"537 SHERMAN PKWY","New Haven","CT",""
18070,"551 SHERMAN PKWY","New Haven","CT",""
18071,"559 SHERMAN PKWY","New Haven","CT",""
18072,"563 SHERMAN PKWY","New Haven","CT",""
18073,"567 SHERMAN PKWY","New Haven","CT",""
18074,"571 SHERMAN PKWY","New Haven","CT",""
18075,"583 SHERMAN PKWY","New Haven","CT",""
18076,"585 SHERMAN PKWY","New Haven","CT",""
18077,"591 SHERMAN PKWY","New Haven","CT",""
18078,"595 SHERMAN PKWY","New Haven","CT",""
18079,"601 SHERMAN PKWY","New Haven","CT",""
18080,"605 SHERMAN PKWY","New Haven","CT",""
18081,"603 SHERMAN PKWY","New Haven","CT",""
18082,"607 SHERMAN PKWY","New Haven","CT",""
18083,"340 WEST DIVISION ST","New Haven","CT",""
18084,"336 WEST DIVISION ST","New Haven","CT",""
18085,"330 WEST DIVISION ST","New Haven","CT",""
18086,"324 WEST DIVISION ST","New Haven","CT",""
18087,"320 WEST DIVISION ST","New Haven","CT",""
18088,NA,"New Haven","CT",""
18089,NA,"New Haven","CT",""
18090,"310 WEST DIVISION ST","New Haven","CT",""
18091,NA,"New Haven","CT",""
18092,"498 DIXWELL AV","New Haven","CT",""
18093,"488 DIXWELL AV","New Haven","CT",""
18094,"486 DIXWELL AV","New Haven","CT",""
18095,"DIXWELL AV","New Haven","CT",""
18096,"482 DIXWELL AV","New Haven","CT",""
18097,"480 DIXWELL AV","New Haven","CT",""
18098,"472 DIXWELL AV","New Haven","CT",""
18099,"470 DIXWELL AV","New Haven","CT",""
18100,"468 DIXWELL AV","New Haven","CT",""
18101,"464 DIXWELL AV","New Haven","CT",""
18102,"460 DIXWELL AV","New Haven","CT",""
18103,"456 DIXWELL AV","New Haven","CT",""
18104,"452 DIXWELL AV","New Haven","CT",""
18105,"446 DIXWELL AV","New Haven","CT",""
18106,"440 DIXWELL AV","New Haven","CT",""
18107,"432 DIXWELL AV","New Haven","CT",""
18108,"428 DIXWELL AV","New Haven","CT",""
18109,"426 DIXWELL AV","New Haven","CT",""
18110,"422 DIXWELL AV","New Haven","CT",""
18111,"414 DIXWELL AV","New Haven","CT",""
18112,"408 DIXWELL AV","New Haven","CT",""
18113,"DIXWELL AV","New Haven","CT",""
18114,"406 DIXWELL AV","New Haven","CT",""
18115,"400 DIXWELL AV","New Haven","CT",""
18116,"388 DIXWELL AV","New Haven","CT",""
18117,"380 DIXWELL AV","New Haven","CT",""
18118,"378 DIXWELL AV","New Haven","CT",""
18119,"374 DIXWELL AV","New Haven","CT",""
18120,"370 DIXWELL AV","New Haven","CT",""
18121,"368 DIXWELL AV","New Haven","CT",""
18122,"364 DIXWELL AV","New Haven","CT",""
18123,"360 DIXWELL AV","New Haven","CT",""
18124,"323 MUNSON ST","New Haven","CT",""
18125,"325 MUNSON ST","New Haven","CT",""
18126,"327 MUNSON ST","New Haven","CT",""
18127,"329 MUNSON ST","New Haven","CT",""
18128,"331 MUNSON ST","New Haven","CT",""
18129,"333 MUNSON ST","New Haven","CT",""
18130,"335 MUNSON ST","New Haven","CT",""
18131,"337 MUNSON ST","New Haven","CT",""
18132,"339 MUNSON ST","New Haven","CT",""
18133,"341 MUNSON ST","New Haven","CT",""
18134,"343 MUNSON ST","New Haven","CT",""
18135,"345 MUNSON ST","New Haven","CT",""
18136,"363 DIXWELL AV","New Haven","CT",""
18137,"34 SHELTON AV","New Haven","CT",""
18138,"383 DIXWELL AV","New Haven","CT",""
18139,"395 DIXWELL AV","New Haven","CT",""
18140,"407 DIXWELL AV","New Haven","CT",""
18141,"409 DIXWELL AV","New Haven","CT",""
18142,"413 DIXWELL AV","New Haven","CT",""
18143,"62 SHELTON AV","New Haven","CT",""
18144,"60 SHELTON AV","New Haven","CT",""
18145,"58 SHELTON AV","New Haven","CT",""
18146,"56 SHELTON AV","New Haven","CT",""
18147,"52 SHELTON AV","New Haven","CT",""
18148,"46 SHELTON AV","New Haven","CT",""
18149,"40 SHELTON AV","New Haven","CT",""
18150,"36 SHELTON AV","New Haven","CT",""
18151,"423 DIXWELL AV","New Haven","CT",""
18152,"429 DIXWELL AV","New Haven","CT",""
18153,"431 DIXWELL AV","New Haven","CT",""
18154,"433 DIXWELL AV","New Haven","CT",""
18155,"437 DIXWELL AV","New Haven","CT",""
18156,"441 DIXWELL AV","New Haven","CT",""
18157,"445 DIXWELL AV","New Haven","CT",""
18158,"449 DIXWELL AV","New Haven","CT",""
18159,"455 DIXWELL AV","New Haven","CT",""
18160,"459 DIXWELL AV","New Haven","CT",""
18161,"461 DIXWELL AV","New Haven","CT",""
18162,"463 DIXWELL AV","New Haven","CT",""
18163,"76 GIBBS ST","New Haven","CT",""
18164,"74 GIBBS ST","New Haven","CT",""
18165,"114 SHELTON AV","New Haven","CT",""
18166,"110 SHELTON AV","New Haven","CT",""
18167,"106 SHELTON AV","New Haven","CT",""
18168,"102 SHELTON AV","New Haven","CT",""
18169,"100 SHELTON AV","New Haven","CT",""
18170,"96 SHELTON AV","New Haven","CT",""
18171,NA,"New Haven","CT",""
18172,"90 SHELTON AV","New Haven","CT",""
18173,"84 SHELTON AV","New Haven","CT",""
18174,"82 SHELTON AV","New Haven","CT",""
18175,"78 SHELTON AV","New Haven","CT",""
18176,"74 SHELTON AV","New Haven","CT",""
18177,"70 SHELTON AV","New Haven","CT",""
18178,"255 GOFFE ST","New Haven","CT",""
18179,"COUNTY ST","New Haven","CT",""
18180,NA,"New Haven","CT",""
18181,"119 COUNTY ST","New Haven","CT",""
18182,NA,"New Haven","CT",""
18183,"123 COUNTY ST","New Haven","CT",""
18184,"127 COUNTY ST","New Haven","CT",""
18185,"COUNTY ST","New Haven","CT",""
18186,"137 COUNTY ST","New Haven","CT",""
18187,"159 COUNTY ST","New Haven","CT",""
18188,"131 COUNTY ST","New Haven","CT",""
18189,"135 COUNTY ST","New Haven","CT",""
18190,"141 COUNTY ST","New Haven","CT",""
18191,"143 COUNTY ST","New Haven","CT",""
18192,"145 COUNTY ST","New Haven","CT",""
18193,"147 COUNTY ST","New Haven","CT",""
18194,"151 COUNTY ST","New Haven","CT",""
18195,"157 COUNTY ST","New Haven","CT",""
18196,"161 COUNTY ST","New Haven","CT",""
18197,"163 COUNTY ST","New Haven","CT",""
18198,"167 COUNTY ST","New Haven","CT",""
18199,"170 HENRY ST #1","New Haven","CT",""
18200,"174 HENRY ST #2","New Haven","CT",""
18201,"178 HENRY ST #3","New Haven","CT",""
18202,"182 HENRY ST #4","New Haven","CT",""
18203,"186 HENRY ST #5","New Haven","CT",""
18204,"190 HENRY ST #6","New Haven","CT",""
18205,"194 HENRY ST #7","New Haven","CT",""
18206,"198 HENRY ST #8","New Haven","CT",""
18207,"199 COUNTY ST #9","New Haven","CT",""
18208,"195 COUNTY ST #10","New Haven","CT",""
18209,"175 COUNTY ST #11","New Haven","CT",""
18210,"171 COUNTY ST #12","New Haven","CT",""
18211,"179 COUNTY ST #13","New Haven","CT",""
18212,"183 COUNTY ST","New Haven","CT",""
18213,"187 COUNTY ST #15","New Haven","CT",""
18214,"191 COUNTY ST #16","New Haven","CT",""
18215,"COUNTY ST","New Haven","CT",""
18216,"164 HENRY ST","New Haven","CT",""
18217,"738 ORCHARD ST","New Haven","CT",""
18218,"734 ORCHARD ST","New Haven","CT",""
18219,"730 ORCHARD ST","New Haven","CT",""
18220,"726 ORCHARD ST","New Haven","CT",""
18221,"722 ORCHARD ST","New Haven","CT",""
18222,"718 ORCHARD ST","New Haven","CT",""
18223,"714 ORCHARD ST","New Haven","CT",""
18224,"708 ORCHARD ST","New Haven","CT",""
18225,"702 ORCHARD ST","New Haven","CT",""
18226,"698 ORCHARD ST","New Haven","CT",""
18227,"694 ORCHARD ST","New Haven","CT",""
18228,"692 ORCHARD ST","New Haven","CT",""
18229,"688 ORCHARD ST","New Haven","CT",""
18230,"684 ORCHARD ST","New Haven","CT",""
18231,"680 ORCHARD ST","New Haven","CT",""
18232,"676 ORCHARD ST","New Haven","CT",""
18233,"672 ORCHARD ST","New Haven","CT",""
18234,"670 ORCHARD ST","New Haven","CT",""
18235,"666 ORCHARD ST","New Haven","CT",""
18236,"662 ORCHARD ST","New Haven","CT",""
18237,"658 ORCHARD ST","New Haven","CT",""
18238,"654 ORCHARD ST","New Haven","CT",""
18239,"ORCHARD ST","New Haven","CT",""
18240,"GOFFE ST","New Haven","CT",""
18241,"GOFFE ST","New Haven","CT",""
18242,"GOFFE ST","New Haven","CT",""
18243,"169 HENRY ST","New Haven","CT",""
18244,"219 COUNTY ST","New Haven","CT",""
18245,"223 COUNTY ST","New Haven","CT",""
18246,"227 COUNTY ST","New Haven","CT",""
18247,"231 COUNTY ST","New Haven","CT",""
18248,"235 COUNTY ST","New Haven","CT",""
18249,"239 COUNTY ST","New Haven","CT",""
18250,"243 COUNTY ST","New Haven","CT",""
18251,"247 COUNTY ST","New Haven","CT",""
18252,"255 COUNTY ST","New Haven","CT",""
18253,"336 MUNSON ST","New Haven","CT",""
18254,"332 MUNSON ST","New Haven","CT",""
18255,"328 MUNSON ST","New Haven","CT",""
18256,"320 MUNSON ST","New Haven","CT",""
18257,"MUNSON ST","New Haven","CT",""
18258,"810 ORCHARD ST","New Haven","CT",""
18259,"782 ORCHARD ST","New Haven","CT",""
18260,"314 MUNSON ST","New Haven","CT",""
18261,"772 ORCHARD ST","New Haven","CT",""
18262,"756 ORCHARD ST","New Haven","CT",""
18263,"752 ORCHARD ST","New Haven","CT",""
18264,"746 ORCHARD ST","New Haven","CT",""
18265,"161 HENRY ST","New Haven","CT",""
18266,"2 WINTER ST","New Haven","CT",""
18267,"138 HENRY ST","New Haven","CT",""
18268,"44 TOWNSEND ST","New Haven","CT",""
18269,"42 TOWNSEND ST","New Haven","CT",""
18270,"40 TOWNSEND ST","New Haven","CT",""
18271,"38 TOWNSEND ST","New Haven","CT",""
18272,"36 TOWNSEND ST","New Haven","CT",""
18273,"34 TOWNSEND ST","New Haven","CT",""
18274,"32 TOWNSEND ST","New Haven","CT",""
18275,"30 TOWNSEND ST","New Haven","CT",""
18276,"28 TOWNSEND ST","New Haven","CT",""
18277,"26 TOWNSEND ST","New Haven","CT",""
18278,"43 CHARLES ST","New Haven","CT",""
18279,"693 ORCHARD ST","New Haven","CT",""
18280,"697 ORCHARD ST","New Haven","CT",""
18281,"701 ORCHARD ST","New Haven","CT",""
18282,"ORCHARD ST","New Haven","CT",""
18283,"703 ORCHARD ST","New Haven","CT",""
18284,"705 ORCHARD ST","New Haven","CT",""
18285,"709 ORCHARD ST","New Haven","CT",""
18286,"713 ORCHARD ST","New Haven","CT",""
18287,"715 ORCHARD ST","New Haven","CT",""
18288,"719 ORCHARD ST","New Haven","CT",""
18289,"725 ORCHARD ST","New Haven","CT",""
18290,"729 ORCHARD ST","New Haven","CT",""
18291,"733 ORCHARD ST","New Haven","CT",""
18292,"150 HENRY ST","New Haven","CT",""
18293,"146 HENRY ST","New Haven","CT",""
18294,"142 HENRY ST","New Haven","CT",""
18295,"140 HENRY ST","New Haven","CT",""
18296,"282 DIXWELL AV","New Haven","CT",""
18297,"266 DIXWELL AV","New Haven","CT",""
18298,"262 DIXWELL AV","New Haven","CT",""
18299,"256 DIXWELL AV","New Haven","CT",""
18300,"252 DIXWELL AV","New Haven","CT",""
18301,"250 DIXWELL AV","New Haven","CT",""
18302,"246 DIXWELL AV","New Haven","CT",""
18303,"240 DIXWELL AV","New Haven","CT",""
18304,"17 CHARLES ST","New Haven","CT",""
18305,"19 TOWNSEND ST","New Haven","CT",""
18306,"23 TOWNSEND ST","New Haven","CT",""
18307,"27 TOWNSEND ST","New Haven","CT",""
18308,"31 TOWNSEND ST","New Haven","CT",""
18309,"35 TOWNSEND ST","New Haven","CT",""
18310,"43 TOWNSEND ST","New Haven","CT",""
18311,"47 TOWNSEND ST","New Haven","CT",""
18312,"130 HENRY ST","New Haven","CT",""
18313,"128 HENRY ST","New Haven","CT",""
18314,"126 HENRY ST","New Haven","CT",""
18315,"639 ORCHARD ST","New Haven","CT",""
18316,"27 WINTER ST","New Haven","CT",""
18317,"185 GOFFE ST","New Haven","CT",""
18318,"227 GOFFE ST","New Haven","CT",""
18319,"87 WEBSTER ST","New Haven","CT",""
18320,"156 DIXWELL AV","New Haven","CT",""
18321,"172 DIXWELL AV","New Haven","CT",""
18322,"176 DIXWELL AV","New Haven","CT",""
18323,"180 DIXWELL AV","New Haven","CT",""
18324,"190 DIXWELL AV","New Haven","CT",""
18325,"192 DIXWELL AV","New Haven","CT",""
18326,"200 DIXWELL AV","New Haven","CT",""
18327,"206 DIXWELL AV","New Haven","CT",""
18328,"210 DIXWELL AV","New Haven","CT",""
18329,"220 DIXWELL AV","New Haven","CT",""
18330,"230 DIXWELL AV","New Haven","CT",""
18331,NA,"New Haven","CT",""
18332,"26 CHARLES ST","New Haven","CT",""
18333,NA,"New Haven","CT",""
18334,NA,"New Haven","CT",""
18335,NA,"New Haven","CT",""
18336,NA,"New Haven","CT",""
18337,NA,"New Haven","CT",""
18338,NA,"New Haven","CT",""
18339,NA,"New Haven","CT",""
18340,NA,"New Haven","CT",""
18341,NA,"New Haven","CT",""
18342,NA,"New Haven","CT",""
18343,NA,"New Haven","CT",""
18344,"DIXWELL AV","New Haven","CT",""
18345,"561 ELM ST","New Haven","CT",""
18346,"485 ORCHARD ST","New Haven","CT",""
18347,"150 WHALLEY AV","New Haven","CT",""
18348,"WHALLEY AV","New Haven","CT",""
18349,"116 WHALLEY AV","New Haven","CT",""
18350,NA,"New Haven","CT",""
18351,NA,"New Haven","CT",""
18352,"11 UNIVERSITY PL","New Haven","CT",""
18353,"13 UNIVERSITY PL","New Haven","CT",""
18354,"15 UNIVERSITY PL","New Haven","CT",""
18355,"17 UNIVERSITY PL","New Haven","CT",""
18356,"19 UNIVERSITY PL","New Haven","CT",""
18357,"21 UNIVERSITY PL","New Haven","CT",""
18358,"UNIVERSITY PL","New Haven","CT",""
18359,"23 UNIVERSITY PL","New Haven","CT",""
18360,"495 ELM ST","New Haven","CT",""
18361,"497 ELM ST","New Haven","CT",""
18362,"501 ELM ST","New Haven","CT",""
18363,"503 ELM ST","New Haven","CT",""
18364,"505 ELM ST","New Haven","CT",""
18365,"507 ELM ST","New Haven","CT",""
18366,"ELM ST","New Haven","CT",""
18367,"ELM ST","New Haven","CT",""
18368,"ELM ST","New Haven","CT",""
18369,"ELM ST","New Haven","CT",""
18370,"487 ELM ST","New Haven","CT",""
18371,"20 UNIVERSITY PL","New Haven","CT",""
18372,"8 UNIVERSITY PL","New Haven","CT",""
18373,"6 UNIVERSITY PL","New Haven","CT",""
18374,"4 UNIVERSITY PL","New Haven","CT",""
18375,"2 UNIVERSITY PL","New Haven","CT",""
18376,"473 ELM ST","New Haven","CT",""
18377,"475 ELM ST","New Haven","CT",""
18378,"477 ELM ST","New Haven","CT",""
18379,"485 ELM ST","New Haven","CT",""
18380,"193 WHALLEY AV","New Haven","CT",""
18381,"541 ORCHARD ST","New Haven","CT",""
18382,"547 ORCHARD ST","New Haven","CT",""
18383,"553 ORCHARD ST","New Haven","CT",""
18384,"559 ORCHARD ST","New Haven","CT",""
18385,"86 DICKERMAN ST","New Haven","CT",""
18386,"82 DICKERMAN ST","New Haven","CT",""
18387,"80 DICKERMAN ST","New Haven","CT",""
18388,"78 DICKERMAN ST","New Haven","CT",""
18389,"74 DICKERMAN ST","New Haven","CT",""
18390,"70 DICKERMAN ST","New Haven","CT",""
18391,"64 DICKERMAN ST","New Haven","CT",""
18392,"62 DICKERMAN ST","New Haven","CT",""
18393,"56 DICKERMAN ST","New Haven","CT",""
18394,"52 DICKERMAN ST","New Haven","CT",""
18395,"DICKERMAN ST","New Haven","CT",""
18396,"28 DICKERMAN ST","New Haven","CT",""
18397,"26 DICKERMAN ST","New Haven","CT",""
18398,"24 DICKERMAN ST","New Haven","CT",""
18399,"22 DICKERMAN ST","New Haven","CT",""
18400,"20 DICKERMAN ST","New Haven","CT",""
18401,"18 DICKERMAN ST","New Haven","CT",""
18402,"16 DICKERMAN ST","New Haven","CT",""
18403,"14 DICKERMAN ST","New Haven","CT",""
18404,"12 DICKERMAN ST","New Haven","CT",""
18405,"38 SPERRY ST","New Haven","CT",""
18406,"36 SPERRY ST","New Haven","CT",""
18407,"DICKERMAN ST","New Haven","CT",""
18408,"34 SPERRY ST","New Haven","CT",""
18409,"101 WHALLEY AV","New Haven","CT",""
18410,"107 WHALLEY AV","New Haven","CT",""
18411,"117 WHALLEY AV","New Haven","CT",""
18412,"129 WHALLEY AV","New Haven","CT",""
18413,"139 WHALLEY AV","New Haven","CT",""
18414,"143 WHALLEY AV","New Haven","CT",""
18415,"147 WHALLEY AV","New Haven","CT",""
18416,"157 WHALLEY AV","New Haven","CT",""
18417,"161 WHALLEY AV","New Haven","CT",""
18418,"175 WHALLEY AV","New Haven","CT",""
18419,"185 WHALLEY AV","New Haven","CT",""
18420,"565 ORCHARD ST","New Haven","CT",""
18421,"573 ORCHARD ST","New Haven","CT",""
18422,"577 ORCHARD ST","New Haven","CT",""
18423,"583 ORCHARD ST","New Haven","CT",""
18424,"587 ORCHARD ST","New Haven","CT",""
18425,"591 ORCHARD ST","New Haven","CT",""
18426,"595 ORCHARD ST","New Haven","CT",""
18427,"599 ORCHARD ST","New Haven","CT",""
18428,"148 GOFFE ST","New Haven","CT",""
18429,"138 GOFFE ST","New Haven","CT",""
18430,"120 GOFFE ST","New Haven","CT",""
18431,"21 DICKERMAN ST","New Haven","CT",""
18432,"11 DICKERMAN ST #11","New Haven","CT",""
18433,"13 DICKERMAN ST #13","New Haven","CT",""
18434,"15 DICKERMAN ST #15","New Haven","CT",""
18435,"17 DICKERMAN ST #17","New Haven","CT",""
18436,"29 DICKERMAN ST","New Haven","CT",""
18437,"39 DICKERMAN ST","New Haven","CT",""
18438,"43 DICKERMAN ST","New Haven","CT",""
18439,"47 DICKERMAN ST","New Haven","CT",""
18440,"51 DICKERMAN ST","New Haven","CT",""
18441,"55 DICKERMAN ST","New Haven","CT",""
18442,"65 DICKERMAN ST","New Haven","CT",""
18443,"69 DICKERMAN ST","New Haven","CT",""
18444,"71 DICKERMAN ST","New Haven","CT",""
18445,"75 DICKERMAN ST","New Haven","CT",""
18446,"77 DICKERMAN ST","New Haven","CT",""
18447,"83 DICKERMAN ST","New Haven","CT",""
18448,"87 DICKERMAN ST","New Haven","CT",""
18449,"84 WHALLEY AV","New Haven","CT",""
18450,NA,"New Haven","CT",""
18451,NA,"New Haven","CT",""
18452,"60 WHALLEY AV","New Haven","CT",""
18453,"288 DWIGHT ST","New Haven","CT",""
18454,"286 DWIGHT ST","New Haven","CT",""
18455,"282 DWIGHT ST","New Haven","CT",""
18456,"276 DWIGHT ST","New Haven","CT",""
18457,"272 DWIGHT ST","New Haven","CT",""
18458,NA,"New Haven","CT",""
18459,NA,"New Haven","CT",""
18460,"435 ELM ST","New Haven","CT",""
18461,"437 ELM ST","New Haven","CT",""
18462,"UNIVERSITY PL","New Haven","CT",""
18463,"439 ELM ST","New Haven","CT",""
18464,"1 UNIVERSITY PL","New Haven","CT",""
18465,"3 UNIVERSITY PL","New Haven","CT",""
18466,"5 UNIVERSITY PL","New Haven","CT",""
18467,"7 UNIVERSITY PL","New Haven","CT",""
18468,"9 UNIVERSITY PL","New Haven","CT",""
18469,NA,"New Haven","CT",""
18470,"30 WHALLEY AV","New Haven","CT",""
18471,"14 WHALLEY AV","New Haven","CT",""
18472,"8 WHALLEY AV","New Haven","CT",""
18473,"142 HOWE ST","New Haven","CT",""
18474,"140 HOWE ST","New Haven","CT",""
18475,"130 HOWE ST","New Haven","CT",""
18476,"124 HOWE ST","New Haven","CT",""
18477,"122 HOWE ST","New Haven","CT",""
18478,"403 ELM ST","New Haven","CT",""
18479,"263 DWIGHT ST","New Haven","CT",""
18480,"267 DWIGHT ST","New Haven","CT",""
18481,"269 DWIGHT ST","New Haven","CT",""
18482,"271 DWIGHT ST","New Haven","CT",""
18483,"273 DWIGHT ST","New Haven","CT",""
18484,"275 DWIGHT ST","New Haven","CT",""
18485,"277 DWIGHT ST","New Haven","CT",""
18486,"279 DWIGHT ST","New Haven","CT",""
18487,"283 DWIGHT ST","New Haven","CT",""
18488,"106 GOFFE ST","New Haven","CT",""
18489,"100 GOFFE ST","New Haven","CT",""
18490,"90 GOFFE ST","New Haven","CT",""
18491,"60 GOFFE ST","New Haven","CT",""
18492,"46 GOFFE ST","New Haven","CT",""
18493,"1 WHALLEY AV","New Haven","CT",""
18494,"29 WHALLEY AV","New Haven","CT",""
18495,"31 WHALLEY AV","New Haven","CT",""
18496,"WHALLEY AV","New Haven","CT",""
18497,"35 WHALLEY AV","New Haven","CT",""
18498,"43 WHALLEY AV","New Haven","CT",""
18499,"47 WHALLEY AV","New Haven","CT",""
18500,"53 WHALLEY AV","New Haven","CT",""
18501,"67 WHALLEY AV","New Haven","CT",""
18502,"75 WHALLEY AV","New Haven","CT",""
18503,"95 WHALLEY AV","New Haven","CT",""
18504,"31 SPERRY ST","New Haven","CT",""
18505,"39 SPERRY ST","New Haven","CT",""
18506,"138 DIXWELL AV","New Haven","CT",""
18507,"122 DIXWELL AV","New Haven","CT",""
18508,"100 DIXWELL AV","New Haven","CT",""
18509,"110 DIXWELL AV","New Haven","CT",""
18510,"78 DIXWELL AV","New Haven","CT",""
18511,NA,"New Haven","CT",""
18512,"66 DIXWELL AV","New Haven","CT",""
18513,"62 DIXWELL AV","New Haven","CT",""
18514,"58 DIXWELL AV","New Haven","CT",""
18515,"54 DIXWELL AV","New Haven","CT",""
18516,"48 DIXWELL AV","New Haven","CT",""
18517,"40 DIXWELL AV","New Haven","CT",""
18518,"24 DIXWELL AV","New Haven","CT",""
18519,"49 GOFFE ST","New Haven","CT",""
18520,"63 GOFFE ST","New Haven","CT",""
18521,"69 GOFFE ST","New Haven","CT",""
18522,"87 GOFFE ST","New Haven","CT",""
18523,"89 GOFFE ST","New Haven","CT",""
18524,"125 GOFFE ST","New Haven","CT",""
18525,"104 WEBSTER ST","New Haven","CT",""
18526,"100 WEBSTER ST","New Haven","CT",""
18527,"98 WEBSTER ST","New Haven","CT",""
18528,"96 WEBSTER ST #.5","New Haven","CT",""
18529,"96 WEBSTER ST","New Haven","CT",""
18530,"94 WEBSTER ST","New Haven","CT",""
18531,"533 GEORGE ST","New Haven","CT",""
18532,"135 DAY ST","New Haven","CT",""
18533,"139 DAY ST","New Haven","CT",""
18534,"1324 CHAPEL ST","New Haven","CT",""
18535,"1312 CHAPEL ST","New Haven","CT",""
18536,"1308 CHAPEL ST","New Haven","CT",""
18537,"1302 CHAPEL ST","New Haven","CT",""
18538,"1294 CHAPEL ST","New Haven","CT",""
18539,"1288 CHAPEL ST","New Haven","CT",""
18540,"136 DWIGHT ST","New Haven","CT",""
18541,"128 DWIGHT ST","New Haven","CT",""
18542,NA,"New Haven","CT",""
18543,NA,"New Haven","CT",""
18544,"DWIGHT ST","New Haven","CT",""
18545,"120 DWIGHT ST","New Haven","CT",""
18546,"102 DWIGHT ST","New Haven","CT",""
18547,"100 DWIGHT ST","New Haven","CT",""
18548,"501 GEORGE ST","New Haven","CT",""
18549,"511 GEORGE ST","New Haven","CT",""
18550,"515 GEORGE ST","New Haven","CT",""
18551,"GEORGE ST","New Haven","CT",""
18552,NA,"New Haven","CT",""
18553,"519 GEORGE ST","New Haven","CT",""
18554,"525 GEORGE ST","New Haven","CT",""
18555,"529 GEORGE ST","New Haven","CT",""
18556,"475 GEORGE ST","New Haven","CT",""
18557,"95 DWIGHT ST","New Haven","CT",""
18558,"101 DWIGHT ST","New Haven","CT",""
18559,"105 DWIGHT ST","New Haven","CT",""
18560,"109 DWIGHT ST","New Haven","CT",""
18561,"115 DWIGHT ST","New Haven","CT",""
18562,"119 DWIGHT ST","New Haven","CT",""
18563,"125 DWIGHT ST","New Haven","CT",""
18564,"131 DWIGHT ST","New Haven","CT",""
18565,"135 DWIGHT ST","New Haven","CT",""
18566,NA,"New Haven","CT",""
18567,NA,"New Haven","CT",""
18568,NA,"New Haven","CT",""
18569,NA,"New Haven","CT",""
18570,"38 HOWE ST","New Haven","CT",""
18571,"32 HOWE ST","New Haven","CT",""
18572,"1323 CHAPEL ST","New Haven","CT",""
18573,"1311 CHAPEL ST","New Haven","CT",""
18574,"1303 CHAPEL ST","New Haven","CT",""
18575,"1319 CHAPEL ST","New Haven","CT",""
18576,"1289 CHAPEL ST","New Haven","CT",""
18577,"GILL ST","New Haven","CT",""
18578,"17 GILL ST","New Haven","CT",""
18579,"23 GILL ST","New Haven","CT",""
18580,"130 EDGEWOOD AV","New Haven","CT",""
18581,"102 EDGEWOOD AV","New Haven","CT",""
18582,"198 DWIGHT ST","New Haven","CT",""
18583,"192 DWIGHT ST","New Haven","CT",""
18584,"188 DWIGHT ST","New Haven","CT",""
18585,"182 DWIGHT ST","New Haven","CT",""
18586,"180 DWIGHT ST","New Haven","CT",""
18587,"176 DWIGHT ST","New Haven","CT",""
18588,"170 DWIGHT ST","New Haven","CT",""
18589,"164 DWIGHT ST","New Haven","CT",""
18590,"1267 CHAPEL ST","New Haven","CT",""
18591,"1275 CHAPEL ST","New Haven","CT",""
18592,"1281 CHAPEL ST","New Haven","CT",""
18593,"1287 CHAPEL ST","New Haven","CT",""
18594,"1263 CHAPEL ST","New Haven","CT",""
18595,"163 DWIGHT ST","New Haven","CT",""
18596,NA,"New Haven","CT",""
18597,NA,"New Haven","CT",""
18598,"179 DWIGHT ST","New Haven","CT",""
18599,"183 DWIGHT ST","New Haven","CT",""
18600,"189 DWIGHT ST","New Haven","CT",""
18601,"193 DWIGHT ST","New Haven","CT",""
18602,"199 DWIGHT ST","New Haven","CT",""
18603,"203 DWIGHT ST","New Haven","CT",""
18604,"74 EDGEWOOD AV","New Haven","CT",""
18605,"72 EDGEWOOD AV","New Haven","CT",""
18606,"64 EDGEWOOD AV","New Haven","CT",""
18607,"62 EDGEWOOD AV","New Haven","CT",""
18608,"86 HOWE ST #86A","New Haven","CT",""
18609,"86 HOWE ST #86B","New Haven","CT",""
18610,"88 HOWE ST #88A","New Haven","CT",""
18611,"88 HOWE ST #88B","New Haven","CT",""
18612,"90 HOWE ST #90A","New Haven","CT",""
18613,"90 HOWE ST #90B","New Haven","CT",""
18614,"52 EDGEWOOD AV #52","New Haven","CT",""
18615,"54 EDGEWOOD AV #54","New Haven","CT",""
18616,"56 EDGEWOOD AV #56","New Haven","CT",""
18617,"58 EDGEWOOD AV #58","New Haven","CT",""
18618,"84 HOWE ST","New Haven","CT",""
18619,"80 HOWE ST","New Haven","CT",""
18620,"70 HOWE ST","New Haven","CT",""
18621,"68 HOWE ST","New Haven","CT",""
18622,NA,"New Haven","CT",""
18623,NA,"New Haven","CT",""
18624,NA,"New Haven","CT",""
18625,"1255 CHAPEL ST","New Haven","CT",""
18626,"135 EDGEWOOD AV","New Haven","CT",""
18627,"5 GARDEN ST","New Haven","CT",""
18628,"9 GARDEN ST","New Haven","CT",""
18629,"115 EDGEWOOD AV","New Haven","CT",""
18630,"486 ELM ST","New Haven","CT",""
18631,"480 ELM ST","New Haven","CT",""
18632,"474 ELM ST","New Haven","CT",""
18633,"470 ELM ST","New Haven","CT",""
18634,"466 ELM ST","New Haven","CT",""
18635,"462 ELM ST","New Haven","CT",""
18636,"458 ELM ST","New Haven","CT",""
18637,"454 ELM ST","New Haven","CT",""
18638,"450 ELM ST","New Haven","CT",""
18639,"446 ELM ST","New Haven","CT",""
18640,"440 ELM ST","New Haven","CT",""
18641,"438 ELM ST","New Haven","CT",""
18642,"434 ELM ST","New Haven","CT",""
18643,"424 ELM ST","New Haven","CT",""
18644,"244 DWIGHT ST","New Haven","CT",""
18645,"242 DWIGHT ST","New Haven","CT",""
18646,"236 DWIGHT ST","New Haven","CT",""
18647,"DWIGHT ST","New Haven","CT",""
18648,"232 DWIGHT ST","New Haven","CT",""
18649,"228 DWIGHT ST","New Haven","CT",""
18650,"226 DWIGHT ST","New Haven","CT",""
18651,"222 DWIGHT ST","New Haven","CT",""
18652,"216 DWIGHT ST","New Haven","CT",""
18653,"85 EDGEWOOD AV","New Haven","CT",""
18654,"91 EDGEWOOD AV","New Haven","CT",""
18655,"EDGEWOOD AV","New Haven","CT",""
18656,"133 EDGEWOOD AV","New Haven","CT",""
18657,"215 DWIGHT ST","New Haven","CT",""
18658,"217 DWIGHT ST","New Haven","CT",""
18659,"219 DWIGHT ST","New Haven","CT",""
18660,"223 DWIGHT ST","New Haven","CT",""
18661,"227 DWIGHT ST","New Haven","CT",""
18662,"229 DWIGHT ST","New Haven","CT",""
18663,"235 DWIGHT ST","New Haven","CT",""
18664,"239 DWIGHT ST","New Haven","CT",""
18665,"245 DWIGHT ST","New Haven","CT",""
18666,"416 ELM ST","New Haven","CT",""
18667,"ELM ST","New Haven","CT",""
18668,"116 HOWE ST","New Haven","CT",""
18669,"104 HOWE ST","New Haven","CT",""
18670,"100 HOWE ST","New Haven","CT",""
18671,"98 HOWE ST","New Haven","CT",""
18672,"96 HOWE ST","New Haven","CT",""
18673,"94 HOWE ST","New Haven","CT",""
18674,"61 EDGEWOOD AV","New Haven","CT",""
18675,"65 EDGEWOOD AV","New Haven","CT",""
18676,"67 EDGEWOOD AV","New Haven","CT",""
18677,"73 EDGEWOOD AV","New Haven","CT",""
18678,"75 EDGEWOOD AV","New Haven","CT",""
18679,"55 SYLVAN AV","New Haven","CT",""
18680,"105 ASYLUM ST","New Haven","CT",""
18681,"109 ASYLUM ST","New Haven","CT",""
18682,"140 LEGION AV","New Haven","CT",""
18683,"170 WARD ST","New Haven","CT",""
18684,"164 WARD ST","New Haven","CT",""
18685,"37 SYLVAN AV","New Haven","CT",""
18686,"43 SYLVAN AV","New Haven","CT",""
18687,"45 SYLVAN AV","New Haven","CT",""
18688,"47 SYLVAN AV","New Haven","CT",""
18689,"51 SYLVAN AV","New Haven","CT",""
18690,"53 SYLVAN AV","New Haven","CT",""
18691,"33 SYLVAN AV","New Haven","CT",""
18692,NA,"New Haven","CT",""
18693,NA,"New Haven","CT",""
18694,NA,"New Haven","CT",""
18695,NA,"New Haven","CT",""
18696,NA,"New Haven","CT",""
18697,NA,"New Haven","CT",""
18698,"80 LEGION AV","New Haven","CT",""
18699,"72 LEGION AV","New Haven","CT",""
18700,"60 LEGION AV","New Haven","CT",""
18701,"46 LEGION AV","New Haven","CT",""
18702,"34 LEGION AV","New Haven","CT",""
18703,"28 LEGION AV","New Haven","CT",""
18704,"LEGION AV","New Haven","CT",""
18705,"8 LEGION AV","New Haven","CT",""
18706,"LEGION AV","New Haven","CT",""
18707,"920 HOWARD AV","New Haven","CT",""
18708,"916 HOWARD AV","New Haven","CT",""
18709,"914 HOWARD AV","New Haven","CT",""
18710,"HOWARD AV","New Haven","CT",""
18711,"914 HOWARD AV","New Haven","CT",""
18712,"912 HOWARD AV","New Haven","CT",""
18713,NA,"New Haven","CT",""
18714,NA,"New Haven","CT",""
18715,NA,"New Haven","CT",""
18716,NA,"New Haven","CT",""
18717,NA,"New Haven","CT",""
18718,NA,"New Haven","CT",""
18719,NA,"New Haven","CT",""
18720,"21 SYLVAN AV","New Haven","CT",""
18721,"27 SYLVAN AV","New Haven","CT",""
18722,"29 SYLVAN AV","New Haven","CT",""
18723,NA,"New Haven","CT",""
18724,NA,"New Haven","CT",""
18725,"45 DAY ST","New Haven","CT",""
18726,"51 DAY ST","New Haven","CT",""
18727,"53 DAY ST","New Haven","CT",""
18728,"63 DAY ST","New Haven","CT",""
18729,"DAY ST","New Haven","CT",""
18730,"67 DAY ST","New Haven","CT",""
18731,"79 DAY ST","New Haven","CT",""
18732,"101 DAY ST","New Haven","CT",""
18733,"66 DWIGHT ST","New Haven","CT",""
18734,"56 DWIGHT ST","New Haven","CT",""
18735,"48 DWIGHT ST","New Haven","CT",""
18736,"109 DAY ST","New Haven","CT",""
18737,"530 GEORGE ST","New Haven","CT",""
18738,"526 GEORGE ST","New Haven","CT",""
18739,"522 GEORGE ST","New Haven","CT",""
18740,"518 GEORGE ST","New Haven","CT",""
18741,"514 GEORGE ST","New Haven","CT",""
18742,"512 GEORGE ST","New Haven","CT",""
18743,"80 DWIGHT ST","New Haven","CT",""
18744,"74 DWIGHT ST","New Haven","CT",""
18745,"44 DWIGHT ST","New Haven","CT",""
18746,"42 DWIGHT ST","New Haven","CT",""
18747,"38 DWIGHT ST","New Haven","CT",""
18748,"32 DWIGHT ST","New Haven","CT",""
18749,"41 DWIGHT ST","New Haven","CT",""
18750,"65 DWIGHT ST","New Haven","CT",""
18751,"2 HOWE ST #BLDG","New Haven","CT",""
18752,"10 HOWE ST","New Haven","CT",""
18753,"96 SYLVAN AV","New Haven","CT",""
18754,"90 ORCHARD ST","New Haven","CT",""
18755,"86 ORCHARD ST","New Haven","CT",""
18756,"82 ORCHARD ST","New Haven","CT",""
18757,"78 ORCHARD ST","New Haven","CT",""
18758,"74 ORCHARD ST","New Haven","CT",""
18759,NA,"New Haven","CT",""
18760,"70 ORCHARD ST","New Haven","CT",""
18761,"66 ORCHARD ST","New Haven","CT",""
18762,"62 ORCHARD ST","New Haven","CT",""
18763,"58 ORCHARD ST","New Haven","CT",""
18764,"46 ORCHARD ST","New Haven","CT",""
18765,"42 ORCHARD ST","New Haven","CT",""
18766,"40 ORCHARD ST","New Haven","CT",""
18767,"36 ORCHARD ST","New Haven","CT",""
18768,"32 ORCHARD ST","New Haven","CT",""
18769,"28 ORCHARD ST","New Haven","CT",""
18770,"24 ORCHARD ST","New Haven","CT",""
18771,"20 ORCHARD ST","New Haven","CT",""
18772,"14 ORCHARD ST","New Haven","CT",""
18773,"4 ORCHARD ST","New Haven","CT",""
18774,"227 DAVENPORT AV","New Haven","CT",""
18775,"231 DAVENPORT AV","New Haven","CT",""
18776,"235 DAVENPORT AV","New Haven","CT",""
18777,"241 DAVENPORT AV","New Haven","CT",""
18778,"245 DAVENPORT AV","New Haven","CT",""
18779,"247 DAVENPORT AV","New Haven","CT",""
18780,"251 DAVENPORT AV","New Haven","CT",""
18781,"5 STEVENS ST","New Haven","CT",""
18782,"9 STEVENS ST","New Haven","CT",""
18783,"11 STEVENS ST","New Haven","CT",""
18784,"13 STEVENS ST","New Haven","CT",""
18785,"15 STEVENS ST","New Haven","CT",""
18786,NA,"New Haven","CT",""
18787,"19 STEVENS ST","New Haven","CT",""
18788,"21 STEVENS ST","New Haven","CT",""
18789,"23 STEVENS ST","New Haven","CT",""
18790,"25 STEVENS ST","New Haven","CT",""
18791,"27 STEVENS ST","New Haven","CT",""
18792,"29 STEVENS ST","New Haven","CT",""
18793,"31 STEVENS ST","New Haven","CT",""
18794,"33 STEVENS ST","New Haven","CT",""
18795,"35 STEVENS ST","New Haven","CT",""
18796,"37 STEVENS ST","New Haven","CT",""
18797,"39 STEVENS ST","New Haven","CT",""
18798,"41 STEVENS ST","New Haven","CT",""
18799,"43 STEVENS ST","New Haven","CT",""
18800,"45 STEVENS ST","New Haven","CT",""
18801,"47 STEVENS ST","New Haven","CT",""
18802,"49 STEVENS ST","New Haven","CT",""
18803,"51 STEVENS ST","New Haven","CT",""
18804,"53 STEVENS ST","New Haven","CT",""
18805,"55 STEVENS ST","New Haven","CT",""
18806,"57 STEVENS ST","New Haven","CT",""
18807,"61 STEVENS ST","New Haven","CT",""
18808,"63 STEVENS ST","New Haven","CT",""
18809,"65 STEVENS ST","New Haven","CT",""
18810,"69 STEVENS ST","New Haven","CT",""
18811,"124 SYLVAN AV","New Haven","CT",""
18812,"120 SYLVAN AV","New Haven","CT",""
18813,"114 SYLVAN AV","New Haven","CT",""
18814,"112 SYLVAN AV","New Haven","CT",""
18815,"108 SYLVAN AV","New Haven","CT",""
18816,"104 SYLVAN AV","New Haven","CT",""
18817,"98 SYLVAN AV","New Haven","CT",""
18818,"76 SYLVAN AV","New Haven","CT",""
18819,NA,"New Haven","CT",""
18820,"64 ELLIOTT ST","New Haven","CT",""
18821,"62 ELLIOTT ST","New Haven","CT",""
18822,"52 ELLIOTT ST","New Haven","CT",""
18823,"50 ELLIOTT ST","New Haven","CT",""
18824,"48 ELLIOTT ST","New Haven","CT",""
18825,"46 ELLIOTT ST","New Haven","CT",""
18826,"44 ELLIOTT ST","New Haven","CT",""
18827,"42 ELLIOTT ST","New Haven","CT",""
18828,"40 ELLIOTT ST","New Haven","CT",""
18829,"38 ELLIOTT ST","New Haven","CT",""
18830,"36 ELLIOTT ST","New Haven","CT",""
18831,"30 ELLIOTT ST","New Haven","CT",""
18832,"26 ELLIOTT ST","New Haven","CT",""
18833,"22 ELLIOTT ST","New Haven","CT",""
18834,"20 ELLIOTT ST","New Haven","CT",""
18835,"18 ELLIOTT ST","New Haven","CT",""
18836,"14 ELLIOTT ST","New Haven","CT",""
18837,"12 ELLIOTT ST","New Haven","CT",""
18838,"197 DAVENPORT AV","New Haven","CT",""
18839,"199 DAVENPORT AV","New Haven","CT",""
18840,"205 DAVENPORT AV","New Haven","CT",""
18841,"209 DAVENPORT AV","New Haven","CT",""
18842,"213 DAVENPORT AV","New Haven","CT",""
18843,"15 ORCHARD ST","New Haven","CT",""
18844,"21 ORCHARD ST","New Haven","CT",""
18845,"23 ORCHARD ST","New Haven","CT",""
18846,"29 ORCHARD ST","New Haven","CT",""
18847,"35 ORCHARD ST","New Haven","CT",""
18848,"37 ORCHARD ST","New Haven","CT",""
18849,"41 ORCHARD ST","New Haven","CT",""
18850,"45 ORCHARD ST","New Haven","CT",""
18851,"49 ORCHARD ST","New Haven","CT",""
18852,"53 ORCHARD ST","New Haven","CT",""
18853,"57 ORCHARD ST","New Haven","CT",""
18854,"61 ORCHARD ST","New Haven","CT",""
18855,"65 ORCHARD ST","New Haven","CT",""
18856,"69 ORCHARD ST","New Haven","CT",""
18857,"73 ORCHARD ST","New Haven","CT",""
18858,NA,"New Haven","CT",""
18859,"77 ORCHARD ST","New Haven","CT",""
18860,"81 ORCHARD ST","New Haven","CT",""
18861,"87 ORCHARD ST","New Haven","CT",""
18862,"92 SYLVAN AV","New Haven","CT",""
18863,"90 SYLVAN AV","New Haven","CT",""
18864,"86 SYLVAN AV","New Haven","CT",""
18865,"84 SYLVAN AV","New Haven","CT",""
18866,"80 SYLVAN AV","New Haven","CT",""
18867,"58 SYLVAN AV","New Haven","CT",""
18868,"92 ASYLUM ST","New Haven","CT",""
18869,"90 ASYLUM ST","New Haven","CT",""
18870,"88 ASYLUM ST","New Haven","CT",""
18871,"84 ASYLUM ST","New Haven","CT",""
18872,"82 ASYLUM ST","New Haven","CT",""
18873,"80 ASYLUM ST","New Haven","CT",""
18874,"78 ASYLUM ST","New Haven","CT",""
18875,"74 ASYLUM ST","New Haven","CT",""
18876,"72 ASYLUM ST","New Haven","CT",""
18877,"68 ASYLUM ST","New Haven","CT",""
18878,"64 ASYLUM ST","New Haven","CT",""
18879,"62 ASYLUM ST","New Haven","CT",""
18880,"60 ASYLUM ST","New Haven","CT",""
18881,"58 ASYLUM ST","New Haven","CT",""
18882,"56 ASYLUM ST","New Haven","CT",""
18883,"54 ASYLUM ST","New Haven","CT",""
18884,"52 ASYLUM ST","New Haven","CT",""
18885,"50 ASYLUM ST","New Haven","CT",""
18886,"173 DAVENPORT AV","New Haven","CT",""
18887,"177 DAVENPORT AV","New Haven","CT",""
18888,"181 DAVENPORT AV","New Haven","CT",""
18889,"185 DAVENPORT AV","New Haven","CT",""
18890,"187 DAVENPORT AV","New Haven","CT",""
18891,"189 DAVENPORT AV","New Haven","CT",""
18892,"191 DAVENPORT AV","New Haven","CT",""
18893,"15 ELLIOTT ST","New Haven","CT",""
18894,"17 ELLIOTT ST","New Haven","CT",""
18895,"19 ELLIOTT ST","New Haven","CT",""
18896,"21 ELLIOTT ST","New Haven","CT",""
18897,"23 ELLIOTT ST","New Haven","CT",""
18898,"27 ELLIOTT ST","New Haven","CT",""
18899,"29 ELLIOTT ST","New Haven","CT",""
18900,"31 ELLIOTT ST","New Haven","CT",""
18901,"33 ELLIOTT ST","New Haven","CT",""
18902,"35 ELLIOTT ST","New Haven","CT",""
18903,"39 ELLIOTT ST","New Haven","CT",""
18904,"43 ELLIOTT ST","New Haven","CT",""
18905,"45 ELLIOTT ST","New Haven","CT",""
18906,NA,"New Haven","CT",""
18907,"47 ELLIOTT ST","New Haven","CT",""
18908,"ELLIOTT ST","New Haven","CT",""
18909,"55 ELLIOTT ST","New Haven","CT",""
18910,"59 ELLIOTT ST","New Haven","CT",""
18911,"74 SYLVAN AV","New Haven","CT",""
18912,"68 SYLVAN AV","New Haven","CT",""
18913,"66 SYLVAN AV","New Haven","CT",""
18914,"62 SYLVAN AV","New Haven","CT",""
18915,"60 SYLVAN AV","New Haven","CT",""
18916,"86 ELLIOTT ST","New Haven","CT",""
18917,"82 ELLIOTT ST","New Haven","CT",""
18918,"80 ELLIOTT ST","New Haven","CT",""
18919,"77 SYLVAN AV","New Haven","CT",""
18920,"79 SYLVAN AV","New Haven","CT",""
18921,"81 SYLVAN AV","New Haven","CT",""
18922,"83 SYLVAN AV","New Haven","CT",""
18923,"87 SYLVAN AV","New Haven","CT",""
18924,"89 SYLVAN AV","New Haven","CT",""
18925,"121 ORCHARD ST","New Haven","CT",""
18926,"125 ORCHARD ST","New Haven","CT",""
18927,"129 ORCHARD ST","New Haven","CT",""
18928,"133 ORCHARD ST","New Haven","CT",""
18929,"110 ASYLUM ST","New Haven","CT",""
18930,"106 ASYLUM ST","New Haven","CT",""
18931,"102 ASYLUM ST","New Haven","CT",""
18932,"100 ASYLUM ST","New Haven","CT",""
18933,"57 SYLVAN AV","New Haven","CT",""
18934,"61 SYLVAN AV","New Haven","CT",""
18935,"SYLVAN AV","New Haven","CT",""
18936,"SYLVAN AV","New Haven","CT",""
18937,"67 SYLVAN AV","New Haven","CT",""
18938,"69 SYLVAN AV","New Haven","CT",""
18939,"71 SYLVAN AV","New Haven","CT",""
18940,"77 ELLIOTT ST","New Haven","CT",""
18941,"81 ELLIOTT ST","New Haven","CT",""
18942,"83 ELLIOTT ST","New Haven","CT",""
18943,"93 ELLIOTT ST","New Haven","CT",""
18944,"190 LEGION AV","New Haven","CT",""
18945,"203 WEST ST","New Haven","CT",""
18946,"56 ANN ST","New Haven","CT",""
18947,"54 ANN ST","New Haven","CT",""
18948,"52 ANN ST","New Haven","CT",""
18949,"50 ANN ST","New Haven","CT",""
18950,"36 ANN ST","New Haven","CT",""
18951,"34 ANN ST","New Haven","CT",""
18952,"30 ANN ST","New Haven","CT",""
18953,"28 ANN ST","New Haven","CT",""
18954,"24 ANN ST","New Haven","CT",""
18955,"22 ANN ST","New Haven","CT",""
18956,"20 ANN ST","New Haven","CT",""
18957,"18 ANN ST","New Haven","CT",""
18958,"10 ANN ST","New Haven","CT",""
18959,"28 KOSSUTH ST","New Haven","CT",""
18960,"24 KOSSUTH ST","New Haven","CT",""
18961,"20 KOSSUTH ST","New Haven","CT",""
18962,"681 CONGRESS AV #681","New Haven","CT",""
18963,"685 CONGRESS AV #685","New Haven","CT",""
18964,"689 CONGRESS AV #689","New Haven","CT",""
18965,"699 CONGRESS AV #699","New Haven","CT",""
18966,"703 CONGRESS AV #703","New Haven","CT",""
18967,"707 CONGRESS AV #707","New Haven","CT",""
18968,"711 CONGRESS AV #711","New Haven","CT",""
18969,"719 CONGRESS AV #719","New Haven","CT",""
18970,"725 CONGRESS AV #725","New Haven","CT",""
18971,"729 CONGRESS AV #729","New Haven","CT",""
18972,"733 CONGRESS AV #733","New Haven","CT",""
18973,"739 CONGRESS AV #739","New Haven","CT",""
18974,"743 CONGRESS AV #743","New Haven","CT",""
18975,"747 CONGRESS AV #747","New Haven","CT",""
18976,"751 CONGRESS AV #751","New Haven","CT",""
18977,"707 CONGRESS AV","New Haven","CT",""
18978,NA,"New Haven","CT",""
18979,"763 CONGRESS AV","New Haven","CT",""
18980,"767 CONGRESS AV","New Haven","CT",""
18981,"781 CONGRESS AV","New Haven","CT",""
18982,"300 DAVENPORT AV","New Haven","CT",""
18983,"298 DAVENPORT AV","New Haven","CT",""
18984,"294 DAVENPORT AV","New Haven","CT",""
18985,"286 DAVENPORT AV","New Haven","CT",""
18986,"284 DAVENPORT AV","New Haven","CT",""
18987,"282 DAVENPORT AV","New Haven","CT",""
18988,"280 DAVENPORT AV","New Haven","CT",""
18989,"278 DAVENPORT AV","New Haven","CT",""
18990,"276 DAVENPORT AV","New Haven","CT",""
18991,"272 DAVENPORT AV","New Haven","CT",""
18992,"270 DAVENPORT AV","New Haven","CT",""
18993,"268 DAVENPORT AV","New Haven","CT",""
18994,"266 DAVENPORT AV","New Haven","CT",""
18995,"262 DAVENPORT AV","New Haven","CT",""
18996,"260 DAVENPORT AV","New Haven","CT",""
18997,"256 DAVENPORT AV","New Haven","CT",""
18998,"252 DAVENPORT AV","New Haven","CT",""
18999,"250 DAVENPORT AV","New Haven","CT",""
19000,"246 DAVENPORT AV","New Haven","CT",""
