"pid","location","city","state","zip"
5001,"125 FIRST AV","New Haven","CT",""
5002,"135 FIRST AV","New Haven","CT",""
5003,"145 FIRST AV","New Haven","CT",""
5004,"151 FIRST AV","New Haven","CT",""
5005,"161 FIRST AV","New Haven","CT",""
5006,"CLIFTON ST","New Haven","CT",""
5007,"61 HEMINGWAY ST","New Haven","CT",""
5008,"59 HEMINGWAY ST","New Haven","CT",""
5009,"57 HEMINGWAY ST","New Haven","CT",""
5010,"55 HEMINGWAY ST","New Haven","CT",""
5011,"53 HEMINGWAY ST","New Haven","CT",""
5012,"51 HEMINGWAY ST","New Haven","CT",""
5013,"49 HEMINGWAY ST","New Haven","CT",""
5014,"47 HEMINGWAY ST","New Haven","CT",""
5015,"45 HEMINGWAY ST","New Haven","CT",""
5016,"HEMINGWAY ST","New Haven","CT",""
5017,"335 ROSEWOOD AV","New Haven","CT",""
5018,"113 HEMINGWAY ST","New Haven","CT",""
5019,"119 HEMINGWAY ST","New Haven","CT",""
5020,"818 RUSSELL ST","New Haven","CT",""
5021,"804 RUSSELL ST","New Haven","CT",""
5022,"790 RUSSELL ST","New Haven","CT",""
5023,"788 RUSSELL ST","New Haven","CT",""
5024,"780 RUSSELL ST","New Haven","CT",""
5025,"772 RUSSELL ST","New Haven","CT",""
5026,"766 RUSSELL ST","New Haven","CT",""
5027,"760 RUSSELL ST","New Haven","CT",""
5028,"756 RUSSELL ST","New Haven","CT",""
5029,"752 RUSSELL ST","New Haven","CT",""
5030,"748 RUSSELL ST","New Haven","CT",""
5031,"744 RUSSELL ST","New Haven","CT",""
5032,"740 RUSSELL ST","New Haven","CT",""
5033,"738 RUSSELL ST","New Haven","CT",""
5034,"734 RUSSELL ST","New Haven","CT",""
5035,"728 RUSSELL ST","New Haven","CT",""
5036,"175 ROSEWOOD AV","New Haven","CT",""
5037,"185 ROSEWOOD AV","New Haven","CT",""
5038,"195 ROSEWOOD AV","New Haven","CT",""
5039,"205 ROSEWOOD AV","New Haven","CT",""
5040,"215 ROSEWOOD AV","New Haven","CT",""
5041,"225 ROSEWOOD AV","New Haven","CT",""
5042,"235 ROSEWOOD AV","New Haven","CT",""
5043,"245 ROSEWOOD AV","New Haven","CT",""
5044,"265 ROSEWOOD AV","New Haven","CT",""
5045,"275 ROSEWOOD AV","New Haven","CT",""
5046,"295 ROSEWOOD AV","New Haven","CT",""
5047,"315 ROSEWOOD AV","New Haven","CT",""
5048,"813 RUSSELL ST","New Haven","CT",""
5049,"821 RUSSELL ST","New Haven","CT",""
5050,"805 RUSSELL ST","New Haven","CT",""
5051,"HEMINGWAY ST","New Haven","CT",""
5052,"799 RUSSELL ST","New Haven","CT",""
5053,"220 EASTERN ST","New Haven","CT",""
5054,"791 RUSSELL ST","New Haven","CT",""
5055,"779 RUSSELL ST","New Haven","CT",""
5056,"771 RUSSELL ST","New Haven","CT",""
5057,"210 EASTERN ST","New Haven","CT",""
5058,"763 RUSSELL ST","New Haven","CT",""
5059,"757 RUSSELL ST","New Haven","CT",""
5060,"204 EASTERN ST","New Haven","CT",""
5061,NA,"New Haven","CT",""
5062,"751 RUSSELL ST","New Haven","CT",""
5063,"192 EASTERN ST","New Haven","CT",""
5064,"186 EASTERN ST","New Haven","CT",""
5065,"745 RUSSELL ST","New Haven","CT",""
5066,"741 RUSSELL ST","New Haven","CT",""
5067,"184 EASTERN ST","New Haven","CT",""
5068,"986 QUINNIPIAC AV #1","New Haven","CT",""
5069,"986 QUINNIPIAC AV #2","New Haven","CT",""
5070,"986 QUINNIPIAC AV #3","New Haven","CT",""
5071,"986 QUINNIPIAC AV #4","New Haven","CT",""
5072,"986 QUINNIPIAC AV #5","New Haven","CT",""
5073,"986 QUINNIPIAC AV #6","New Haven","CT",""
5074,"986 QUINNIPIAC AV #7","New Haven","CT",""
5075,"986 QUINNIPIAC AV #8","New Haven","CT",""
5076,"986 QUINNIPIAC AV #9","New Haven","CT",""
5077,"986 QUINNIPIAC AV #10","New Haven","CT",""
5078,"986 QUINNIPIAC AV #11","New Haven","CT",""
5079,"986 QUINNIPIAC AV #12","New Haven","CT",""
5080,"986 QUINNIPIAC AV #13","New Haven","CT",""
5081,"986 QUINNIPIAC AV #14","New Haven","CT",""
5082,"970R QUINNIPIAC AV","New Haven","CT",""
5083,NA,"New Haven","CT",""
5084,NA,"New Haven","CT",""
5085,"930 QUINNIPIAC AV #1","New Haven","CT",""
5086,"930 QUINNIPIAC AV #2","New Haven","CT",""
5087,"930 QUINNIPIAC AV #3","New Haven","CT",""
5088,"930 QUINNIPIAC AV #4","New Haven","CT",""
5089,"918 QUINNIPIAC AV #5","New Haven","CT",""
5090,"918 QUINNIPIAC AV #6","New Haven","CT",""
5091,"918 QUINNIPIAC AV #7","New Haven","CT",""
5092,"918 QUINNIPIAC AV #8","New Haven","CT",""
5093,"918 QUINNIPIAC AV #9","New Haven","CT",""
5094,"918 QUINNIPIAC AV #10","New Haven","CT",""
5095,"920 QUINNIPIAC AV #11","New Haven","CT",""
5096,"920 QUINNIPIAC AV #12","New Haven","CT",""
5097,"920 QUINNIPIAC AV #13","New Haven","CT",""
5098,"920 QUINNIPIAC AV #14","New Haven","CT",""
5099,"920 QUINNIPIAC AV #15","New Haven","CT",""
5100,"920 QUINNIPIAC AV #16","New Haven","CT",""
5101,"920 QUINNIPIAC AV #17","New Haven","CT",""
5102,"920 QUINNIPIAC AV #18","New Haven","CT",""
5103,"920 QUINNIPIAC AV #19","New Haven","CT",""
5104,"916 QUINNIPIAC AV #20","New Haven","CT",""
5105,"916 QUINNIPIAC AV #21","New Haven","CT",""
5106,"916 QUINNIPIAC AV #22","New Haven","CT",""
5107,"916 QUINNIPIAC AV #23","New Haven","CT",""
5108,"916 QUINNIPIAC AV #24","New Haven","CT",""
5109,"916 QUINNIPIAC AV #25","New Haven","CT",""
5110,"916 QUINNIPIAC AV #26","New Haven","CT",""
5111,"916 QUINNIPIAC AV #27","New Haven","CT",""
5112,"916 QUINNIPIAC AV #28","New Haven","CT",""
5113,"916 QUINNIPIAC AV #29","New Haven","CT",""
5114,"916 QUINNIPIAC AV #30","New Haven","CT",""
5115,"916 QUINNIPIAC AV #31","New Haven","CT",""
5116,"916 QUINNIPIAC AV #32","New Haven","CT",""
5117,"924 QUINNIPIAC AV #33","New Haven","CT",""
5118,"924 QUINNIPIAC AV #34","New Haven","CT",""
5119,"924 QUINNIPIAC AV #3","New Haven","CT",""
5120,"924 QUINNIPIAC AV #36","New Haven","CT",""
5121,"924 QUINNIPIAC AV #37","New Haven","CT",""
5122,"924 QUINNIPIAC AV #38","New Haven","CT",""
5123,"924 QUINNIPIAC AV #39","New Haven","CT",""
5124,"932 QUINNIPIAC AV #46","New Haven","CT",""
5125,"932 QUINNIPIAC AV #47","New Haven","CT",""
5126,"932 QUINNIPIAC AV #48","New Haven","CT",""
5127,"932 QUINNIPIAC AV #49","New Haven","CT",""
5128,"932 QUINNIPIAC AV #50","New Haven","CT",""
5129,"932 QUINNIPIAC AV #51","New Haven","CT",""
5130,"926 QUINNIPIAC AV #52","New Haven","CT",""
5131,"926 QUINNIPIAC AV #53","New Haven","CT",""
5132,"926 QUINNIPIAC AV #54","New Haven","CT",""
5133,"926 QUINNIPIAC AV #55","New Haven","CT",""
5134,"926 QUINNIPIAC AV #56","New Haven","CT",""
5135,"926 QUINNIPIAC AV #57","New Haven","CT",""
5136,"926 QUINNIPIAC AV #58","New Haven","CT",""
5137,"926 QUINNIPIAC AV #59","New Haven","CT",""
5138,"926 QUINNIPIAC AV #60","New Haven","CT",""
5139,"922 QUINNIPIAC AV #40","New Haven","CT",""
5140,"922 QUINNIPIAC AV #41","New Haven","CT",""
5141,"922 QUINNIPIAC AV #43","New Haven","CT",""
5142,"922 QUINNIPIAC AV #44","New Haven","CT",""
5143,"922 QUINNIPIAC AV #45","New Haven","CT",""
5144,"922 QUINNIPIAC AV #42","New Haven","CT",""
5145,"904 QUINNIPIAC AV","New Haven","CT",""
5146,"896 QUINNIPIAC AV #1","New Haven","CT",""
5147,"896 QUINNIPIAC AV #2","New Haven","CT",""
5148,"896 QUINNIPIAC AV #3","New Haven","CT",""
5149,"896 QUINNIPIAC AV #4","New Haven","CT",""
5150,"896 QUINNIPIAC AV #5","New Haven","CT",""
5151,"896 QUINNIPIAC AV #6","New Haven","CT",""
5152,"896 QUINNIPIAC AV #7","New Haven","CT",""
5153,"896 QUINNIPIAC AV #8","New Haven","CT",""
5154,"896 QUINNIPIAC AV #9","New Haven","CT",""
5155,"896 QUINNIPIAC AV #10","New Haven","CT",""
5156,"896 QUINNIPIAC AV #11","New Haven","CT",""
5157,"890 QUINNIPIAC AV","New Haven","CT",""
5158,"882 QUINNIPIAC AV","New Haven","CT",""
5159,"884 QUINNIPIAC AV","New Haven","CT",""
5160,"874 QUINNIPIAC AV","New Haven","CT",""
5161,"864 QUINNIPIAC AV","New Haven","CT",""
5162,"858 QUINNIPIAC AV #1","New Haven","CT",""
5163,NA,"New Haven","CT",""
5164,"858 QUINNIPIAC AV #3","New Haven","CT",""
5165,"856 QUINNIPIAC AV   4","New Haven","CT",""
5166,"856 QUINNIPIAC AV  5","New Haven","CT",""
5167,"856 QUINNIPIAC AV  6","New Haven","CT",""
5168,"850 QUINNIPIAC AV  12","New Haven","CT",""
5169,"850 QUINNIPIAC AV  13","New Haven","CT",""
5170,"850 QUINNIPIAC AV #14","New Haven","CT",""
5171,"844 QUINNIPIAC AV","New Haven","CT",""
5172,"QUINNIPIAC AV","New Haven","CT",""
5173,"QUINNIPIAC AV","New Haven","CT",""
5174,"160 FIRST AV","New Haven","CT",""
5175,"24 HEMINGWAY ST","New Haven","CT",""
5176,"144 FIRST AV","New Haven","CT",""
5177,"138 FIRST AV","New Haven","CT",""
5178,"943 QUINNIPIAC AV","New Haven","CT",""
5179,"132 FIRST AV","New Haven","CT",""
5180,"124 FIRST AV","New Haven","CT",""
5181,"933 QUINNIPIAC AV","New Haven","CT",""
5182,"QUINNIPIAC AV","New Haven","CT",""
5183,"106 FIRST AV","New Haven","CT",""
5184,"102 FIRST AV","New Haven","CT",""
5185,"96 FIRST AV","New Haven","CT",""
5186,"92 FIRST AV","New Haven","CT",""
5187,"FIRST AV","New Haven","CT",""
5188,"FIRST AV","New Haven","CT",""
5189,"78 FIRST AV","New Haven","CT",""
5190,"889 QUINNIPIAC AV","New Haven","CT",""
5191,"QUINNIPIAC AV","New Haven","CT",""
5192,"883 QUINNIPIAC AV","New Haven","CT",""
5193,"875 QUINNIPIAC AV","New Haven","CT",""
5194,"869 QUINNIPIAC AV","New Haven","CT",""
5195,"1002 QUINNIPIAC AV #1002","New Haven","CT",""
5196,"1004 QUINNIPIAC AV #1004","New Haven","CT",""
5197,"1006 QUINNIPIAC AV #1006","New Haven","CT",""
5198,"1008 QUINNIPIAC AV #1008","New Haven","CT",""
5199,"1010 QUINNIPIAC AV #1010","New Haven","CT",""
5200,"1012 QUINNIPIAC AV #1012","New Haven","CT",""
5201,"1014 QUINNIPIAC AV #1014","New Haven","CT",""
5202,"1016 QUINNIPIAC AV #1016","New Haven","CT",""
5203,"1018 QUINNIPIAC AV #1018","New Haven","CT",""
5204,"1020 QUINNIPIAC AV #1020","New Haven","CT",""
5205,"1022 QUINNIPIAC AV #1022","New Haven","CT",""
5206,"1024 QUINNIPIAC AV #1024","New Haven","CT",""
5207,"1000 QUINNIPIAC AV","New Haven","CT",""
5208,"QUINNIPIAC AV","New Haven","CT",""
5209,"QUINNIPIAC AV","New Haven","CT",""
5210,"QUINNIPIAC AV","New Haven","CT",""
5211,"QUINNIPIAC AV","New Haven","CT",""
5212,"965 QUINNIPIAC AV","New Haven","CT",""
5213,"40 HEMINGWAY ST","New Haven","CT",""
5214,"979 QUINNIPIAC AV","New Haven","CT",""
5215,"985 QUINNIPIAC AV","New Haven","CT",""
5216,"991 QUINNIPIAC AV","New Haven","CT",""
5217,"1001 QUINNIPIAC AV","New Haven","CT",""
5218,"1003 QUINNIPIAC AV","New Haven","CT",""
5219,"1005 QUINNIPIAC AV","New Haven","CT",""
5220,"1007 QUINNIPIAC AV","New Haven","CT",""
5221,"QUINNIPIAC AV","New Haven","CT",""
5222,"300 EASTERN ST #1A","New Haven","CT",""
5223,"300 EASTERN ST #1B","New Haven","CT",""
5224,"300 EASTERN ST #1C","New Haven","CT",""
5225,"300 EASTERN ST #1D","New Haven","CT",""
5226,"300 EASTERN ST #1E","New Haven","CT",""
5227,"300 EASTERN ST #1F","New Haven","CT",""
5228,"300 EASTERN ST #2A","New Haven","CT",""
5229,"300 EASTERN ST #2B","New Haven","CT",""
5230,"300 EASTERN ST #2C","New Haven","CT",""
5231,"300 EASTERN ST #2D","New Haven","CT",""
5232,"300 EASTERN ST #2E","New Haven","CT",""
5233,"300 EASTERN ST #2F","New Haven","CT",""
5234,"300 EASTERN ST #3A","New Haven","CT",""
5235,"300 EASTERN ST #3B","New Haven","CT",""
5236,"300 EASTERN ST #3C","New Haven","CT",""
5237,"300 EASTERN ST #3D","New Haven","CT",""
5238,"300 EASTERN ST #3E","New Haven","CT",""
5239,"300 EASTERN ST #3F","New Haven","CT",""
5240,"300 EASTERN ST #4A","New Haven","CT",""
5241,"300 EASTERN ST #4B","New Haven","CT",""
5242,"300 EASTERN ST #4C","New Haven","CT",""
5243,"300 EASTERN ST #4D","New Haven","CT",""
5244,"300 EASTERN ST #4E","New Haven","CT",""
5245,"300 EASTERN ST #4F","New Haven","CT",""
5246,"280 EASTERN ST","New Haven","CT",""
5247,"282 EASTERN ST","New Haven","CT",""
5248,"284 EASTERN ST","New Haven","CT",""
5249,"286 EASTERN ST","New Haven","CT",""
5250,"288 EASTERN ST","New Haven","CT",""
5251,"290 EASTERN ST","New Haven","CT",""
5252,"292 EASTERN ST","New Haven","CT",""
5253,"294 EASTERN ST","New Haven","CT",""
5254,"296 EASTERN ST","New Haven","CT",""
5255,"298 EASTERN ST","New Haven","CT",""
5256,"314 EASTERN ST","New Haven","CT",""
5257,"316 EASTERN ST","New Haven","CT",""
5258,"318 EASTERN ST","New Haven","CT",""
5259,"320 EASTERN ST","New Haven","CT",""
5260,"322 EASTERN ST","New Haven","CT",""
5261,"324 EASTERN ST","New Haven","CT",""
5262,"302 EASTERN ST","New Haven","CT",""
5263,"136 HEMINGWAY ST","New Haven","CT",""
5264,NA,"New Haven","CT",""
5265,"120 HEMINGWAY ST #A-1","New Haven","CT",""
5266,"120 HEMINGWAY ST #A-2","New Haven","CT",""
5267,"120 HEMINGWAY ST #B-3","New Haven","CT",""
5268,"120 HEMINGWAY ST #B-4","New Haven","CT",""
5269,"120 HEMINGWAY ST #C-5","New Haven","CT",""
5270,"120 HEMINGWAY ST #C-6","New Haven","CT",""
5271,"120 HEMINGWAY ST #D-7","New Haven","CT",""
5272,"120 HEMINGWAY ST #D-8","New Haven","CT",""
5273,"120 HEMINGWAY ST #D-9","New Haven","CT",""
5274,"120 HEMINGWAY ST #D-10","New Haven","CT",""
5275,"120 HEMINGWAY ST #E-11","New Haven","CT",""
5276,"120 HEMINGWAY ST #E-12","New Haven","CT",""
5277,"120 HEMINGWAY ST #E-13","New Haven","CT",""
5278,"120 HEMINGWAY ST #E-14","New Haven","CT",""
5279,"120 HEMINGWAY ST #E-15","New Haven","CT",""
5280,"120 HEMINGWAY ST #E-16","New Haven","CT",""
5281,"100 HEMINGWAY ST","New Haven","CT",""
5282,"82 HEMINGWAY ST","New Haven","CT",""
5283,"50 HEMINGWAY ST","New Haven","CT",""
5284,"76 HEMINGWAY ST","New Haven","CT",""
5285,"QUINNIPIAC AV","New Haven","CT",""
5286,"191 OLD FOXON RD","New Haven","CT",""
5287,"185 OLD FOXON RD","New Haven","CT",""
5288,"167 OLD FOXON RD #A-19","New Haven","CT",""
5289,"167 OLD FOXON RD #B-20","New Haven","CT",""
5290,"167 OLD FOXON RD #B-21","New Haven","CT",""
5291,"167 OLD FOXON RD #B-22","New Haven","CT",""
5292,"167 OLD FOXON RD #A-23","New Haven","CT",""
5293,"167 OLD FOXON RD #A-24","New Haven","CT",""
5294,"167 OLD FOXON RD #25","New Haven","CT",""
5295,"167 OLD FOXON RD #B-26","New Haven","CT",""
5296,"167 OLD FOXON RD #B-27","New Haven","CT",""
5297,"167 OLD FOXON RD #B-28","New Haven","CT",""
5298,"167 OLD FOXON RD #A-29","New Haven","CT",""
5299,"167 OLD FOXON RD #B-30","New Haven","CT",""
5300,"167 OLD FOXON RD #B-31","New Haven","CT",""
5301,"167 OLD FOXON RD #A-32","New Haven","CT",""
5302,"167 OLD FOXON RD #A-33","New Haven","CT",""
5303,"167 OLD FOXON RD #B-34","New Haven","CT",""
5304,"167 OLD FOXON RD #B-35","New Haven","CT",""
5305,"167 OLD FOXON RD #A-36","New Haven","CT",""
5306,"167 OLD FOXON RD #A-37","New Haven","CT",""
5307,"167 OLD FOXON RD #B-38","New Haven","CT",""
5308,"167 OLD FOXON RD #B-39","New Haven","CT",""
5309,"167 OLD FOXON RD #A-40","New Haven","CT",""
5310,"167 OLD FOXON RD #A-41","New Haven","CT",""
5311,"167 OLD FOXON RD #B-42","New Haven","CT",""
5312,"167 OLD FOXON RD #B-43","New Haven","CT",""
5313,"167 OLD FOXON RD #A-44","New Haven","CT",""
5314,"167 OLD FOXON RD #A-45","New Haven","CT",""
5315,"167 OLD FOXON RD #B-46","New Haven","CT",""
5316,"167 OLD FOXON RD #B-47","New Haven","CT",""
5317,"167 OLD FOXON RD #A-48","New Haven","CT",""
5318,"167 OLD FOXON RD #A-49","New Haven","CT",""
5319,"167 OLD FOXON RD #A-50","New Haven","CT",""
5320,"167 OLD FOXON RD #B-51","New Haven","CT",""
5321,"167 OLD FOXON RD #A-52","New Haven","CT",""
5322,"FOXON BLVD","New Haven","CT",""
5323,"471 FOXON BLVD","New Haven","CT",""
5324,"451 FOXON BLVD","New Haven","CT",""
5325,NA,"New Haven","CT",""
5326,NA,"New Haven","CT",""
5327,"87 FOXON ST","New Haven","CT",""
5328,"447 EASTERN ST","New Haven","CT",""
5329,"437 EASTERN ST","New Haven","CT",""
5330,"EASTERN ST","New Haven","CT",""
5331,"425 EASTERN ST","New Haven","CT",""
5332,"401 EASTERN ST","New Haven","CT",""
5333,"EASTERN ST","New Haven","CT",""
5334,"EASTERN ST","New Haven","CT",""
5335,"407 EASTERN ST","New Haven","CT",""
5336,"403 EASTERN ST","New Haven","CT",""
5337,"399 EASTERN ST","New Haven","CT",""
5338,NA,"New Haven","CT",""
5339,"339 EASTERN ST","New Haven","CT",""
5340,"321 EASTERN ST","New Haven","CT",""
5341,"301 EASTERN ST","New Haven","CT",""
5342,"11 ESSEX ST","New Haven","CT",""
5343,"17 ESSEX ST","New Haven","CT",""
5344,"21 ESSEX ST","New Haven","CT",""
5345,"27 ESSEX ST","New Haven","CT",""
5346,"31 ESSEX ST","New Haven","CT",""
5347,"ESSEX ST","New Haven","CT",""
5348,"ESSEX ST","New Haven","CT",""
5349,"97 ESSEX ST","New Haven","CT",""
5350,"ESSEX ST","New Haven","CT",""
5351,"101 ESSEX ST","New Haven","CT",""
5352,"109 ESSEX ST","New Haven","CT",""
5353,"1081 QUINNIPIAC AV","New Haven","CT",""
5354,"420 EASTERN ST","New Haven","CT",""
5355,"394 EASTERN ST","New Haven","CT",""
5356,"400 EASTERN ST","New Haven","CT",""
5357,"390 EASTERN ST","New Haven","CT",""
5358,"385 EASTERN ST","New Haven","CT",""
5359,"1111 QUINNIPIAC AV","New Haven","CT",""
5360,"1121 QUINNIPIAC AV","New Haven","CT",""
5361,"1129 QUINNIPIAC AV","New Haven","CT",""
5362,"1139 QUINNIPIAC AV","New Haven","CT",""
5363,"1143 QUINNIPIAC AV","New Haven","CT",""
5364,"1149 QUINNIPIAC AV","New Haven","CT",""
5365,"1159 QUINNIPIAC AV","New Haven","CT",""
5366,"1163 QUINNIPIAC AV","New Haven","CT",""
5367,"1173 QUINNIPIAC AV","New Haven","CT",""
5368,"1175 QUINNIPIAC AV","New Haven","CT",""
5369,"1183 QUINNIPIAC AV","New Haven","CT",""
5370,"1187 QUINNIPIAC AV","New Haven","CT",""
5371,"15 FOXON ST","New Haven","CT",""
5372,"21 FOXON ST","New Haven","CT",""
5373,"29 FOXON ST","New Haven","CT",""
5374,"31 FOXON ST","New Haven","CT",""
5375,"35 FOXON ST","New Haven","CT",""
5376,"41 FOXON ST","New Haven","CT",""
5377,"45 FOXON ST","New Haven","CT",""
5378,"47 FOXON ST","New Haven","CT",""
5379,"114 ESSEX ST","New Haven","CT",""
5380,"106 ESSEX ST","New Haven","CT",""
5381,"102 ESSEX ST","New Haven","CT",""
5382,"96 ESSEX ST","New Haven","CT",""
5383,"90 ESSEX ST","New Haven","CT",""
5384,"84 ESSEX ST","New Haven","CT",""
5385,"80 ESSEX ST","New Haven","CT",""
5386,"70 ESSEX ST","New Haven","CT",""
5387,"1211 QUINNIPIAC AV","New Haven","CT",""
5388,"1215 QUINNIPIAC AV","New Haven","CT",""
5389,"355 FOXON BLVD","New Haven","CT",""
5390,"375 FOXON BLVD","New Haven","CT",""
5391,"399 FOXON BLVD","New Haven","CT",""
5392,"405 FOXON BLVD","New Haven","CT",""
5393,"70 FOXON ST","New Haven","CT",""
5394,"60 FOXON ST","New Haven","CT",""
5395,"FOXON ST","New Haven","CT",""
5396,"54 FOXON ST","New Haven","CT",""
5397,"46 FOXON ST","New Haven","CT",""
5398,"42 FOXON ST","New Haven","CT",""
5399,"38 FOXON ST","New Haven","CT",""
5400,"36 FOXON ST","New Haven","CT",""
5401,"28 FOXON ST","New Haven","CT",""
5402,"1040 QUINNIPIAC AV","New Haven","CT",""
5403,"QUINNIPIAC AV","New Haven","CT",""
5404,"1172 QUINNIPIAC AV","New Haven","CT",""
5405,"QUINNIPIAC AV","New Haven","CT",""
5406,"1162 QUINNIPIAC AV","New Haven","CT",""
5407,"1154 QUINNIPIAC AV","New Haven","CT",""
5408,"1154 QUINNIPIAC AV","New Haven","CT",""
5409,"1146 QUINNIPIAC AV","New Haven","CT",""
5410,"1134 QUINNIPIAC AV","New Haven","CT",""
5411,"QUINNIPIAC AV","New Haven","CT",""
5412,"1120 QUINNIPIAC AV","New Haven","CT",""
5413,"1118 QUINNIPIAC AV","New Haven","CT",""
5414,"1116 QUINNIPIAC AV","New Haven","CT",""
5415,"QUINNIPIAC AV","New Haven","CT",""
5416,"1096 QUINNIPIAC AV","New Haven","CT",""
5417,"1100 QUINNIPIAC AV","New Haven","CT",""
5418,"MIDDLETOWN AV","New Haven","CT",""
5419,"QUINNIPIAC AV","New Haven","CT",""
5420,"QUINNIPIAC AV","New Haven","CT",""
5421,"QUINNIPIAC AV","New Haven","CT",""
5422,"QUINNIPIAC AV","New Haven","CT",""
5423,"QUINNIPIAC AV","New Haven","CT",""
5424,"QUINNIPIAC AV","New Haven","CT",""
5425,"QUINNIPIAC AV","New Haven","CT",""
5426,"QUINNIPIAC AV","New Haven","CT",""
5427,"QUINNIPIAC AV","New Haven","CT",""
5428,"115 FOXON BLVD","New Haven","CT",""
5429,"125 FOXON BLVD","New Haven","CT",""
5430,"225 FOXON BLVD","New Haven","CT",""
5431,"315 FOXON BLVD","New Haven","CT",""
5432,"1228 QUINNIPIAC AV","New Haven","CT",""
5433,"1212 QUINNIPIAC AV","New Haven","CT",""
5434,"1200 QUINNIPIAC AV","New Haven","CT",""
5435,"1190 QUINNIPIAC AV","New Haven","CT",""
5436,"294 FOXON BLVD","New Haven","CT",""
5437,"270 FOXON BLVD","New Haven","CT",""
5438,"201 BARNES AV","New Haven","CT",""
5439,"203 BARNES AV","New Haven","CT",""
5440,"205 BARNES AV","New Haven","CT",""
5441,"211 BARNES AV","New Haven","CT",""
5442,"211 BARNES AV #1","New Haven","CT",""
5443,"213 BARNES AV #2","New Haven","CT",""
5444,"215 BARNES AV #3","New Haven","CT",""
5445,"217 BARNES AV #4","New Haven","CT",""
5446,"219 BARNES AV #5","New Haven","CT",""
5447,"221 BARNES AV #6","New Haven","CT",""
5448,"223 BARNES AV #7","New Haven","CT",""
5449,"225 BARNES AV #8","New Haven","CT",""
5450,"227 BARNES AV #9","New Haven","CT",""
5451,"229 BARNES AV #10","New Haven","CT",""
5452,"231 BARNES AV #11","New Haven","CT",""
5453,"233 BARNES AV #12","New Haven","CT",""
5454,"235 BARNES AV #13","New Haven","CT",""
5455,"237 BARNES AV #14","New Haven","CT",""
5456,"239 BARNES AV #15","New Haven","CT",""
5457,"241 BARNES AV #16","New Haven","CT",""
5458,"243 BARNES AV #17","New Haven","CT",""
5459,"245 BARNES AV #18","New Haven","CT",""
5460,"247 BARNES AV #19","New Haven","CT",""
5461,"249 BARNES AV #20","New Haven","CT",""
5462,"251 BARNES AV #21","New Haven","CT",""
5463,"253 BARNES AV #22","New Haven","CT",""
5464,"255 BARNES AV #23","New Haven","CT",""
5465,"257 BARNES AV #24","New Haven","CT",""
5466,"1268 QUINNIPIAC AV","New Haven","CT",""
5467,"1262 QUINNIPIAC AV","New Haven","CT",""
5468,"1260 QUINNIPIAC AV","New Haven","CT",""
5469,"320 FOXON BLVD","New Haven","CT",""
5470,"350 FOXON BLVD","New Haven","CT",""
5471,NA,"New Haven","CT",""
5472,"1267 QUINNIPIAC AV","New Haven","CT",""
5473,"1275 QUINNIPIAC AV","New Haven","CT",""
5474,"1299 QUINNIPIAC AV","New Haven","CT",""
5475,"1305 QUINNIPIAC AV","New Haven","CT",""
5476,"1311 QUINNIPIAC AV","New Haven","CT",""
5477,"1317 QUINNIPIAC AV","New Haven","CT",""
5478,"1323 QUINNIPIAC AV","New Haven","CT",""
5479,"1333 QUINNIPIAC AV","New Haven","CT",""
5480,"1343 QUINNIPIAC AV","New Haven","CT",""
5481,"584 EASTERN ST","New Haven","CT",""
5482,"580 EASTERN ST","New Haven","CT",""
5483,"574 EASTERN ST","New Haven","CT",""
5484,"570 EASTERN ST","New Haven","CT",""
5485,"566 EASTERN ST","New Haven","CT",""
5486,"530 EASTERN ST","New Haven","CT",""
5487,"528 EASTERN ST","New Haven","CT",""
5488,"522 EASTERN ST","New Haven","CT",""
5489,"400 FOXON BLVD","New Haven","CT",""
5490,"390 FOXON BLVD","New Haven","CT",""
5491,"1385 QUINNIPIAC AV","New Haven","CT",""
5492,"1389 QUINNIPIAC AV","New Haven","CT",""
5493,"1415 QUINNIPIAC AV #A","New Haven","CT",""
5494,"1415 QUINNIPIAC AV #B","New Haven","CT",""
5495,"1415 QUINNIPIAC AV #C","New Haven","CT",""
5496,"1417 QUINNIPIAC AV #A","New Haven","CT",""
5497,"1417 QUINNIPIAC AV #B","New Haven","CT",""
5498,"1417 QUINNIPIAC AV #C","New Haven","CT",""
5499,"1417 QUINNIPIAC AV #D","New Haven","CT",""
5500,"1417 QUINNIPIAC AV #E","New Haven","CT",""
5501,"1417 QUINNIPIAC AV #F","New Haven","CT",""
5502,"1417 QUINNIPIAC AV #G","New Haven","CT",""
5503,"1421 QUINNIPIAC AV #A","New Haven","CT",""
5504,"1421 QUINNIPIAC AV #B","New Haven","CT",""
5505,"1421 QUINNIPIAC AV #C","New Haven","CT",""
5506,"1421 QUINNIPIAC AV #D","New Haven","CT",""
5507,"1421 QUINNIPIAC AV #E","New Haven","CT",""
5508,"1421 QUINNIPIAC AV #F","New Haven","CT",""
5509,"1421 QUINNIPIAC AV #G","New Haven","CT",""
5510,"1423 QUINNIPIAC AV #101","New Haven","CT",""
5511,"1423 QUINNIPIAC AV #102","New Haven","CT",""
5512,"1423 QUINNIPIAC AV #103","New Haven","CT",""
5513,"1423 QUINNIPIAC AV #104","New Haven","CT",""
5514,"1423 QUINNIPIAC AV #105","New Haven","CT",""
5515,"1423 QUINNIPIAC AV #106","New Haven","CT",""
5516,"1423 QUINNIPIAC AV #107","New Haven","CT",""
5517,"1423 QUINNIPIAC AV #108","New Haven","CT",""
5518,"1423 QUINNIPIAC AV #109","New Haven","CT",""
5519,"1423 QUINNIPIAC AV #110","New Haven","CT",""
5520,"1423 QUINNIPIAC AV #111","New Haven","CT",""
5521,"1423 QUINNIPIAC AV #112","New Haven","CT",""
5522,"1423 QUINNIPIAC AV #113","New Haven","CT",""
5523,"1423 QUINNIPIAC AV #114","New Haven","CT",""
5524,"1423 QUINNIPIAC AV #115","New Haven","CT",""
5525,"1423 QUINNIPIAC AV #116","New Haven","CT",""
5526,"1423 QUINNIPIAC AV #117","New Haven","CT",""
5527,"1423 QUINNIPIAC AV #118","New Haven","CT",""
5528,"1423 QUINNIPIAC AV #201","New Haven","CT",""
5529,"1423 QUINNIPIAC AV #202","New Haven","CT",""
5530,"1423 QUINNIPIAC AV #203","New Haven","CT",""
5531,"1423 QUINNIPIAC AV #204","New Haven","CT",""
5532,"1423 QUINNIPIAC AV #205","New Haven","CT",""
5533,"1423 QUINNIPIAC AV #206","New Haven","CT",""
5534,"1423 QUINNIPIAC AV #207","New Haven","CT",""
5535,"1423 QUINNIPIAC AV #208","New Haven","CT",""
5536,"1423 QUINNIPIAC AV #209","New Haven","CT",""
5537,"1423 QUINNIPIAC AV #210","New Haven","CT",""
5538,"1423 QUINNIPIAC AV #211","New Haven","CT",""
5539,"1423 QUINNIPIAC AV #212","New Haven","CT",""
5540,"1423 QUINNIPIAC AV #301","New Haven","CT",""
5541,"1423 QUINNIPIAC AV #302","New Haven","CT",""
5542,"1423 QUINNIPIAC AV #303","New Haven","CT",""
5543,"1423 QUINNIPIAC AV #304","New Haven","CT",""
5544,"1423 QUINNIPIAC AV #305","New Haven","CT",""
5545,"1423 QUINNIPIAC AV #306","New Haven","CT",""
5546,"1423 QUINNIPIAC AV #307","New Haven","CT",""
5547,"1423 QUINNIPIAC AV #308","New Haven","CT",""
5548,"1423 QUINNIPIAC AV #401","New Haven","CT",""
5549,"1423 QUINNIPIAC AV #402","New Haven","CT",""
5550,"1423 QUINNIPIAC AV #403","New Haven","CT",""
5551,"1423 QUINNIPIAC AV #404","New Haven","CT",""
5552,"1423 QUINNIPIAC AV #405","New Haven","CT",""
5553,"1423 QUINNIPIAC AV #406","New Haven","CT",""
5554,"1423 QUINNIPIAC AV #407","New Haven","CT",""
5555,"1423 QUINNIPIAC AV #408","New Haven","CT",""
5556,"1423 QUINNIPIAC AV #501","New Haven","CT",""
5557,"1423 QUINNIPIAC AV #502","New Haven","CT",""
5558,"1423 QUINNIPIAC AV #503","New Haven","CT",""
5559,"1423 QUINNIPIAC AV #504","New Haven","CT",""
5560,"1423 QUINNIPIAC AV #505","New Haven","CT",""
5561,"1423 QUINNIPIAC AV #506","New Haven","CT",""
5562,"1423 QUINNIPIAC AV   507","New Haven","CT",""
5563,"1423 QUINNIPIAC AV #508","New Haven","CT",""
5564,"1423 QUINNIPIAC AV #509","New Haven","CT",""
5565,"1423 QUINNIPIAC AV #510","New Haven","CT",""
5566,"1423 QUINNIPIAC AV #511","New Haven","CT",""
5567,"1423 QUINNIPIAC AV #512","New Haven","CT",""
5568,"1423 QUINNIPIAC AV #513","New Haven","CT",""
5569,"1423 QUINNIPIAC AV #514","New Haven","CT",""
5570,"1423 QUINNIPIAC AV #515","New Haven","CT",""
5571,"1423 QUINNIPIAC AV #516","New Haven","CT",""
5572,"1423 QUINNIPIAC AV #517","New Haven","CT",""
5573,"1423 QUINNIPIAC AV #518","New Haven","CT",""
5574,"1423 QUINNIPIAC AV #601","New Haven","CT",""
5575,"1423 QUINNIPIAC AV #602","New Haven","CT",""
5576,"1423 QUINNIPIAC AV #603","New Haven","CT",""
5577,"1423 QUINNIPIAC AV #604","New Haven","CT",""
5578,"1423 QUINNIPIAC AV #605","New Haven","CT",""
5579,"1423 QUINNIPIAC AV #606","New Haven","CT",""
5580,"1423 QUINNIPIAC AV #607","New Haven","CT",""
5581,"1423 QUINNIPIAC AV #608","New Haven","CT",""
5582,"1423 QUINNIPIAC AV #609","New Haven","CT",""
5583,"1423 QUINNIPIAC AV #610","New Haven","CT",""
5584,"1423 QUINNIPIAC AV #611","New Haven","CT",""
5585,"1423 QUINNIPIAC AV #612","New Haven","CT",""
5586,"1423 QUINNIPIAC AV #613","New Haven","CT",""
5587,"1423 QUINNIPIAC AV #614","New Haven","CT",""
5588,"1423 QUINNIPIAC AV #615","New Haven","CT",""
5589,"1423 QUINNIPIAC AV #701","New Haven","CT",""
5590,"1423 QUINNIPIAC AV #702","New Haven","CT",""
5591,"1423 QUINNIPIAC AV #703","New Haven","CT",""
5592,"1423 QUINNIPIAC AV #704","New Haven","CT",""
5593,"1423 QUINNIPIAC AV #705","New Haven","CT",""
5594,"1423 QUINNIPIAC AV #706","New Haven","CT",""
5595,"1423 QUINNIPIAC AV #707","New Haven","CT",""
5596,"1423 QUINNIPIAC AV #708","New Haven","CT",""
5597,"1423 QUINNIPIAC AV #709","New Haven","CT",""
5598,"1423 QUINNIPIAC AV #710","New Haven","CT",""
5599,"1423 QUINNIPIAC AV #711","New Haven","CT",""
5600,"1423 QUINNIPIAC AV #712","New Haven","CT",""
5601,"541 EASTERN ST","New Haven","CT",""
5602,"1423 QUINNIPIAC AV #801","New Haven","CT",""
5603,"1423 QUINNIPIAC AV #802","New Haven","CT",""
5604,"1423 QUINNIPIAC AV #803","New Haven","CT",""
5605,"1423 QUINNIPIAC AV #804","New Haven","CT",""
5606,"1423 QUINNIPIAC AV #805","New Haven","CT",""
5607,"1423 QUINNIPIAC AV #806","New Haven","CT",""
5608,"1423 QUINNIPIAC AV #807","New Haven","CT",""
5609,"1423 QUINNIPIAC AV #808","New Haven","CT",""
5610,"1423 QUINNIPIAC AV #809","New Haven","CT",""
5611,"1423 QUINNIPIAC AV #810","New Haven","CT",""
5612,"1423 QUINNIPIAC AV #811","New Haven","CT",""
5613,"1423 QUINNIPIAC AV #812","New Haven","CT",""
5614,"1423 QUINNIPIAC AV #813","New Haven","CT",""
5615,"1423 QUINNIPIAC AV #814","New Haven","CT",""
5616,"1423 QUINNIPIAC AV #815","New Haven","CT",""
5617,"1423 QUINNIPIAC AV #901","New Haven","CT",""
5618,"1423 QUINNIPIAC AV #902","New Haven","CT",""
5619,"1423 QUINNIPIAC AV #903","New Haven","CT",""
5620,"1423 QUINNIPIAC AV #904","New Haven","CT",""
5621,"1423 QUINNIPIAC AV #905","New Haven","CT",""
5622,"1423 QUINNIPIAC AV #906","New Haven","CT",""
5623,"1381 QUINNIPIAC AV","New Haven","CT",""
5624,"DELL DR","New Haven","CT",""
5625,"466 FOXON BLVD","New Haven","CT",""
5626,"120 DELL DR","New Haven","CT",""
5627,"1363 QUINNIPIAC AV","New Haven","CT",""
5628,"100 DELL DR","New Haven","CT",""
5629,"102 DANIEL DR","New Haven","CT",""
5630,"92 DANIEL DR","New Haven","CT",""
5631,"84 DANIEL DR","New Haven","CT",""
5632,"78 DANIEL DR","New Haven","CT",""
5633,"72 DANIEL DR","New Haven","CT",""
5634,"64 DANIEL DR","New Haven","CT",""
5635,"40 DANIEL DR","New Haven","CT",""
5636,"30 DANIEL DR","New Haven","CT",""
5637,"20 DANIEL DR","New Haven","CT",""
5638,"12 DANIEL DR","New Haven","CT",""
5639,"30 DELL DR","New Haven","CT",""
5640,"20 DELL DR","New Haven","CT",""
5641,"500 FOXON BLVD","New Haven","CT",""
5642,"510 FOXON BLVD","New Haven","CT",""
5643,"490 FOXON BLVD","New Haven","CT",""
5644,NA,"New Haven","CT",""
5645,"86 DELL DR","New Haven","CT",""
5646,"78 DELL DR","New Haven","CT",""
5647,"70 DELL DR","New Haven","CT",""
5648,"62 DELL DR","New Haven","CT",""
5649,"54 DELL DR","New Haven","CT",""
5650,"46 DELL DR","New Haven","CT",""
5651,"19 DANIEL DR","New Haven","CT",""
5652,"31 DANIEL DR","New Haven","CT",""
5653,"37 DANIEL DR","New Haven","CT",""
5654,"47 DANIEL DR","New Haven","CT",""
5655,"55 DANIEL DR","New Haven","CT",""
5656,"63 DANIEL DR","New Haven","CT",""
5657,"77 DANIEL DR","New Haven","CT",""
5658,"89 DANIEL DR","New Haven","CT",""
5659,"511 FOXON BLVD","New Haven","CT",""
5660,"1439 QUINNIPIAC AV","New Haven","CT",""
5661,"1419 QUINNIPIAC AV","New Haven","CT",""
5662,"1445 QUINNIPIAC AV","New Haven","CT",""
5663,"1451 QUINNIPIAC AV","New Haven","CT",""
5664,"1453 QUINNIPIAC AV","New Haven","CT",""
5665,"1455 QUINNIPIAC AV","New Haven","CT",""
5666,"1457 QUINNIPIAC AV","New Haven","CT",""
5667,"1459 QUINNIPIAC AV","New Haven","CT",""
5668,"1461 QUINNIPIAC AV","New Haven","CT",""
5669,"1481 QUINNIPIAC AV","New Haven","CT",""
5670,"QUINNIPIAC AV","New Haven","CT",""
5671,"QUINNIPIAC AV","New Haven","CT",""
5672,NA,"New Haven","CT",""
5673,"1425 QUINNIPIAC AV #201","New Haven","CT",""
5674,"1425 QUINNIPIAC AV #202","New Haven","CT",""
5675,"1425 QUINNIPIAC AV #203","New Haven","CT",""
5676,"1425 QUINNIPIAC AV #204","New Haven","CT",""
5677,"1425 QUINNIPIAC AV #205","New Haven","CT",""
5678,"1425 QUINNIPIAC AV #206","New Haven","CT",""
5679,"1425 QUINNIPIAC AV #207","New Haven","CT",""
5680,"1425 QUINNIPIAC AV #208","New Haven","CT",""
5681,"1425 QUINNIPIAC AV #209","New Haven","CT",""
5682,"1425 QUINNIPIAC AV #210","New Haven","CT",""
5683,"1425 QUINNIPIAC AV #211","New Haven","CT",""
5684,"1425 QUINNIPIAC AV #212","New Haven","CT",""
5685,"1425 QUINNIPIAC AV #301","New Haven","CT",""
5686,"1425 QUINNIPIAC AV #302","New Haven","CT",""
5687,"1425 QUINNIPIAC AV #303","New Haven","CT",""
5688,"1425 QUINNIPIAC AV #304","New Haven","CT",""
5689,"1425 QUINNIPIAC AV #305","New Haven","CT",""
5690,"1425 QUINNIPIAC AV #306","New Haven","CT",""
5691,"1425 QUINNIPIAC AV #307","New Haven","CT",""
5692,"1425 QUINNIPIAC AV #308","New Haven","CT",""
5693,"1425 QUINNIPIAC AV #309","New Haven","CT",""
5694,"1425 QUINNIPIAC AV #310","New Haven","CT",""
5695,"1425 QUINNIPIAC AV #311","New Haven","CT",""
5696,"1425 QUINNIPIAC AV #312","New Haven","CT",""
5697,"1425 QUINNIPIAC AV #0101","New Haven","CT",""
5698,"1425 QUINNIPIAC AV #0102","New Haven","CT",""
5699,"1425 QUINNIPIAC AV #0103","New Haven","CT",""
5700,"1425 QUINNIPIAC AV #0104","New Haven","CT",""
5701,"1425 QUINNIPIAC AV #0105","New Haven","CT",""
5702,"1425 QUINNIPIAC AV #0106","New Haven","CT",""
5703,"1425 QUINNIPIAC AV #0107","New Haven","CT",""
5704,"1425 QUINNIPIAC AV #0108","New Haven","CT",""
5705,"1425 QUINNIPIAC AV #0109","New Haven","CT",""
5706,"1425 QUINNIPIAC AV #0110","New Haven","CT",""
5707,"1425 QUINNIPIAC AV #0111","New Haven","CT",""
5708,"1425 QUINNIPIAC AV #0112","New Haven","CT",""
5709,"1425 QUINNIPIAC AV #0113","New Haven","CT",""
5710,"1425 QUINNIPIAC AV #0114","New Haven","CT",""
5711,"1425 QUINNIPIAC AV #0115","New Haven","CT",""
5712,"1350 QUINNIPIAC AV","New Haven","CT",""
5713,"1342 QUINNIPIAC AV","New Haven","CT",""
5714,"1336 QUINNIPIAC AV","New Haven","CT",""
5715,"1332 QUINNIPIAC AV","New Haven","CT",""
5716,"1324 QUINNIPIAC AV","New Haven","CT",""
5717,"1320 QUINNIPIAC AV","New Haven","CT",""
5718,"1320 QUINNIPIAC AV","New Haven","CT",""
5719,"1 QUINNIPIAC #CT","New Haven","CT",""
5720,"1310 QUINNIPIAC AV","New Haven","CT",""
5721,"1298 QUINNIPIAC AV","New Haven","CT",""
5722,"1290 QUINNIPIAC AV","New Haven","CT",""
5723,"BARNES AV","New Haven","CT",""
5724,"242 BARNES AV","New Haven","CT",""
5725,"238 BARNES AV","New Haven","CT",""
5726,"226 BARNES AV","New Haven","CT",""
5727,"216 BARNES AV","New Haven","CT",""
5728,"210 BARNES AV","New Haven","CT",""
5729,"208 BARNES AV","New Haven","CT",""
5730,"204 BARNES AV","New Haven","CT",""
5731,"202 BARNES AV","New Haven","CT",""
5732,"188 BARNES AV","New Haven","CT",""
5733,"188 BARNES AV #A","New Haven","CT",""
5734,"188 BARNES AV #B","New Haven","CT",""
5735,"188 BARNES AV #C","New Haven","CT",""
5736,"188 BARNES AV #D","New Haven","CT",""
5737,"188 BARNES AV #E","New Haven","CT",""
5738,"188 BARNES AV #F","New Haven","CT",""
5739,"188 BARNES AV #G","New Haven","CT",""
5740,"188 BARNES AV #H","New Haven","CT",""
5741,"188 BARNES AV #I","New Haven","CT",""
5742,"188 BARNES AV #J","New Haven","CT",""
5743,"188 BARNES AV #K","New Haven","CT",""
5744,"184 BARNES AV","New Haven","CT",""
5745,"180 BARNES AV","New Haven","CT",""
5746,"174 BARNES AV","New Haven","CT",""
5747,"154 BARNES AV","New Haven","CT",""
5748,"148 BARNES AV","New Haven","CT",""
5749,"BARNES AV","New Haven","CT",""
5750,"138 BARNES AV","New Haven","CT",""
5751,"5 KENNY DR","New Haven","CT",""
5752,"13 KENNY DR","New Haven","CT",""
5753,"19 KENNY DR","New Haven","CT",""
5754,"25 KENNY DR","New Haven","CT",""
5755,"5 EMILY RD","New Haven","CT",""
5756,"15 EMILY RD","New Haven","CT",""
5757,"19 EMILY RD","New Haven","CT",""
5758,"23 EMILY RD","New Haven","CT",""
5759,"27 EMILY RD","New Haven","CT",""
5760,"33 EMILY RD","New Haven","CT",""
5761,"37 EMILY RD","New Haven","CT",""
5762,"43 EMILY RD","New Haven","CT",""
5763,"49 EMILY RD","New Haven","CT",""
5764,"55 EMILY RD","New Haven","CT",""
5765,"61 EMILY RD","New Haven","CT",""
5766,"67 EMILY RD","New Haven","CT",""
5767,"73 EMILY RD","New Haven","CT",""
5768,"77 EMILY RD","New Haven","CT",""
5769,"85 EMILY RD","New Haven","CT",""
5770,"89 EMILY RD","New Haven","CT",""
5771,"95 EMILY RD","New Haven","CT",""
5772,"45 KENNY DR","New Haven","CT",""
5773,"55 KENNY DR","New Haven","CT",""
5774,"59 KENNY DR","New Haven","CT",""
5775,"65 KENNY DR","New Haven","CT",""
5776,"71 KENNY DR","New Haven","CT",""
5777,"79 KENNY DR","New Haven","CT",""
5778,"85 KENNY DR","New Haven","CT",""
5779,"89 KENNY DR","New Haven","CT",""
5780,"95 KENNY DR","New Haven","CT",""
5781,"101 KENNY DR","New Haven","CT",""
5782,"115 KENNY DR","New Haven","CT",""
5783,"133 KENNY DR","New Haven","CT",""
5784,"88 EMILY RD","New Haven","CT",""
5785,"82 EMILY RD","New Haven","CT",""
5786,"76 EMILY RD","New Haven","CT",""
5787,"70 EMILY RD","New Haven","CT",""
5788,"66 EMILY RD","New Haven","CT",""
5789,"60 EMILY RD","New Haven","CT",""
5790,"52 EMILY RD","New Haven","CT",""
5791,"46 EMILY RD","New Haven","CT",""
5792,"40 EMILY RD","New Haven","CT",""
5793,"34 EMILY RD","New Haven","CT",""
5794,"28 EMILY RD","New Haven","CT",""
5795,"10 EMILY RD","New Haven","CT",""
5796,"1364 QUINNIPIAC AV","New Haven","CT",""
5797,"1360 QUINNIPIAC AV","New Haven","CT",""
5798,"154 KENNY DR","New Haven","CT",""
5799,"144 KENNY DR","New Haven","CT",""
5800,"136 KENNY DR","New Haven","CT",""
5801,"130 KENNY DR","New Haven","CT",""
5802,"122 KENNY DR","New Haven","CT",""
5803,"116 KENNY DR","New Haven","CT",""
5804,"112 KENNY DR","New Haven","CT",""
5805,"108 KENNY DR","New Haven","CT",""
5806,"102 KENNY DR","New Haven","CT",""
5807,"96 KENNY DR","New Haven","CT",""
5808,"90 KENNY DR","New Haven","CT",""
5809,"84 KENNY DR","New Haven","CT",""
5810,"78 KENNY DR","New Haven","CT",""
5811,"74 KENNY DR","New Haven","CT",""
5812,"68 KENNY DR","New Haven","CT",""
5813,"62 KENNY DR","New Haven","CT",""
5814,"56 KENNY DR","New Haven","CT",""
5815,"50 KENNY DR","New Haven","CT",""
5816,"44 KENNY DR","New Haven","CT",""
5817,"38 KENNY DR","New Haven","CT",""
5818,"32 KENNY DR","New Haven","CT",""
5819,"26 KENNY DR","New Haven","CT",""
5820,"20 KENNY DR","New Haven","CT",""
5821,"14 KENNY DR","New Haven","CT",""
5822,"6 KENNY DR","New Haven","CT",""
5823,"106 BARNES AV","New Haven","CT",""
5824,"94 BARNES AV","New Haven","CT",""
5825,"84 BARNES AV","New Haven","CT",""
5826,"70 BARNES AV","New Haven","CT",""
5827,"45 BARNES AV","New Haven","CT",""
5828,"125 BARNES AV","New Haven","CT",""
5829,"FOXON BLVD","New Haven","CT",""
5830,"ANDRESS ST","New Haven","CT",""
5831,NA,"New Haven","CT",""
5832,NA,"New Haven","CT",""
5833,NA,"New Haven","CT",""
5834,NA,"New Haven","CT",""
5835,NA,"New Haven","CT",""
5836,NA,"New Haven","CT",""
5837,NA,"New Haven","CT",""
5838,NA,"New Haven","CT",""
5839,"69 BARNES AV","New Haven","CT",""
5840,"349 MIDDLETOWN AV","New Haven","CT",""
5841,"351 MIDDLETOWN AV","New Haven","CT",""
5842,"20 DONNA DR #A-1","New Haven","CT",""
5843,"20 DONNA DR #A-2","New Haven","CT",""
5844,"20 DONNA DR #A-3","New Haven","CT",""
5845,"20 DONNA DR #B-1","New Haven","CT",""
5846,"20 DONNA DR #B-2","New Haven","CT",""
5847,"20 DONNA DR #B-3","New Haven","CT",""
5848,"20 DONNA DR #B-4","New Haven","CT",""
5849,"20 DONNA DR #B-5","New Haven","CT",""
5850,"20 DONNA DR #B-6","New Haven","CT",""
5851,"20 DONNA DR #B-7","New Haven","CT",""
5852,"20 DONNA DR #B-8","New Haven","CT",""
5853,"20 DONNA DR #C-1","New Haven","CT",""
5854,"20 DONNA DR #C-2","New Haven","CT",""
5855,"20 DONNA DR #C-3","New Haven","CT",""
5856,"20 DONNA DR #C-4","New Haven","CT",""
5857,"20 DONNA DR #C-5","New Haven","CT",""
5858,"20 DONNA DR #C-6","New Haven","CT",""
5859,"20 DONNA DR #C-7","New Haven","CT",""
5860,"20 DONNA DR #C-8","New Haven","CT",""
5861,"40 DONNA DR #A-1","New Haven","CT",""
5862,"40 DONNA DR #A-2","New Haven","CT",""
5863,"40 DONNA DR #A-3","New Haven","CT",""
5864,"40 DONNA DR #A-4","New Haven","CT",""
5865,"40 DONNA DR #A-5","New Haven","CT",""
5866,"40 DONNA DR #A-6","New Haven","CT",""
5867,"40 DONNA DR #A-7","New Haven","CT",""
5868,"40 DONNA DR #A-8","New Haven","CT",""
5869,"40 DONNA DR #B-1","New Haven","CT",""
5870,"40 DONNA DR #B-2","New Haven","CT",""
5871,"40 DONNA DR #B-3","New Haven","CT",""
5872,"40 DONNA DR #B-4","New Haven","CT",""
5873,"40 DONNA DR #B-5","New Haven","CT",""
5874,"40 DONNA DR #B-6","New Haven","CT",""
5875,"40 DONNA DR #B-7","New Haven","CT",""
5876,"40 DONNA DR #B-8","New Haven","CT",""
5877,"40 DONNA DR #B-9","New Haven","CT",""
5878,"40 DONNA DR #B-10","New Haven","CT",""
5879,"40 DONNA DR #B-11","New Haven","CT",""
5880,"40 DONNA DR #B-12","New Haven","CT",""
5881,"40 DONNA DR #C-1","New Haven","CT",""
5882,"40 DONNA DR #C-2","New Haven","CT",""
5883,"40 DONNA DR #C-3","New Haven","CT",""
5884,"40 DONNA DR #C-4","New Haven","CT",""
5885,"40 DONNA DR #C-5","New Haven","CT",""
5886,"40 DONNA DR #C-6","New Haven","CT",""
5887,"40 DONNA DR #C-7","New Haven","CT",""
5888,"40 DONNA DR #C-8","New Haven","CT",""
5889,"40 DONNA DR #C-9","New Haven","CT",""
5890,"40 DONNA DR #C-10","New Haven","CT",""
5891,"40 DONNA DR #C-11","New Haven","CT",""
5892,"40 DONNA DR #C-12","New Haven","CT",""
5893,"60 DONNA DR #A-1","New Haven","CT",""
5894,"60 DONNA DR #A-2","New Haven","CT",""
5895,"60 DONNA DR #A-3","New Haven","CT",""
5896,"60 DONNA DR #A-4","New Haven","CT",""
5897,"60 DONNA DR #A-5","New Haven","CT",""
5898,"60 DONNA DR #A-8","New Haven","CT",""
5899,"60 DONNA DR #B-1","New Haven","CT",""
5900,"60 DONNA DR #B-2","New Haven","CT",""
5901,"60 DONNA DR #B-3","New Haven","CT",""
5902,"60 DONNA DR #B-4","New Haven","CT",""
5903,"60 DONNA DR #B-5","New Haven","CT",""
5904,"60 DONNA DR #B-6","New Haven","CT",""
5905,"60 DONNA DR #B-7","New Haven","CT",""
5906,"60 DONNA DR #B-8","New Haven","CT",""
5907,"60 DONNA DR #C-1","New Haven","CT",""
5908,"60 DONNA DR #C-2","New Haven","CT",""
5909,"60 DONNA DR #C-3","New Haven","CT",""
5910,"60 DONNA DR #C-4","New Haven","CT",""
5911,"60 DONNA DR #C-5","New Haven","CT",""
5912,"60 DONNA DR #C-6","New Haven","CT",""
5913,"60 DONNA DR #C-7","New Haven","CT",""
5914,"60 DONNA DR #C-8","New Haven","CT",""
5915,"15 DONNA DR #A-1","New Haven","CT",""
5916,"15 DONNA DR #A-2","New Haven","CT",""
5917,"15 DONNA DR #A-3","New Haven","CT",""
5918,"15 DONNA DR #B-1","New Haven","CT",""
5919,"15 DONNA DR #B-2","New Haven","CT",""
5920,"15 DONNA DR #B-3","New Haven","CT",""
5921,"15 DONNA DR #15B4","New Haven","CT",""
5922,"15 DONNA DR #15B5","New Haven","CT",""
5923,"15 DONNA DR #15B6","New Haven","CT",""
5924,"15 DONNA DR #B-7","New Haven","CT",""
5925,"15 DONNA DR #15B8","New Haven","CT",""
5926,"15 DONNA DR #15C1","New Haven","CT",""
5927,"15 DONNA DR #C-2","New Haven","CT",""
5928,"15 DONNA DR #C-3","New Haven","CT",""
5929,"15 DONNA DR #C-4","New Haven","CT",""
5930,"15 DONNA DR #C-5","New Haven","CT",""
5931,"15 DONNA DR #C-6","New Haven","CT",""
5932,"15 DONNA DR #C-7","New Haven","CT",""
5933,"15 DONNA DR #C-8","New Haven","CT",""
5934,"25 DONNA DR #A-1","New Haven","CT",""
5935,"25 DONNA DR #A-2","New Haven","CT",""
5936,"25 DONNA DR #A-3","New Haven","CT",""
5937,"25 DONNA DR #A-4","New Haven","CT",""
5938,"25 DONNA DR #B-1","New Haven","CT",""
5939,"25 DONNA DR #B-2","New Haven","CT",""
5940,"25 DONNA DR #B-3","New Haven","CT",""
5941,"25 DONNA DR #B-4","New Haven","CT",""
5942,"25 DONNA DR #B-5","New Haven","CT",""
5943,"25 DONNA DR #B-6","New Haven","CT",""
5944,"25 DONNA DR #C-1","New Haven","CT",""
5945,"25 DONNA DR #C-2","New Haven","CT",""
5946,"25 DONNA DR #C-3","New Haven","CT",""
5947,"25 DONNA DR #C-4","New Haven","CT",""
5948,"25 DONNA DR #C-5","New Haven","CT",""
5949,"25 DONNA DR #C-6","New Haven","CT",""
5950,"45 DONNA DR #A-1","New Haven","CT",""
5951,"45 DONNA DR #A-2","New Haven","CT",""
5952,"45 DONNA DR #A-3","New Haven","CT",""
5953,"45 DONNA DR #A-4","New Haven","CT",""
5954,"45 DONNA DR #A-6","New Haven","CT",""
5955,"45 DONNA DR #A-8","New Haven","CT",""
5956,"45 DONNA DR #B-1","New Haven","CT",""
5957,"45 DONNA DR #B-2","New Haven","CT",""
5958,"45 DONNA DR #B-3","New Haven","CT",""
5959,"45 DONNA DR #B-4","New Haven","CT",""
5960,"45 DONNA DR #B-5","New Haven","CT",""
5961,"45 DONNA DR #B-6","New Haven","CT",""
5962,"45 DONNA DR #B-7","New Haven","CT",""
5963,"45 DONNA DR #B-8","New Haven","CT",""
5964,"45 DONNA DR #C-1","New Haven","CT",""
5965,"45 DONNA DR #C-2","New Haven","CT",""
5966,"45 DONNA DR #C-3","New Haven","CT",""
5967,"45 DONNA DR #C-4","New Haven","CT",""
5968,"45 DONNA DR #C-5","New Haven","CT",""
5969,"45 DONNA DR #C-6","New Haven","CT",""
5970,"45 DONNA DR #C-7","New Haven","CT",""
5971,"45 DONNA DR #C-8","New Haven","CT",""
5972,"65 DONNA DR #A-2","New Haven","CT",""
5973,"65 DONNA DR #A-3","New Haven","CT",""
5974,"65 DONNA DR #A-4","New Haven","CT",""
5975,"65 DONNA DR #A-5","New Haven","CT",""
5976,"65 DONNA DR #B-1","New Haven","CT",""
5977,"65 DONNA DR #B-2","New Haven","CT",""
5978,"65 DONNA DR #B-3","New Haven","CT",""
5979,"65 DONNA DR #B-4","New Haven","CT",""
5980,"65 DONNA DR #B-5","New Haven","CT",""
5981,"65 DONNA DR #B-6","New Haven","CT",""
5982,"65 DONNA DR #C-1","New Haven","CT",""
5983,"65 DONNA DR #C-2","New Haven","CT",""
5984,"65 DONNA DR #C-3","New Haven","CT",""
5985,"65 DONNA DR #C-4","New Haven","CT",""
5986,"65 DONNA DR #C-5","New Haven","CT",""
5987,"65 DONNA DR #C-6","New Haven","CT",""
5988,"54 BARNES AV #A-1","New Haven","CT",""
5989,"54 BARNES AV #A-2","New Haven","CT",""
5990,"54 BARNES AV #A-3","New Haven","CT",""
5991,"54 BARNES AV #A-4","New Haven","CT",""
5992,"68 BARNES AV #B-1","New Haven","CT",""
5993,"68 BARNES AV #B-2","New Haven","CT",""
5994,"68 BARNES AV #B-3","New Haven","CT",""
5995,"68 BARNES AV #B-4","New Haven","CT",""
5996,"HILLIS ST","New Haven","CT",""
5997,"HILLIS ST","New Haven","CT",""
5998,"26 HILLIS ST","New Haven","CT",""
5999,"MIDDLETOWN AV","New Haven","CT",""
6000,"BARNES AV","New Haven","CT",""
