"pid","location","city","state","zip"
16001,"30 MORRIS ST","New Haven","CT",""
16002,"24 MORRIS ST","New Haven","CT",""
16003,"22 MORRIS ST","New Haven","CT",""
16004,NA,"New Haven","CT",""
16005,"20 MORRIS ST","New Haven","CT",""
16006,"ELLA T GRASSO BLVD","New Haven","CT",""
16007,"330 ELLA T GRASSO BLVD","New Haven","CT",""
16008,"MORRIS ST","New Haven","CT",""
16009,"110 ROSETTE ST","New Haven","CT",""
16010,"106 ROSETTE ST","New Haven","CT",""
16011,"104 ROSETTE ST","New Haven","CT",""
16012,NA,"New Haven","CT",""
16013,"100 ROSETTE ST","New Haven","CT",""
16014,"96 ROSETTE ST","New Haven","CT",""
16015,"60 DEWITT ST","New Haven","CT",""
16016,"56 DEWITT ST","New Haven","CT",""
16017,"54 DEWITT ST","New Haven","CT",""
16018,"46 DEWITT ST","New Haven","CT",""
16019,"42 DEWITT ST","New Haven","CT",""
16020,NA,"New Haven","CT",""
16021,"34 DEWITT ST","New Haven","CT",""
16022,"30 DEWITT ST","New Haven","CT",""
16023,"26 DEWITT ST","New Haven","CT",""
16024,"22 DEWITT ST","New Haven","CT",""
16025,"18 DEWITT ST","New Haven","CT",""
16026,"14 DEWITT ST","New Haven","CT",""
16027,"6 DEWITT ST","New Haven","CT",""
16028,"8 DEWITT ST","New Haven","CT",""
16029,"73 LAMBERTON ST","New Haven","CT",""
16030,"3 ARTHUR ST","New Haven","CT",""
16031,"7 ARTHUR ST","New Haven","CT",""
16032,NA,"New Haven","CT",""
16033,"21 ARTHUR ST","New Haven","CT",""
16034,"33 ARTHUR ST","New Haven","CT",""
16035,"35 ARTHUR ST","New Haven","CT",""
16036,"37 ARTHUR ST","New Haven","CT",""
16037,"39 ARTHUR ST","New Haven","CT",""
16038,"41 ARTHUR ST","New Haven","CT",""
16039,"43 ARTHUR ST","New Haven","CT",""
16040,"45 ARTHUR ST","New Haven","CT",""
16041,"47 ARTHUR ST","New Haven","CT",""
16042,"49 ARTHUR ST","New Haven","CT",""
16043,"51 ARTHUR ST","New Haven","CT",""
16044,"53 ARTHUR ST","New Haven","CT",""
16045,"55 ARTHUR ST","New Haven","CT",""
16046,NA,"New Haven","CT",""
16047,"140 ROSETTE ST","New Haven","CT",""
16048,"136 ROSETTE ST","New Haven","CT",""
16049,"130 ROSETTE ST","New Haven","CT",""
16050,"126 ROSETTE ST","New Haven","CT",""
16051,"124 ROSETTE ST","New Haven","CT",""
16052,"122 ROSETTE ST","New Haven","CT",""
16053,"120 ROSETTE ST","New Haven","CT",""
16054,"58 ARTHUR ST","New Haven","CT",""
16055,"56 ARTHUR ST","New Haven","CT",""
16056,"54 ARTHUR ST","New Haven","CT",""
16057,"52 ARTHUR ST","New Haven","CT",""
16058,"50 ARTHUR ST","New Haven","CT",""
16059,"46 ARTHUR ST","New Haven","CT",""
16060,"44 ARTHUR ST","New Haven","CT",""
16061,"40 ARTHUR ST","New Haven","CT",""
16062,"24 ARTHUR ST","New Haven","CT",""
16063,"22 ARTHUR ST","New Haven","CT",""
16064,"20 ARTHUR ST","New Haven","CT",""
16065,"32 ARTHUR ST","New Haven","CT",""
16066,"18 ARTHUR ST","New Haven","CT",""
16067,"16 ARTHUR ST","New Haven","CT",""
16068,"12 ARTHUR ST","New Haven","CT",""
16069,"8 ARTHUR ST","New Haven","CT",""
16070,"6 ARTHUR ST","New Haven","CT",""
16071,"2 ARTHUR ST","New Haven","CT",""
16072,"91 LAMBERTON ST","New Haven","CT",""
16073,"99 LAMBERTON ST","New Haven","CT",""
16074,"101 LAMBERTON ST","New Haven","CT",""
16075,"103 LAMBERTON ST","New Haven","CT",""
16076,"9 BUTTON ST","New Haven","CT",""
16077,"11 BUTTON ST","New Haven","CT",""
16078,"13 BUTTON ST","New Haven","CT",""
16079,"21 BUTTON ST","New Haven","CT",""
16080,"25 BUTTON ST","New Haven","CT",""
16081,"29 BUTTON ST","New Haven","CT",""
16082,"33 BUTTON ST","New Haven","CT",""
16083,"41 BUTTON ST","New Haven","CT",""
16084,"43 BUTTON ST","New Haven","CT",""
16085,"45 BUTTON ST","New Haven","CT",""
16086,"47 BUTTON ST","New Haven","CT",""
16087,"49 BUTTON ST","New Haven","CT",""
16088,"53 BUTTON ST","New Haven","CT",""
16089,"162 ROSETTE ST","New Haven","CT",""
16090,"160 ROSETTE ST","New Haven","CT",""
16091,"158 ROSETTE ST","New Haven","CT",""
16092,"154 ROSETTE ST","New Haven","CT",""
16093,"148 ROSETTE ST","New Haven","CT",""
16094,"56 BUTTON ST","New Haven","CT",""
16095,"52 BUTTON ST","New Haven","CT",""
16096,"50 BUTTON ST","New Haven","CT",""
16097,"48 BUTTON ST","New Haven","CT",""
16098,"42 BUTTON ST","New Haven","CT",""
16099,"38 BUTTON ST","New Haven","CT",""
16100,"32 BUTTON ST","New Haven","CT",""
16101,"28 BUTTON ST","New Haven","CT",""
16102,"24 BUTTON ST","New Haven","CT",""
16103,"20 BUTTON ST","New Haven","CT",""
16104,"16 BUTTON ST","New Haven","CT",""
16105,"12 BUTTON ST","New Haven","CT",""
16106,"10 BUTTON ST","New Haven","CT",""
16107,"6 BUTTON ST","New Haven","CT",""
16108,"4 BUTTON ST","New Haven","CT",""
16109,"2 BUTTON ST","New Haven","CT",""
16110,"117 LAMBERTON ST","New Haven","CT",""
16111,"121 LAMBERTON ST","New Haven","CT",""
16112,"125 LAMBERTON ST","New Haven","CT",""
16113,"9 HURLBURT ST","New Haven","CT",""
16114,"13 HURLBURT ST","New Haven","CT",""
16115,"15 HURLBURT ST","New Haven","CT",""
16116,"17 HURLBURT ST","New Haven","CT",""
16117,"19 HURLBURT ST","New Haven","CT",""
16118,"23 HURLBURT ST","New Haven","CT",""
16119,"27 HURLBURT ST","New Haven","CT",""
16120,"31 HURLBURT ST","New Haven","CT",""
16121,"35 HURLBURT ST","New Haven","CT",""
16122,"39 HURLBURT ST","New Haven","CT",""
16123,"43 HURLBURT ST","New Haven","CT",""
16124,"47 HURLBURT ST","New Haven","CT",""
16125,"51 HURLBURT ST","New Haven","CT",""
16126,"55 HURLBURT ST","New Haven","CT",""
16127,"59 HURLBURT ST","New Haven","CT",""
16128,"188 ROSETTE ST","New Haven","CT",""
16129,"184 ROSETTE ST","New Haven","CT",""
16130,"180 ROSETTE ST","New Haven","CT",""
16131,"172 ROSETTE ST","New Haven","CT",""
16132,"68 HURLBURT ST","New Haven","CT",""
16133,"64 HURLBURT ST","New Haven","CT",""
16134,"60 HURLBURT ST","New Haven","CT",""
16135,"56 HURLBURT ST","New Haven","CT",""
16136,"52 HURLBURT ST","New Haven","CT",""
16137,"48 HURLBURT ST","New Haven","CT",""
16138,"46 HURLBURT ST","New Haven","CT",""
16139,"44 HURLBURT ST","New Haven","CT",""
16140,"40 HURLBURT ST","New Haven","CT",""
16141,"36 HURLBURT ST","New Haven","CT",""
16142,"32 HURLBURT ST","New Haven","CT",""
16143,"28 HURLBURT ST","New Haven","CT",""
16144,"24 HURLBURT ST","New Haven","CT",""
16145,"20 HURLBURT ST","New Haven","CT",""
16146,"16 HURLBURT ST","New Haven","CT",""
16147,"8 HURLBURT ST","New Haven","CT",""
16148,"4 HURLBURT ST","New Haven","CT",""
16149,"131 LAMBERTON ST","New Haven","CT",""
16150,"135 LAMBERTON ST","New Haven","CT",""
16151,"139 LAMBERTON ST","New Haven","CT",""
16152,"143 LAMBERTON ST","New Haven","CT",""
16153,"147 LAMBERTON ST","New Haven","CT",""
16154,NA,"New Haven","CT",""
16155,NA,"New Haven","CT",""
16156,"15 WILSON ST","New Haven","CT",""
16157,"23 WILSON ST","New Haven","CT",""
16158,"25 WILSON ST","New Haven","CT",""
16159,"27 WILSON ST","New Haven","CT",""
16160,"35 WILSON ST","New Haven","CT",""
16161,"31 WILSON ST","New Haven","CT",""
16162,"37 WILSON ST","New Haven","CT",""
16163,NA,"New Haven","CT",""
16164,"45 WILSON ST","New Haven","CT",""
16165,"47 WILSON ST","New Haven","CT",""
16166,"49 WILSON ST","New Haven","CT",""
16167,"51 WILSON ST","New Haven","CT",""
16168,"59 WILSON ST","New Haven","CT",""
16169,"61 WILSON ST","New Haven","CT",""
16170,"129 MORRIS ST","New Haven","CT",""
16171,"216 ROSETTE ST","New Haven","CT",""
16172,"214 ROSETTE ST","New Haven","CT",""
16173,"212 ROSETTE ST","New Haven","CT",""
16174,"210 ROSETTE ST","New Haven","CT",""
16175,NA,"New Haven","CT",""
16176,"206 ROSETTE ST","New Haven","CT",""
16177,NA,"New Haven","CT",""
16178,"202 ROSETTE ST","New Haven","CT",""
16179,"60 WILSON ST","New Haven","CT",""
16180,"58 WILSON ST","New Haven","CT",""
16181,"56 WILSON ST","New Haven","CT",""
16182,"52 WILSON ST","New Haven","CT",""
16183,"50 WILSON ST","New Haven","CT",""
16184,"48 WILSON ST","New Haven","CT",""
16185,"38 WILSON ST","New Haven","CT",""
16186,"34 WILSON ST","New Haven","CT",""
16187,"26 WILSON ST","New Haven","CT",""
16188,"24 WILSON ST","New Haven","CT",""
16189,"22 WILSON ST","New Haven","CT",""
16190,"20 WILSON ST","New Haven","CT",""
16191,"18 WILSON ST","New Haven","CT",""
16192,"16 WILSON ST","New Haven","CT",""
16193,"157 LAMBERTON ST","New Haven","CT",""
16194,"161 LAMBERTON ST","New Haven","CT",""
16195,"165 LAMBERTON ST","New Haven","CT",""
16196,"171 LAMBERTON ST","New Haven","CT",""
16197,"67 MORRIS ST","New Haven","CT",""
16198,"175 LAMBERTON ST","New Haven","CT",""
16199,"181 LAMBERTON ST","New Haven","CT",""
16200,"65 MORRIS ST","New Haven","CT",""
16201,"71 MORRIS ST","New Haven","CT",""
16202,"73 MORRIS ST","New Haven","CT",""
16203,"75 MORRIS ST","New Haven","CT",""
16204,"79 MORRIS ST","New Haven","CT",""
16205,"81 MORRIS ST","New Haven","CT",""
16206,"85 MORRIS ST","New Haven","CT",""
16207,"91 MORRIS ST","New Haven","CT",""
16208,"97 MORRIS ST","New Haven","CT",""
16209,"101 MORRIS ST","New Haven","CT",""
16210,"103 MORRIS ST","New Haven","CT",""
16211,"105 MORRIS ST","New Haven","CT",""
16212,"111 MORRIS ST","New Haven","CT",""
16213,"113 MORRIS ST","New Haven","CT",""
16214,"123 MORRIS ST","New Haven","CT",""
16215,"127 MORRIS ST","New Haven","CT",""
16216,"742 WASHINGTON AV","New Haven","CT",""
16217,"740 WASHINGTON AV","New Haven","CT",""
16218,"736 WASHINGTON AV","New Haven","CT",""
16219,"734 WASHINGTON AV","New Haven","CT",""
16220,"730 WASHINGTON AV","New Haven","CT",""
16221,"728 WASHINGTON AV","New Haven","CT",""
16222,"WASHINGTON AV","New Haven","CT",""
16223,"724 WASHINGTON AV","New Haven","CT",""
16224,"720 WASHINGTON AV","New Haven","CT",""
16225,"698 WASHINGTON AV","New Haven","CT",""
16226,"132 MORRIS ST","New Haven","CT",""
16227,"128 MORRIS ST","New Haven","CT",""
16228,"122 MORRIS ST","New Haven","CT",""
16229,"118 MORRIS ST","New Haven","CT",""
16230,"116 MORRIS ST","New Haven","CT",""
16231,"108 MORRIS ST","New Haven","CT",""
16232,"106 MORRIS ST","New Haven","CT",""
16233,"102 MORRIS ST","New Haven","CT",""
16234,"98 MORRIS ST","New Haven","CT",""
16235,"96 MORRIS ST","New Haven","CT",""
16236,"90 MORRIS ST","New Haven","CT",""
16237,"84 MORRIS ST","New Haven","CT",""
16238,"82 MORRIS ST","New Haven","CT",""
16239,"76 MORRIS ST","New Haven","CT",""
16240,"74 MORRIS ST","New Haven","CT",""
16241,"72 MORRIS ST","New Haven","CT",""
16242,"70 MORRIS ST","New Haven","CT",""
16243,"191 LAMBERTON ST","New Haven","CT",""
16244,"197 LAMBERTON ST","New Haven","CT",""
16245,"201 LAMBERTON ST","New Haven","CT",""
16246,"174 SPRING ST","New Haven","CT",""
16247,"172 SPRING ST","New Haven","CT",""
16248,"170 SPRING ST","New Haven","CT",""
16249,"168 SPRING ST","New Haven","CT",""
16250,"164 SPRING ST","New Haven","CT",""
16251,"162 SPRING ST","New Haven","CT",""
16252,"160 SPRING ST #A","New Haven","CT",""
16253,"160 SPRING ST #B","New Haven","CT",""
16254,"160 SPRING ST #C","New Haven","CT",""
16255,"160 SPRING ST #D","New Haven","CT",""
16256,"160 SPRING ST","New Haven","CT",""
16257,"158 SPRING ST","New Haven","CT",""
16258,"156 SPRING ST","New Haven","CT",""
16259,"94 DEWITT ST","New Haven","CT",""
16260,"92 DEWITT ST","New Haven","CT",""
16261,"90 DEWITT ST","New Haven","CT",""
16262,"88 DEWITT ST","New Haven","CT",""
16263,"84 DEWITT ST","New Haven","CT",""
16264,"95 ROSETTE ST","New Haven","CT",""
16265,"95 ROSETTE ST","New Haven","CT",""
16266,"101 ROSETTE ST","New Haven","CT",""
16267,"105 ROSETTE ST","New Haven","CT",""
16268,"107 ROSETTE ST","New Haven","CT",""
16269,"111 ROSETTE ST","New Haven","CT",""
16270,NA,"New Haven","CT",""
16271,"117 ROSETTE ST","New Haven","CT",""
16272,"121 ROSETTE ST","New Haven","CT",""
16273,"123 ROSETTE ST","New Haven","CT",""
16274,"125 ROSETTE ST","New Haven","CT",""
16275,"129 ROSETTE ST","New Haven","CT",""
16276,"133 ROSETTE ST","New Haven","CT",""
16277,"137 ROSETTE ST","New Haven","CT",""
16278,"139 ROSETTE ST","New Haven","CT",""
16279,"87 BUTTON ST","New Haven","CT",""
16280,"200 SPRING ST","New Haven","CT",""
16281,"198 SPRING ST","New Haven","CT",""
16282,"196 SPRING ST","New Haven","CT",""
16283,"194 SPRING ST","New Haven","CT",""
16284,"192 SPRING ST","New Haven","CT",""
16285,"190 SPRING ST","New Haven","CT",""
16286,"88 BUTTON ST","New Haven","CT",""
16287,"86 BUTTON ST","New Haven","CT",""
16288,"149 ROSETTE ST","New Haven","CT",""
16289,"151 ROSETTE ST","New Haven","CT",""
16290,"155 ROSETTE ST","New Haven","CT",""
16291,"159 ROSETTE ST","New Haven","CT",""
16292,"161 ROSETTE ST","New Haven","CT",""
16293,"165 ROSETTE ST","New Haven","CT",""
16294,"87 HURLBURT ST","New Haven","CT",""
16295,"89 HURLBURT ST","New Haven","CT",""
16296,"670 WASHINGTON AV","New Haven","CT",""
16297,"252 SPRING ST","New Haven","CT",""
16298,"250 SPRING ST","New Haven","CT",""
16299,"246 SPRING ST","New Haven","CT",""
16300,"242 SPRING ST","New Haven","CT",""
16301,"216 SPRING ST","New Haven","CT",""
16302,"214 SPRING ST","New Haven","CT",""
16303,"212 SPRING ST","New Haven","CT",""
16304,"206 SPRING ST","New Haven","CT",""
16305,"202 SPRING ST","New Haven","CT",""
16306,"92 HURLBURT ST","New Haven","CT",""
16307,"88 HURLBURT ST","New Haven","CT",""
16308,"84 HURLBURT ST","New Haven","CT",""
16309,"173 ROSETTE ST","New Haven","CT",""
16310,"177 ROSETTE ST","New Haven","CT",""
16311,"179 ROSETTE ST","New Haven","CT",""
16312,"185 ROSETTE ST","New Haven","CT",""
16313,"189 ROSETTE ST","New Haven","CT",""
16314,"193 ROSETTE ST","New Haven","CT",""
16315,"ROSETTE ST","New Haven","CT",""
16316,"199 ROSETTE ST","New Haven","CT",""
16317,"203 ROSETTE ST","New Haven","CT",""
16318,"207 ROSETTE ST","New Haven","CT",""
16319,"211 ROSETTE ST","New Haven","CT",""
16320,"215 ROSETTE ST","New Haven","CT",""
16321,"223 ROSETTE ST","New Haven","CT",""
16322,"227 ROSETTE ST","New Haven","CT",""
16323,"690 WASHINGTON AV","New Haven","CT",""
16324,"476 HOWARD AV","New Haven","CT",""
16325,"470 HOWARD AV","New Haven","CT",""
16326,"466 HOWARD AV","New Haven","CT",""
16327,"460 HOWARD AV","New Haven","CT",""
16328,"456 HOWARD AV","New Haven","CT",""
16329,"61 ROSETTE ST","New Haven","CT",""
16330,"71 ROSETTE ST","New Haven","CT",""
16331,"73 ROSETTE ST","New Haven","CT",""
16332,"75 ROSETTE ST","New Haven","CT",""
16333,"91 ROSETTE ST","New Haven","CT",""
16334,"138 SPRING ST","New Haven","CT",""
16335,"134 SPRING ST","New Haven","CT",""
16336,"132 SPRING ST","New Haven","CT",""
16337,"128 SPRING ST","New Haven","CT",""
16338,"126 SPRING ST","New Haven","CT",""
16339,"124 SPRING ST","New Haven","CT",""
16340,"140 DEWITT ST","New Haven","CT",""
16341,"124 DEWITT ST","New Haven","CT",""
16342,"120 DEWITT ST","New Haven","CT",""
16343,"116 DEWITT ST","New Haven","CT",""
16344,"110 DEWITT ST","New Haven","CT",""
16345,"108 DEWITT ST","New Haven","CT",""
16346,"106 DEWITT ST","New Haven","CT",""
16347,"102 DEWITT ST","New Haven","CT",""
16348,"155 SPRING ST","New Haven","CT",""
16349,"157 SPRING ST","New Haven","CT",""
16350,"159 SPRING ST","New Haven","CT",""
16351,"161 SPRING ST","New Haven","CT",""
16352,"163 SPRING ST","New Haven","CT",""
16353,"165 SPRING ST","New Haven","CT",""
16354,"167 SPRING ST","New Haven","CT",""
16355,"169 SPRING ST","New Haven","CT",""
16356,"171 SPRING ST","New Haven","CT",""
16357,"111 BUTTON ST","New Haven","CT",""
16358,"115 BUTTON ST","New Haven","CT",""
16359,"117 BUTTON ST","New Haven","CT",""
16360,"123 BUTTON ST","New Haven","CT",""
16361,"518 HOWARD AV","New Haven","CT",""
16362,NA,"New Haven","CT",""
16363,"506 HOWARD AV","New Haven","CT",""
16364,"498 HOWARD AV","New Haven","CT",""
16365,"494 HOWARD AV","New Haven","CT",""
16366,"490 HOWARD AV","New Haven","CT",""
16367,"486 HOWARD AV","New Haven","CT",""
16368,"121 SPRING ST","New Haven","CT",""
16369,"123 SPRING ST","New Haven","CT",""
16370,"125 SPRING ST","New Haven","CT",""
16371,"127 SPRING ST","New Haven","CT",""
16372,"129 SPRING ST","New Haven","CT",""
16373,"131 SPRING ST","New Haven","CT",""
16374,"133 SPRING ST","New Haven","CT",""
16375,"135 SPRING ST","New Haven","CT",""
16376,"111 DEWITT ST","New Haven","CT",""
16377,"113 DEWITT ST","New Haven","CT",""
16378,"115 DEWITT ST","New Haven","CT",""
16379,"117 DEWITT ST","New Haven","CT",""
16380,"119 DEWITT ST","New Haven","CT",""
16381,"121 DEWITT ST","New Haven","CT",""
16382,"125 DEWITT ST","New Haven","CT",""
16383,"206 PUTNAM ST","New Haven","CT",""
16384,"198 PUTNAM ST","New Haven","CT",""
16385,"196 PUTNAM ST","New Haven","CT",""
16386,"184 PUTNAM ST","New Haven","CT",""
16387,"180 PUTNAM ST","New Haven","CT",""
16388,"578 HOWARD AV","New Haven","CT",""
16389,"574 HOWARD AV","New Haven","CT",""
16390,"570 HOWARD AV","New Haven","CT",""
16391,"564 HOWARD AV","New Haven","CT",""
16392,"560 HOWARD AV","New Haven","CT",""
16393,"556 HOWARD AV","New Haven","CT",""
16394,"552 HOWARD AV","New Haven","CT",""
16395,"550 HOWARD AV","New Haven","CT",""
16396,"544 HOWARD AV","New Haven","CT",""
16397,"538 HOWARD AV","New Haven","CT",""
16398,"534 HOWARD AV","New Haven","CT",""
16399,"530 HOWARD AV","New Haven","CT",""
16400,"181 PUTNAM ST","New Haven","CT",""
16401,"185 PUTNAM ST","New Haven","CT",""
16402,"189 PUTNAM ST","New Haven","CT",""
16403,"193 PUTNAM ST","New Haven","CT",""
16404,"197 PUTNAM ST","New Haven","CT",""
16405,"201 PUTNAM ST","New Haven","CT",""
16406,NA,"New Haven","CT",""
16407,"145 DEWITT ST","New Haven","CT",""
16408,"360 COLUMBUS AV","New Haven","CT",""
16409,"588 HOWARD AV","New Haven","CT",""
16410,"261 PORTSEA ST","New Haven","CT",""
16411,"267 PORTSEA ST","New Haven","CT",""
16412,"269 PORTSEA ST","New Haven","CT",""
16413,"271 PORTSEA ST","New Haven","CT",""
16414,"273 PORTSEA ST","New Haven","CT",""
16415,"275 PORTSEA ST","New Haven","CT",""
16416,"277 PORTSEA ST","New Haven","CT",""
16417,"279 PORTSEA ST","New Haven","CT",""
16418,"281 PORTSEA ST","New Haven","CT",""
16419,"420 CONGRESS AV","New Haven","CT",""
16420,"430 CONGRESS AV","New Haven","CT",""
16421,NA,"New Haven","CT",""
16422,"690 HOWARD AV","New Haven","CT",""
16423,"HOWARD AV","New Haven","CT",""
16424,"680 HOWARD AV","New Haven","CT",""
16425,"672 HOWARD AV","New Haven","CT",""
16426,"289 WASHINGTON AV","New Haven","CT",""
16427,"299 WASHINGTON AV","New Haven","CT",""
16428,"307 WASHINGTON AV","New Haven","CT",""
16429,"9 DAGGETT ST","New Haven","CT",""
16430,"13 DAGGETT ST","New Haven","CT",""
16431,"17 DAGGETT ST","New Haven","CT",""
16432,"27 DAGGETT ST","New Haven","CT",""
16433,"31 DAGGETT ST","New Haven","CT",""
16434,"69 DAGGETT ST","New Haven","CT",""
16435,"514 CONGRESS AV","New Haven","CT",""
16436,"500 CONGRESS AV","New Haven","CT",""
16437,"660 HOWARD AV","New Haven","CT",""
16438,"644 HOWARD AV","New Haven","CT",""
16439,"640 HOWARD AV","New Haven","CT",""
16440,"634 HOWARD AV","New Haven","CT",""
16441,"630 HOWARD AV","New Haven","CT",""
16442,"626 HOWARD AV","New Haven","CT",""
16443,"622 HOWARD AV","New Haven","CT",""
16444,NA,"New Haven","CT",""
16445,"295 COLUMBUS AV","New Haven","CT",""
16446,NA,"New Haven","CT",""
16447,"307 COLUMBUS AV","New Haven","CT",""
16448,"350 WASHINGTON AV","New Haven","CT",""
16449,"338 WASHINGTON AV","New Haven","CT",""
16450,"332 WASHINGTON AV","New Haven","CT",""
16451,"326 WASHINGTON AV","New Haven","CT",""
16452,"226 CEDAR ST","New Haven","CT",""
16453,"229 COLUMBUS AV","New Haven","CT",""
16454,"219 COLUMBUS AV","New Haven","CT",""
16455,"225 COLUMBUS AV","New Haven","CT",""
16456,"233 COLUMBUS AV","New Haven","CT",""
16457,"237 COLUMBUS AV","New Haven","CT",""
16458,"241 COLUMBUS AV","New Haven","CT",""
16459,"245 COLUMBUS AV","New Haven","CT",""
16460,"249 COLUMBUS AV","New Haven","CT",""
16461,"257 COLUMBUS AV","New Haven","CT",""
16462,"261 COLUMBUS AV","New Haven","CT",""
16463,"619 HOWARD AV","New Haven","CT",""
16464,"627 HOWARD AV","New Haven","CT",""
16465,"633 HOWARD AV","New Haven","CT",""
16466,"MINOR ST","New Haven","CT",""
16467,"637 HOWARD AV","New Haven","CT",""
16468,"154 MINOR ST","New Haven","CT",""
16469,"134 MINOR ST","New Haven","CT",""
16470,"128 MINOR ST","New Haven","CT",""
16471,"124 MINOR ST","New Haven","CT",""
16472,NA,"New Haven","CT",""
16473,"156 WASHINGTON AV","New Haven","CT",""
16474,"250 CEDAR ST","New Haven","CT",""
16475,"232 CEDAR ST","New Haven","CT",""
16476,"149 MINOR ST","New Haven","CT",""
16477,"649 HOWARD AV","New Haven","CT",""
16478,"169 WASHINGTON AV","New Haven","CT",""
16479,"225 WASHINGTON AV","New Haven","CT",""
16480,"691 HOWARD AV","New Haven","CT",""
16481,"701 HOWARD AV","New Haven","CT",""
16482,"40 GILBERT ST","New Haven","CT",""
16483,"370 CONGRESS AV","New Haven","CT",""
16484,"156 DAVENPORT AV","New Haven","CT",""
16485,NA,"New Haven","CT",""
16486,NA,"New Haven","CT",""
16487,NA,"New Haven","CT",""
16488,NA,"New Haven","CT",""
16489,NA,"New Haven","CT",""
16490,NA,"New Haven","CT",""
16491,NA,"New Haven","CT",""
16492,NA,"New Haven","CT",""
16493,NA,"New Haven","CT",""
16494,NA,"New Haven","CT",""
16495,NA,"New Haven","CT",""
16496,NA,"New Haven","CT",""
16497,NA,"New Haven","CT",""
16498,NA,"New Haven","CT",""
16499,NA,"New Haven","CT",""
16500,NA,"New Haven","CT",""
16501,NA,"New Haven","CT",""
16502,NA,"New Haven","CT",""
16503,NA,"New Haven","CT",""
16504,NA,"New Haven","CT",""
16505,NA,"New Haven","CT",""
16506,NA,"New Haven","CT",""
16507,NA,"New Haven","CT",""
16508,"33 ASYLUM ST","New Haven","CT",""
16509,"168 DAVENPORT AV","New Haven","CT",""
16510,"166 DAVENPORT AV","New Haven","CT",""
16511,"162 DAVENPORT AV","New Haven","CT",""
16512,"130 DAVENPORT AV","New Haven","CT",""
16513,"28 VERNON ST","New Haven","CT",""
16514,"26 VERNON ST","New Haven","CT",""
16515,"22 VERNON ST","New Haven","CT",""
16516,"20 VERNON ST","New Haven","CT",""
16517,"16 VERNON ST","New Haven","CT",""
16518,"14 VERNON ST","New Haven","CT",""
16519,"12 VERNON ST","New Haven","CT",""
16520,"8 VERNON ST","New Haven","CT",""
16521,"495 CONGRESS AV","New Haven","CT",""
16522,"517 CONGRESS AV","New Haven","CT",""
16523,"21 WARD ST","New Haven","CT",""
16524,"23 WARD ST","New Haven","CT",""
16525,"33 WARD ST","New Haven","CT",""
16526,"37 WARD ST","New Haven","CT",""
16527,"43 WARD ST","New Haven","CT",""
16528,"47 WARD ST","New Haven","CT",""
16529,"53 WARD ST","New Haven","CT",""
16530,"148 DAVENPORT AV","New Haven","CT",""
16531,"146 DAVENPORT AV","New Haven","CT",""
16532,"138 DAVENPORT AV","New Haven","CT",""
16533,"134 DAVENPORT AV","New Haven","CT",""
16534,"800 HOWARD AV","New Haven","CT",""
16535,"780 HOWARD AV","New Haven","CT",""
16536,"760 HOWARD AV","New Haven","CT",""
16537,"457 CONGRESS AV","New Haven","CT",""
16538,"CONGRESS AV","New Haven","CT",""
16539,"463 CONGRESS AV","New Haven","CT",""
16540,"VERNON ST","New Haven","CT",""
16541,"11 VERNON ST","New Haven","CT",""
16542,"15 VERNON ST","New Haven","CT",""
16543,"17 VERNON ST","New Haven","CT",""
16544,"19 VERNON ST","New Haven","CT",""
16545,"23 VERNON ST","New Haven","CT",""
16546,"VERNON ST","New Haven","CT",""
16547,"27 VERNON ST","New Haven","CT",""
16548,"122 DAVENPORT AV","New Haven","CT",""
16549,"116 DAVENPORT AV","New Haven","CT",""
16550,"112 DAVENPORT AV","New Haven","CT",""
16551,NA,"New Haven","CT",""
16552,"48 SYLVAN AV","New Haven","CT",""
16553,"46 SYLVAN AV","New Haven","CT",""
16554,NA,"New Haven","CT",""
16555,NA,"New Haven","CT",""
16556,NA,"New Haven","CT",""
16557,"169 DAVENPORT AV","New Haven","CT",""
16558,"65 ASYLUM ST","New Haven","CT",""
16559,"69 ASYLUM ST","New Haven","CT",""
16560,"73 ASYLUM ST","New Haven","CT",""
16561,NA,"New Haven","CT",""
16562,NA,"New Haven","CT",""
16563,NA,"New Haven","CT",""
16564,NA,"New Haven","CT",""
16565,NA,"New Haven","CT",""
16566,NA,"New Haven","CT",""
16567,NA,"New Haven","CT",""
16568,"24 SYLVAN AV","New Haven","CT",""
16569,"58 VERNON ST","New Haven","CT",""
16570,NA,"New Haven","CT",""
16571,"56 VERNON ST","New Haven","CT",""
16572,"54 VERNON ST","New Haven","CT",""
16573,"52 VERNON ST","New Haven","CT",""
16574,"48 VERNON ST","New Haven","CT",""
16575,"46 VERNON ST","New Haven","CT",""
16576,"44 VERNON ST","New Haven","CT",""
16577,"42 VERNON ST","New Haven","CT",""
16578,"40 VERNON ST","New Haven","CT",""
16579,"38 VERNON ST","New Haven","CT",""
16580,"36 VERNON ST","New Haven","CT",""
16581,"34 VERNON ST","New Haven","CT",""
16582,"127 DAVENPORT AV","New Haven","CT",""
16583,"133 DAVENPORT AV","New Haven","CT",""
16584,"135 DAVENPORT AV","New Haven","CT",""
16585,"143 DAVENPORT AV","New Haven","CT",""
16586,"145 DAVENPORT AV","New Haven","CT",""
16587,"85 WARD ST","New Haven","CT",""
16588,"89 WARD ST","New Haven","CT",""
16589,"93 WARD ST","New Haven","CT",""
16590,"97 WARD ST","New Haven","CT",""
16591,"101 WARD ST","New Haven","CT",""
16592,"105 WARD ST","New Haven","CT",""
16593,"109 WARD ST","New Haven","CT",""
16594,"113 WARD ST","New Haven","CT",""
16595,"117 WARD ST","New Haven","CT",""
16596,"121 WARD ST","New Haven","CT",""
16597,"127 WARD ST","New Haven","CT",""
16598,"131 WARD ST","New Haven","CT",""
16599,"135 WARD ST","New Haven","CT",""
16600,"34 SYLVAN AV","New Haven","CT",""
16601,"32 SYLVAN AV","New Haven","CT",""
16602,"30 SYLVAN AV","New Haven","CT",""
16603,"28 SYLVAN AV","New Haven","CT",""
16604,"886 HOWARD AV","New Haven","CT",""
16605,"878 HOWARD AV","New Haven","CT",""
16606,NA,"New Haven","CT",""
16607,"860 HOWARD AV","New Haven","CT",""
16608,NA,"New Haven","CT",""
16609,"850 HOWARD AV","New Haven","CT",""
16610,"846 HOWARD AV","New Haven","CT",""
16611,"842 HOWARD AV","New Haven","CT",""
16612,"840 HOWARD AV","New Haven","CT",""
16613,"836 HOWARD AV","New Haven","CT",""
16614,"HOWARD AV","New Haven","CT",""
16615,"99 DAVENPORT AV","New Haven","CT",""
16616,"103 DAVENPORT AV","New Haven","CT",""
16617,"109 DAVENPORT AV","New Haven","CT",""
16618,"111 DAVENPORT AV","New Haven","CT",""
16619,"117 DAVENPORT AV","New Haven","CT",""
16620,"119 DAVENPORT AV","New Haven","CT",""
16621,"31 VERNON ST","New Haven","CT",""
16622,"35 VERNON ST","New Haven","CT",""
16623,"37 VERNON ST","New Haven","CT",""
16624,"41 VERNON ST","New Haven","CT",""
16625,"43 VERNON ST","New Haven","CT",""
16626,"45 VERNON ST","New Haven","CT",""
16627,"47 VERNON ST","New Haven","CT",""
16628,"49 VERNON ST","New Haven","CT",""
16629,"51 VERNON ST","New Haven","CT",""
16630,"55 VERNON ST","New Haven","CT",""
16631,"14 SYLVAN AV","New Haven","CT",""
16632,"8 SYLVAN AV","New Haven","CT",""
16633,"367 CEDAR ST","New Haven","CT",""
16634,"1 PARK ST","New Haven","CT",""
16635,"10 YORK ST","New Haven","CT",""
16636,"34 PARK ST","New Haven","CT",""
16637,"OAK ST","New Haven","CT",""
16638,"8 PARK ST","New Haven","CT",""
16639,"318 OAK ST","New Haven","CT",""
16640,"17 PARK ST","New Haven","CT",""
16641,"30 YORK ST","New Haven","CT",""
16642,"1 HOWE ST","New Haven","CT",""
16643,NA,"New Haven","CT",""
16644,"454 GEORGE ST","New Haven","CT",""
16645,"442 GEORGE ST","New Haven","CT",""
16646,"438 GEORGE ST","New Haven","CT",""
16647,"434 GEORGE ST","New Haven","CT",""
16648,"430 GEORGE ST","New Haven","CT",""
16649,"426 GEORGE ST","New Haven","CT",""
16650,"424 GEORGE ST","New Haven","CT",""
16651,"104 PARK ST","New Haven","CT",""
16652,"98 PARK ST","New Haven","CT",""
16653,"84 PARK ST","New Haven","CT",""
16654,"17 HOWE ST","New Haven","CT",""
16655,"19 HOWE ST","New Haven","CT",""
16656,"45 HOWE ST","New Haven","CT",""
16657,"402 CROWN ST","New Haven","CT",""
16658,"400 CROWN ST","New Haven","CT",""
16659,"392 CROWN ST","New Haven","CT",""
16660,"386 CROWN ST","New Haven","CT",""
16661,"382 CROWN ST","New Haven","CT",""
16662,"380 CROWN ST","New Haven","CT",""
16663,"378 CROWN ST","New Haven","CT",""
16664,"374 CROWN ST","New Haven","CT",""
16665,"370 CROWN ST","New Haven","CT",""
16666,"134 PARK ST","New Haven","CT",""
16667,"130 PARK ST","New Haven","CT",""
16668,"421 GEORGE ST","New Haven","CT",""
16669,"425 GEORGE ST","New Haven","CT",""
16670,"445 GEORGE ST","New Haven","CT",""
16671,"447 GEORGE ST","New Haven","CT",""
16672,"451 GEORGE ST","New Haven","CT",""
16673,"455 GEORGE ST","New Haven","CT",""
16674,"33 HOWE ST","New Haven","CT",""
16675,"37 HOWE ST","New Haven","CT",""
16676,"39 HOWE ST","New Haven","CT",""
16677,"41 HOWE ST","New Haven","CT",""
16678,"49 HOWE ST","New Haven","CT",""
16679,"1226 CHAPEL ST","New Haven","CT",""
16680,"1220 CHAPEL ST","New Haven","CT",""
16681,"1214 CHAPEL ST","New Haven","CT",""
16682,"1210 CHAPEL ST","New Haven","CT",""
16683,"1204 CHAPEL ST","New Haven","CT",""
16684,"1198 CHAPEL ST","New Haven","CT",""
16685,"1184 CHAPEL ST","New Haven","CT",""
16686,"PARK ST","New Haven","CT",""
16687,"1182 CHAPEL ST","New Haven","CT",""
16688,"1180 CHAPEL ST","New Haven","CT",""
16689,"174 PARK ST","New Haven","CT",""
16690,"170 PARK ST","New Haven","CT",""
16691,"166 PARK ST","New Haven","CT",""
16692,"162 PARK ST","New Haven","CT",""
16693,"371 CROWN ST","New Haven","CT",""
16694,"377 CROWN ST","New Haven","CT",""
16695,"379 CROWN ST","New Haven","CT",""
16696,"387 CROWN ST","New Haven","CT",""
16697,"391 CROWN ST","New Haven","CT",""
16698,"395 CROWN ST","New Haven","CT",""
16699,"397 CROWN ST","New Haven","CT",""
16700,"401 CROWN ST","New Haven","CT",""
16701,"363 CROWN ST","New Haven","CT",""
16702,"155 PARK ST","New Haven","CT",""
16703,"161 PARK ST","New Haven","CT",""
16704,"165 PARK ST","New Haven","CT",""
16705,"169 PARK ST","New Haven","CT",""
16706,"173 PARK ST","New Haven","CT",""
16707,"177 PARK ST","New Haven","CT",""
16708,"1174 CHAPEL ST","New Haven","CT",""
16709,"1170 CHAPEL ST","New Haven","CT",""
16710,"1166 CHAPEL ST","New Haven","CT",""
16711,"1156 CHAPEL ST","New Haven","CT",""
16712,"150 YORK ST","New Haven","CT",""
16713,"150 YORK ST","New Haven","CT",""
16714,"1150 CHAPEL ST","New Haven","CT",""
16715,"1144 CHAPEL ST","New Haven","CT",""
16716,"1142 CHAPEL ST","New Haven","CT",""
16717,"1126 CHAPEL ST","New Haven","CT",""
16718,"170 YORK ST","New Haven","CT",""
16719,"168 YORK ST","New Haven","CT",""
16720,"166 YORK ST","New Haven","CT",""
16721,"148 YORK ST","New Haven","CT",""
16722,"146 YORK ST","New Haven","CT",""
16723,"142 YORK ST","New Haven","CT",""
16724,"321 CROWN ST","New Haven","CT",""
16725,"333 CROWN ST","New Haven","CT",""
16726,"337 CROWN ST","New Haven","CT",""
16727,"341 CROWN ST","New Haven","CT",""
16728,"353 CROWN ST","New Haven","CT",""
16729,"359 CROWN ST","New Haven","CT",""
16730,"1217 CHAPEL ST","New Haven","CT",""
16731,"65 HOWE ST","New Haven","CT",""
16732,NA,"New Haven","CT",""
16733,NA,"New Haven","CT",""
16734,NA,"New Haven","CT",""
16735,NA,"New Haven","CT",""
16736,NA,"New Haven","CT",""
16737,NA,"New Haven","CT",""
16738,"85 HOWE ST","New Haven","CT",""
16739,"87 HOWE ST","New Haven","CT",""
16740,"89 HOWE ST","New Haven","CT",""
16741,"38 EDGEWOOD AV","New Haven","CT",""
16742,NA,"New Haven","CT",""
16743,NA,"New Haven","CT",""
16744,NA,"New Haven","CT",""
16745,NA,"New Haven","CT",""
16746,NA,"New Haven","CT",""
16747,"16 EDGEWOOD AV","New Haven","CT",""
16748,"12 EDGEWOOD AV","New Haven","CT",""
16749,"228 PARK ST","New Haven","CT",""
16750,"210 PARK ST","New Haven","CT",""
16751,"PARK ST","New Haven","CT",""
16752,"206 PARK ST","New Haven","CT",""
16753,"202 PARK ST","New Haven","CT",""
16754,"PARK ST","New Haven","CT",""
16755,"196 PARK ST","New Haven","CT",""
16756,"1179 CHAPEL ST","New Haven","CT",""
16757,"1187 CHAPEL ST","New Haven","CT",""
16758,"1191 CHAPEL ST","New Haven","CT",""
16759,"1195 CHAPEL ST","New Haven","CT",""
16760,NA,"New Haven","CT",""
16761,NA,"New Haven","CT",""
16762,NA,"New Haven","CT",""
16763,"1201 CHAPEL ST","New Haven","CT",""
16764,"32 EDGEWOOD AV","New Haven","CT",""
16765,"1203 CHAPEL ST","New Haven","CT",""
16766,"1171 CHAPEL ST","New Haven","CT",""
16767,"201 PARK ST","New Haven","CT",""
16768,"205 PARK ST","New Haven","CT",""
16769,"205 PARK ST","New Haven","CT",""
16770,"213 PARK ST","New Haven","CT",""
16771,"217 PARK ST","New Haven","CT",""
16772,"225 PARK ST","New Haven","CT",""
16773,"YORK ST","New Haven","CT",""
16774,"YORK ST","New Haven","CT",""
16775,"256 YORK ST","New Haven","CT",""
16776,"240 YORK ST","New Haven","CT",""
16777,"316 ELM ST","New Haven","CT",""
16778,"310 ELM ST","New Haven","CT",""
16779,"296 ELM ST","New Haven","CT",""
16780,"304 ELM ST","New Haven","CT",""
16781,"272 ELM ST","New Haven","CT",""
16782,"260 ELM ST","New Haven","CT",""
16783,"266 YORK ST","New Haven","CT",""
16784,"264 YORK ST","New Haven","CT",""
16785,"ELM ST","New Haven","CT",""
16786,"260 YORK ST","New Haven","CT",""
16787,"232 YORK ST","New Haven","CT",""
16788,"224 YORK ST","New Haven","CT",""
16789,"214 YORK ST","New Haven","CT",""
16790,"220 YORK ST","New Haven","CT",""
16791,"212 YORK ST","New Haven","CT",""
16792,"204 YORK ST","New Haven","CT",""
16793,"215 PARK ST","New Haven","CT",""
16794,"YORK ST","New Haven","CT",""
16795,"202 YORK ST","New Haven","CT",""
16796,"200 YORK ST","New Haven","CT",""
16797,"194 YORK ST","New Haven","CT",""
16798,"182 YORK ST","New Haven","CT",""
16799,"1145 CHAPEL ST","New Haven","CT",""
16800,"1151 CHAPEL ST","New Haven","CT",""
16801,"1157 CHAPEL ST","New Haven","CT",""
16802,"PARK ST","New Haven","CT",""
16803,"91 HOWE ST","New Haven","CT",""
16804,"95 HOWE ST","New Haven","CT",""
16805,"97 HOWE ST","New Haven","CT",""
16806,"101 HOWE ST","New Haven","CT",""
16807,"103 HOWE ST","New Haven","CT",""
16808,"105 HOWE ST","New Haven","CT",""
16809,"107 HOWE ST","New Haven","CT",""
16810,"109 HOWE ST","New Haven","CT",""
16811,"111 HOWE ST","New Haven","CT",""
16812,"115 HOWE ST","New Haven","CT",""
16813,"372 ELM ST","New Haven","CT",""
16814,"366 ELM ST","New Haven","CT",""
16815,"362 ELM ST","New Haven","CT",""
16816,"356 ELM ST","New Haven","CT",""
16817,"40 LYNWOOD PL","New Haven","CT",""
16818,"36 LYNWOOD PL","New Haven","CT",""
16819,"34 LYNWOOD PL","New Haven","CT",""
16820,"28 LYNWOOD PL","New Haven","CT",""
16821,"26 LYNWOOD PL","New Haven","CT",""
16822,"22 LYNWOOD PL","New Haven","CT",""
16823,"18 LYNWOOD PL","New Haven","CT",""
16824,"16 LYNWOOD PL","New Haven","CT",""
16825,"27 EDGEWOOD AV","New Haven","CT",""
16826,"33 EDGEWOOD AV","New Haven","CT",""
16827,"37 EDGEWOOD AV","New Haven","CT",""
16828,"21 EDGEWOOD AV","New Haven","CT",""
16829,"19 LYNWOOD PL","New Haven","CT",""
16830,"21 LYNWOOD PL","New Haven","CT",""
16831,"23 LYNWOOD PL","New Haven","CT",""
16832,"25 LYNWOOD PL","New Haven","CT",""
16833,"33 LYNWOOD PL","New Haven","CT",""
16834,"35 LYNWOOD PL","New Haven","CT",""
16835,"37 LYNWOOD PL","New Haven","CT",""
16836,"350 ELM ST","New Haven","CT",""
16837,"348 ELM ST","New Haven","CT",""
16838,"344 ELM ST","New Haven","CT",""
16839,"340 ELM ST","New Haven","CT",""
16840,"338 ELM ST","New Haven","CT",""
16841,"278 PARK ST","New Haven","CT",""
16842,"274 PARK ST","New Haven","CT",""
16843,"272 PARK ST","New Haven","CT",""
16844,"268 PARK ST","New Haven","CT",""
16845,"260 PARK ST","New Haven","CT",""
16846,"248 PARK ST","New Haven","CT",""
16847,"246 PARK ST","New Haven","CT",""
16848,"234 PARK ST","New Haven","CT",""
16849,"15 EDGEWOOD AV","New Haven","CT",""
16850,"15 EDGEWOOD AV","New Haven","CT",""
16851,"17 EDGEWOOD AV","New Haven","CT",""
16852,"371 ELM ST","New Haven","CT",""
16853,"127 HOWE ST","New Haven","CT",""
16854,"129 HOWE ST","New Haven","CT",""
16855,"131 HOWE ST","New Haven","CT",""
16856,"100 BROADWAY","New Haven","CT",""
16857,"90 BROADWAY","New Haven","CT",""
16858,"ELM ST","New Haven","CT",""
16859,"88 BROADWAY","New Haven","CT",""
16860,"ELM ST","New Haven","CT",""
16861,"357 ELM ST","New Haven","CT",""
16862,"84 BROADWAY","New Haven","CT",""
16863,"BROADWAY","New Haven","CT",""
16864,"80 BROADWAY","New Haven","CT",""
16865,"70 BROADWAY","New Haven","CT",""
16866,"343 ELM ST","New Haven","CT",""
16867,"345 ELM ST","New Haven","CT",""
16868,"349 ELM ST","New Haven","CT",""
16869,"361 ELM ST","New Haven","CT",""
16870,"367 ELM ST","New Haven","CT",""
16871,"78 ASHMUN ST","New Haven","CT",""
16872,"74 ASHMUN ST","New Haven","CT",""
16873,"68 ASHMUN ST","New Haven","CT",""
16874,"64 ASHMUN ST","New Haven","CT",""
16875,"60 ASHMUN ST","New Haven","CT",""
16876,"50 ASHMUN ST","New Haven","CT",""
16877,"90 YORK SQUARE PL","New Haven","CT",""
16878,"70 YORK SQUARE PL","New Haven","CT",""
16879,"9 DIXWELL AV","New Haven","CT",""
16880,"17 DIXWELL AV","New Haven","CT",""
16881,"27 DIXWELL AV","New Haven","CT",""
16882,"10 LAKE PL","New Haven","CT",""
16883,"WEBSTER ST","New Haven","CT",""
16884,"45 BRISTOL ST","New Haven","CT",""
16885,"65 BRISTOL ST","New Haven","CT",""
16886,"67 BRISTOL ST","New Haven","CT",""
16887,"69 BRISTOL ST","New Haven","CT",""
16888,"71 BRISTOL ST","New Haven","CT",""
16889,"73 BRISTOL ST","New Haven","CT",""
16890,"77 BRISTOL ST","New Haven","CT",""
16891,"79 BRISTOL ST","New Haven","CT",""
16892,"85 BRISTOL ST","New Haven","CT",""
16893,"89 BRISTOL ST","New Haven","CT",""
16894,"91 BRISTOL ST","New Haven","CT",""
16895,"97 BRISTOL ST","New Haven","CT",""
16896,"101 BRISTOL ST","New Haven","CT",""
16897,"105 BRISTOL ST","New Haven","CT",""
16898,"109 BRISTOL ST","New Haven","CT",""
16899,"111 BRISTOL ST","New Haven","CT",""
16900,"117 BRISTOL ST","New Haven","CT",""
16901,"123 BRISTOL ST","New Haven","CT",""
16902,"127 BRISTOL ST","New Haven","CT",""
16903,"131 BRISTOL ST","New Haven","CT",""
16904,"135 BRISTOL ST","New Haven","CT",""
16905,"81 DIXWELL AV","New Haven","CT",""
16906,"95 DIXWELL AV","New Haven","CT",""
16907,"101 DIXWELL AV","New Haven","CT",""
16908,"103 DIXWELL AV","New Haven","CT",""
16909,"119 DIXWELL AV","New Haven","CT",""
16910,"46 BRISTOL ST","New Haven","CT",""
16911,"120 ASHMUN ST","New Haven","CT",""
16912,"100 ASHMUN ST","New Haven","CT",""
16913,"96 ASHMUN ST","New Haven","CT",""
16914,"1 LAKE PL","New Haven","CT",""
16915,"5 LAKE PL","New Haven","CT",""
16916,"11 LAKE PL","New Haven","CT",""
16917,"13 LAKE PL","New Haven","CT",""
16918,"17 LAKE PL","New Haven","CT",""
16919,"23 LAKE PL","New Haven","CT",""
16920,"29 LAKE PL","New Haven","CT",""
16921,"33 LAKE PL","New Haven","CT",""
16922,"37 LAKE PL","New Haven","CT",""
16923,"39 LAKE PL","New Haven","CT",""
16924,"45 LAKE PL","New Haven","CT",""
16925,"47 LAKE PL","New Haven","CT",""
16926,"51 LAKE PL","New Haven","CT",""
16927,"53 LAKE PL","New Haven","CT",""
16928,"57 LAKE PL","New Haven","CT",""
16929,"61 LAKE PL","New Haven","CT",""
16930,"65 LAKE PL","New Haven","CT",""
16931,"69 LAKE PL","New Haven","CT",""
16932,"73 LAKE PL","New Haven","CT",""
16933,"79 LAKE PL","New Haven","CT",""
16934,"85 LAKE PL","New Haven","CT",""
16935,"91 LAKE PL","New Haven","CT",""
16936,NA,"New Haven","CT",""
16937,"33 DIXWELL AV","New Haven","CT",""
16938,"37 DIXWELL AV","New Haven","CT",""
16939,"45 DIXWELL AV","New Haven","CT",""
16940,NA,"New Haven","CT",""
16941,"51 DIXWELL AV","New Haven","CT",""
16942,"55 DIXWELL AV","New Haven","CT",""
16943,"59 DIXWELL AV","New Haven","CT",""
16944,"65 DIXWELL AV","New Haven","CT",""
16945,"126 BRISTOL ST","New Haven","CT",""
16946,"114 BRISTOL ST","New Haven","CT",""
16947,"90 BRISTOL ST","New Haven","CT",""
16948,"80 BRISTOL ST","New Haven","CT",""
16949,"56 BRISTOL ST","New Haven","CT",""
16950,"60 BRISTOL ST","New Haven","CT",""
16951,"64 BRISTOL ST","New Haven","CT",""
16952,"68 BRISTOL ST","New Haven","CT",""
16953,"72 BRISTOL ST","New Haven","CT",""
16954,"76 BRISTOL ST","New Haven","CT",""
16955,"306 ASHMUN ST","New Haven","CT",""
16956,"304 ASHMUN ST","New Haven","CT",""
16957,"302 ASHMUN ST","New Haven","CT",""
16958,"300 ASHMUN ST","New Haven","CT",""
16959,"5 ADMIRAL ST","New Haven","CT",""
16960,"7 ADMIRAL ST","New Haven","CT",""
16961,"13 ADMIRAL ST","New Haven","CT",""
16962,"17 ADMIRAL ST","New Haven","CT",""
16963,"21 ADMIRAL ST","New Haven","CT",""
16964,"25 ADMIRAL ST","New Haven","CT",""
16965,"29 ADMIRAL ST","New Haven","CT",""
16966,"33 ADMIRAL ST","New Haven","CT",""
16967,"37 ADMIRAL ST","New Haven","CT",""
16968,"41 ADMIRAL ST","New Haven","CT",""
16969,"47 ADMIRAL ST","New Haven","CT",""
16970,"49 ADMIRAL ST","New Haven","CT",""
16971,"53 ADMIRAL ST","New Haven","CT",""
16972,"55 ADMIRAL ST","New Haven","CT",""
16973,"59 ADMIRAL ST","New Haven","CT",""
16974,"61 ADMIRAL ST","New Haven","CT",""
16975,"63 ADMIRAL ST","New Haven","CT",""
16976,"71 ADMIRAL ST","New Haven","CT",""
16977,"75 ADMIRAL ST","New Haven","CT",""
16978,"81 ADMIRAL ST","New Haven","CT",""
16979,"85 ADMIRAL ST","New Haven","CT",""
16980,"253 DIXWELL AV","New Haven","CT",""
16981,"257 DIXWELL AV","New Haven","CT",""
16982,"259 DIXWELL AV","New Haven","CT",""
16983,"263 DIXWELL AV","New Haven","CT",""
16984,"265 DIXWELL AV","New Haven","CT",""
16985,"269 DIXWELL AV","New Haven","CT",""
16986,"275 DIXWELL AV","New Haven","CT",""
16987,"86 HENRY ST","New Haven","CT",""
16988,"84 HENRY ST","New Haven","CT",""
16989,"80 HENRY ST","New Haven","CT",""
16990,"76 HENRY ST","New Haven","CT",""
16991,"68 HENRY ST","New Haven","CT",""
16992,"66 HENRY ST","New Haven","CT",""
16993,"64 HENRY ST","New Haven","CT",""
16994,"58 HENRY ST","New Haven","CT",""
16995,"56 HENRY ST","New Haven","CT",""
16996,"52 HENRY ST","New Haven","CT",""
16997,"48 HENRY ST","New Haven","CT",""
16998,"44 HENRY ST","New Haven","CT",""
16999,"40 HENRY ST","New Haven","CT",""
17000,"36 HENRY ST","New Haven","CT",""
